{
"type": "FeatureCollection",
"name": "CENTRO_GJSON",
"features": [
{ "type": "Feature", "properties": { "fid": 1, "MSLINK": 518, "ZONA": "ilha", "TP_UMIDADE": null, "DISTR_UMID": null, "TEMPERATUR": null, "DESC_COMPL": "Tropical Brasil Central, quente - média > 18° C em todos os meses, úmido 1 a 2 meses secos" }, "geometry": { "type": "MultiPolygon", "coordinates": [ [ [ [ -40.438023292173725, -20.605824709174012 ], [ -40.441946934143346, -20.614780254265952 ], [ -40.441946944444446, -20.614780277777779 ], [ -40.443477637938358, -20.615660377566773 ], [ -40.457575833333337, -20.623766388888889 ], [ -40.468522816628749, -20.619822773920557 ], [ -40.477705444296312, -20.616514762303002 ], [ -40.477705555555552, -20.616514722222224 ], [ -40.489022432650543, -20.638454869428912 ], [ -40.4890225, -20.638455 ], [ -40.50141636008501, -20.642922783895088 ], [ -40.510112222222219, -20.6460575 ], [ -40.622161111111112, -20.79137861111111 ], [ -40.652341791348846, -20.803616894134414 ], [ -40.656793888888892, -20.805422222222223 ], [ -40.659017777777777, -20.806323611111111 ], [ -40.659363278410872, -20.805877391430645 ], [ -40.659633333333332, -20.805528611111111 ], [ -40.667103888888889, -20.795893333333332 ], [ -40.668637667003701, -20.793914254714185 ], [ -40.672555648538669, -20.788858760301054 ], [ -40.688300205391272, -20.796199369319016 ], [ -40.703541834285481, -20.807180463170901 ], [ -40.714983425107043, -20.815419732871959 ], [ -40.793610555555553, -20.872040277777778 ], [ -40.806643411972864, -20.887843132076419 ], [ -40.828960833333333, -20.91490388888889 ], [ -40.84245380402708, -20.945216525788684 ], [ -40.852936111111113, -20.968765555555557 ], [ -40.852819722222222, -21.003361666666667 ], [ -40.876069722222219, -21.070382222222221 ], [ -40.888535427557549, -21.089843123335996 ], [ -40.917446666666663, -21.134978055555557 ], [ -40.935405, -21.153945833333335 ], [ -40.943233871340432, -21.162213877477235 ], [ -40.959936111111112, -21.179853055555554 ], [ -40.981265, -21.2171325 ], [ -40.989939166666666, -21.255461944444445 ], [ -40.989939169602515, -21.255461959673859 ], [ -40.997718333333331, -21.295815555555556 ], [ -41.000518226860734, -21.310346736281119 ], [ -41.009500555555555, -21.356964166666668 ], [ -41.031609274163507, -21.382065488335336 ], [ -41.038304722222222, -21.389667222222222 ], [ -41.047437222222221, -21.41978388888889 ], [ -41.069736388888892, -21.456699722222222 ], [ -41.078266395963816, -21.4708195811547 ], [ -41.085390833333335, -21.482612777777778 ], [ -41.088727947944825, -21.513454421047882 ], [ -41.094898055555554, -21.57047861111111 ], [ -41.044767777777778, -21.596118888888888 ], [ -41.038034897026932, -21.598461852544236 ], [ -41.028163694681872, -21.601896915362797 ], [ -41.028163611111111, -21.601896944444444 ], [ -41.049508055555556, -21.639209722222223 ], [ -41.054954166666668, -21.702141944444445 ], [ -41.053117543862655, -21.71309502213489 ], [ -41.041239166666664, -21.783934166666668 ], [ -41.017205181698252, -21.850802391758538 ], [ -40.998139444444448, -21.903847777777777 ], [ -40.995801111111113, -21.93012388888889 ], [ -40.992873888888887, -21.962953055555555 ], [ -41.00586222222222, -21.988334722222223 ], [ -41.031581666666668, -22.012701944444444 ], [ -41.131306944444447, -22.072066111111113 ], [ -41.156989449592849, -22.086333804041871 ], [ -41.181189722222221, -22.099778055555557 ], [ -41.196054741043724, -22.108032261214834 ], [ -41.222544444444445, -22.12274138888889 ], [ -41.294229166666668, -22.1361325 ], [ -41.347017777777779, -22.16344638888889 ], [ -41.36871338880097, -22.169655730806692 ], [ -41.409419166666666, -22.181305833333333 ], [ -41.51882472222222, -22.20138 ], [ -41.533071165821958, -22.206468159504954 ], [ -41.556138333333337, -22.214706666666668 ], [ -41.633399166666663, -22.25964 ], [ -41.633399174160246, -22.259640001410865 ], [ -41.726706111111113, -22.2772075 ], [ -41.73009888888889, -22.279503055555555 ], [ -41.730295618126476, -22.279636009930407 ], [ -41.730300986723051, -22.279639638157761 ], [ -41.73030111111111, -22.279639722222221 ], [ -41.768673888888891, -22.30559388888889 ], [ -41.8430675, -22.371839444444444 ], [ -41.895787777777777, -22.43709 ], [ -41.923956944444441, -22.45326138888889 ], [ -41.945138852140403, -22.47750774544728 ], [ -41.957874444444442, -22.492085833333334 ], [ -41.961577777777777, -22.496324166666668 ], [ -41.98097083333333, -22.507130833333335 ], [ -42.006285277777778, -22.543018055555557 ], [ -42.012621978405605, -22.562072612482162 ], [ -42.021925277777775, -22.590047777777777 ], [ -42.024786666666664, -22.638153055555556 ], [ -42.0104875, -22.667278055555556 ], [ -42.01048745975509, -22.667278084051883 ], [ -42.007752633273363, -22.669214540049062 ], [ -41.955642222222224, -22.7061125 ], [ -41.938256220878017, -22.702750598066718 ], [ -41.910656111111109, -22.697413611111113 ], [ -41.895325833333331, -22.711585555555555 ], [ -41.895080814731735, -22.716023353391908 ], [ -41.894597222222224, -22.724782222222224 ], [ -41.903668008489809, -22.735229959570244 ], [ -41.906568333333333, -22.738570555555555 ], [ -41.906568367573321, -22.738570557147007 ], [ -41.933784722222221, -22.739835555555555 ], [ -41.933784726108726, -22.739835559727247 ], [ -41.943649637590816, -22.750424348236869 ], [ -41.959552716134262, -22.76749437827759 ], [ -41.95955277777778, -22.767494444444445 ], [ -41.995035833333333, -22.784022222222223 ], [ -41.997465216429838, -22.786022985085182 ], [ -41.998819166666664, -22.787138055555555 ], [ -42.009476888805317, -22.795912930311882 ], [ -42.033347777777777, -22.815566666666665 ], [ -42.042852110941539, -22.827356683660504 ], [ -42.044854444444447, -22.829840555555556 ], [ -42.051760814820462, -22.838407040142283 ], [ -42.055510241876178, -22.843057733246354 ], [ -42.055510277777778, -22.843057777777776 ], [ -42.066421666666663, -22.876651666666667 ], [ -42.063178375961556, -22.881877478033719 ], [ -42.060431388888887, -22.88630361111111 ], [ -42.047382488853458, -22.883991887412922 ], [ -42.035182536714132, -22.881830562059779 ], [ -42.0351825, -22.881830555555556 ], [ -42.032648346801004, -22.884429740831674 ], [ -42.02746472222222, -22.889746388888888 ], [ -42.038003055555556, -22.929943055555555 ], [ -42.016010588685198, -22.965321057817384 ], [ -42.016010555555553, -22.965321111111113 ], [ -42.024458888888887, -22.977295833333333 ], [ -42.024458925449572, -22.97729583982154 ], [ -42.03139682230087, -22.978527067063258 ], [ -42.037090555555558, -22.9795375 ], [ -42.050451388888888, -22.968574722222222 ], [ -42.062401664051336, -22.942579959173081 ], [ -42.069073055555556, -22.928068055555556 ], [ -42.090590785065601, -22.912490010705493 ], [ -42.101311111111109, -22.90472888888889 ], [ -42.152535555555552, -22.900448611111113 ], [ -42.206415277777779, -22.91447888888889 ], [ -42.233286095083194, -22.907659396697088 ], [ -42.250725, -22.903233611111112 ], [ -42.281028826965141, -22.901027524297668 ], [ -42.349440555555553, -22.896047222222222 ], [ -42.444882998492346, -22.896173035786582 ], [ -42.465970277777778, -22.896200833333332 ], [ -42.520135555555555, -22.905180277777777 ], [ -42.533840276908762, -22.902073493115555 ], [ -42.575400833333333, -22.892651944444445 ], [ -42.575950312749221, -22.892651678902155 ], [ -42.594369166666667, -22.892642777777777 ], [ -42.594369447696089, -22.89264277761167 ], [ -42.6136375, -22.892631388888891 ], [ -42.683767081739163, -22.906643781736211 ], [ -42.701219166666668, -22.910130833333334 ], [ -42.813770833333336, -22.9325575 ], [ -42.861348611111111, -22.927896666666665 ], [ -42.994103611111115, -22.931664166666668 ], [ -43.0716325, -22.94805638888889 ], [ -43.071632502653564, -22.94805638695237 ], [ -43.092682131257042, -22.93269477358956 ], [ -43.10180861111111, -22.926034444444443 ], [ -43.104871792442026, -22.92501105208326 ], [ -43.146203055555553, -22.9112025 ], [ -43.149884721672279, -22.903750903420658 ], [ -43.150223611111109, -22.903065 ], [ -43.150223614723792, -22.903064968094512 ], [ -43.153404585161844, -22.8749721694108 ], [ -43.156396388888886, -22.84855 ], [ -43.15639637360843, -22.848549979023776 ], [ -43.154892489570486, -22.846485524936181 ], [ -43.149997206625905, -22.839765694013369 ], [ -43.143550917116904, -22.830915485407743 ], [ -43.1568, -22.849 ], [ -43.1506, -22.9036 ], [ -43.1466, -22.9117 ], [ -43.2114, -22.9292 ], [ -43.211287849654099, -22.928871907994285 ], [ -43.257133055555556, -22.953722222222222 ], [ -43.277235202262986, -22.961677836181057 ], [ -43.280387222222224, -22.962925277777778 ], [ -43.41441, -22.979695555555555 ], [ -43.49695611111111, -23.007725555555556 ], [ -43.565779722222224, -23.0169425 ], [ -43.571298611111111, -23.019921666666665 ], [ -43.58347777777778, -23.02649388888889 ], [ -43.61206138888889, -23.041914166666668 ], [ -43.655569074529566, -23.036711072648444 ], [ -43.665180277777779, -23.035561666666666 ], [ -43.671342420060761, -23.035787204957312 ], [ -43.684487889139547, -23.036268259622798 ], [ -43.702066220282603, -23.036907791469527 ], [ -43.727035555555553, -23.037816111111113 ], [ -43.83439856919037, -23.051226423674933 ], [ -43.931873611111108, -23.063401666666667 ], [ -43.996775495590917, -23.07685612432126 ], [ -44.018615272978899, -23.08138361011628 ], [ -44.018615277777776, -23.081383611111111 ], [ -44.022660833333333, -23.071546666666666 ], [ -44.022660732875117, -23.071546578236855 ], [ -44.018133611289386, -23.067561513359291 ], [ -43.98923527777778, -23.042123333333333 ], [ -43.921779166666667, -23.043097777777778 ], [ -43.914843936769856, -23.034542281289539 ], [ -43.914843888888889, -23.034542222222221 ], [ -43.920921616284168, -23.031143462317523 ], [ -43.926034166666668, -23.028284444444445 ], [ -43.928854286510429, -23.025306188961203 ], [ -43.933653034659095, -23.020238355401542 ], [ -43.933653055555553, -23.020238333333332 ], [ -43.926581111111112, -23.015003611111112 ], [ -43.926581110111371, -23.015003611411068 ], [ -43.847252222222224, -23.038805 ], [ -43.706128055555553, -23.015455833333334 ], [ -43.698281686579797, -23.01599945234603 ], [ -43.66725348215104, -23.018149290345931 ], [ -43.627553471463941, -23.020889279635188 ], [ -43.612435900138657, -23.009251668264273 ], [ -43.6116875, -23.008675555555556 ], [ -43.61168750308282, -23.008675547014398 ], [ -43.614380460718429, -23.001214513827978 ], [ -43.615829444444444, -22.9972 ], [ -43.615829510352953, -22.997199984697428 ], [ -43.635794544242003, -22.992564523357579 ], [ -43.637109634998637, -22.992259186918151 ], [ -43.63710972222222, -22.992259166666667 ], [ -43.64455530160221, -22.990527895534264 ], [ -43.702303888888892, -22.9771 ], [ -43.743754987286977, -22.929650413748252 ], [ -43.750151666666667, -22.922328055555557 ], [ -43.756613664085329, -22.918889193300291 ], [ -43.770635, -22.9114275 ], [ -43.854660555555554, -22.904431388888888 ], [ -43.866092854509638, -22.900905600879103 ], [ -43.872118611111112, -22.899047222222222 ], [ -43.881362217291169, -22.896195602449872 ], [ -43.89337583333333, -22.892489444444443 ], [ -43.917239736476468, -22.897869876860835 ], [ -43.941123693822355, -22.903254830762329 ], [ -43.941124444444448, -22.903255 ], [ -43.945678055555554, -22.904280555555555 ], [ -43.954059421900098, -22.904569296874008 ], [ -43.9965725, -22.906033888888889 ], [ -44.062505277777781, -22.94154 ], [ -44.062825483024355, -22.941268262638793 ], [ -44.071926944444442, -22.933544444444443 ], [ -44.07200367921979, -22.931619606140814 ], [ -44.072022462235978, -22.931147585973164 ], [ -44.073115227658235, -22.903651403323888 ], [ -44.073115277394479, -22.903651398533462 ], [ -44.073115277777781, -22.903651388888889 ], [ -44.085904722222224, -22.902419444444444 ], [ -44.102160594703221, -22.937198613810171 ], [ -44.11275777777778, -22.959871111111109 ], [ -44.13250927551735, -22.978253673633422 ], [ -44.146131320440666, -22.990931602962448 ], [ -44.14613138888889, -22.990931666666668 ], [ -44.178675833333337, -22.997010555555555 ], [ -44.192511666666668, -23.015769722222224 ], [ -44.192511678218203, -23.015769722605597 ], [ -44.243450277777775, -23.017460277777779 ], [ -44.248841794270547, -23.008429743903175 ], [ -44.249294722222224, -23.007671111111112 ], [ -44.236382778508904, -22.976623837497304 ], [ -44.235966111111111, -22.975621944444445 ], [ -44.245572777777781, -22.962629166666666 ], [ -44.278434722222222, -22.96037888888889 ], [ -44.330718696252923, -22.973291345972306 ], [ -44.356004444444444, -22.979536111111113 ], [ -44.356004570943455, -22.979536088679868 ], [ -44.362027081764246, -22.978468156098366 ], [ -44.379837222222221, -22.97531 ], [ -44.379837222580385, -22.97530999047893 ], [ -44.379876352341142, -22.974269809837406 ], [ -44.3804625, -22.958688333333335 ], [ -44.380462420340265, -22.958688285448329 ], [ -44.339516666666668, -22.934075 ], [ -44.344219166666669, -22.905938333333335 ], [ -44.355679715576585, -22.903190415522957 ], [ -44.362584982424373, -22.901534726436367 ], [ -44.362585, -22.901534722222223 ], [ -44.369879700219435, -22.905935981142854 ], [ -44.394622777777776, -22.920864722222223 ], [ -44.411923830793107, -22.915825997136025 ], [ -44.420384444444444, -22.913361944444443 ], [ -44.425493106056521, -22.914379107174362 ], [ -44.440259403023482, -22.917319158419524 ], [ -44.440259444444443, -22.917319166666665 ], [ -44.443548358207771, -22.953368943368751 ], [ -44.445437222222225, -22.974072777777778 ], [ -44.45097815439587, -22.980407873027723 ], [ -44.45591832667013, -22.986056103492889 ], [ -44.455918333333337, -22.986056111111111 ], [ -44.462930676248611, -22.985319433394288 ], [ -44.492481388888891, -22.982215 ], [ -44.492481452707189, -22.982215028349458 ], [ -44.524734444444448, -22.9965425 ], [ -44.531195506671352, -22.998814086548592 ], [ -44.571488333333335, -23.012980277777778 ], [ -44.668213055555555, -23.00762277777778 ], [ -44.677977152361215, -23.01478913408798 ], [ -44.689513333333331, -23.02325611111111 ], [ -44.717344832408742, -23.136383945650007 ], [ -44.72295, -23.1591675 ], [ -44.711485555555555, -23.1738075 ], [ -44.711485530216898, -23.173807499226747 ], [ -44.695091944444442, -23.173307222222221 ], [ -44.662464968643341, -23.150306013667286 ], [ -44.650638101838986, -23.141968365962008 ], [ -44.650638055555554, -23.141968333333335 ], [ -44.632426944444447, -23.141406944444444 ], [ -44.632426886311613, -23.141407018593895 ], [ -44.63052198190929, -23.143836757718038 ], [ -44.624779722222222, -23.151161111111112 ], [ -44.626291069006982, -23.154975046566996 ], [ -44.631460277777776, -23.168019722222223 ], [ -44.651811907940008, -23.175193873885508 ], [ -44.672873598992297, -23.182618329061331 ], [ -44.672873611111115, -23.182618333333334 ], [ -44.674250633644149, -23.185842734719468 ], [ -44.677918055555558, -23.194430277777776 ], [ -44.664744166666665, -23.205681944444443 ], [ -44.664744166940153, -23.205681951909966 ], [ -44.665300759120839, -23.220875669570066 ], [ -44.665660277777775, -23.230689722222223 ], [ -44.656368157991892, -23.235397725876741 ], [ -44.656368055555554, -23.235397777777777 ], [ -44.621260833333331, -23.197675555555556 ], [ -44.614216944444443, -23.190796111111112 ], [ -44.598273236392856, -23.192714279934673 ], [ -44.592234166666664, -23.193440833333334 ], [ -44.591228632938694, -23.195030045671906 ], [ -44.576739444444442, -23.217929722222223 ], [ -44.538042326441122, -23.228363583010683 ], [ -44.538042222222224, -23.22836361111111 ], [ -44.529821111111112, -23.253074722222223 ], [ -44.538499166666668, -23.265004722222223 ], [ -44.578166944444447, -23.27791361111111 ], [ -44.611081944444443, -23.325570555555554 ], [ -44.622425325198883, -23.330430608993677 ], [ -44.623662222222222, -23.330960555555556 ], [ -44.632934576014684, -23.33040692546848 ], [ -44.641959722222225, -23.329868055555554 ], [ -44.678011234170171, -23.313659124978852 ], [ -44.693929444444443, -23.306502222222221 ], [ -44.694015566556331, -23.306520711048574 ], [ -44.721098888888889, -23.312335 ], [ -44.7345075, -23.3215975 ], [ -44.738165653593711, -23.324123836855652 ], [ -44.75138, -23.333249722222224 ], [ -44.800620555555554, -23.334746944444444 ], [ -44.833094416435436, -23.345721934978414 ], [ -44.833094444444441, -23.345721944444445 ], [ -44.836775726320489, -23.344998633144595 ], [ -44.847803031528009, -23.342831949165461 ], [ -44.847803055555552, -23.342831944444445 ], [ -44.848655366068371, -23.33894173048553 ], [ -44.852154444444444, -23.322970833333333 ], [ -44.852154541724595, -23.322970820170859 ], [ -44.860529775718092, -23.321837610747323 ], [ -44.872331111111109, -23.320240833333333 ], [ -44.89215851820444, -23.327494688232324 ], [ -44.892158611111114, -23.327494722222223 ], [ -44.900626382635465, -23.315167288117468 ], [ -44.905618888888888, -23.307899166666665 ], [ -44.914801246807066, -23.307472702140995 ], [ -44.92755708263411, -23.306880218250658 ], [ -44.950803155351423, -23.320892229108974 ], [ -45.038620103840323, -23.365451911176088 ], [ -45.069261789886724, -23.380986716734903 ], [ -45.071373460688427, -23.389020471334952 ], [ -45.074117777777779, -23.399460555555557 ], [ -45.074117639222216, -23.399460572557839 ], [ -45.052108055555557, -23.402161388888889 ], [ -45.047468271282185, -23.409062439865892 ], [ -45.044413624122456, -23.413605813980716 ], [ -45.044413611111111, -23.413605833333332 ], [ -45.049548055555555, -23.423754166666665 ], [ -45.0729925, -23.432763333333334 ], [ -45.078983929382488, -23.44548919294385 ], [ -45.084924722222219, -23.4581075 ], [ -45.11640666666667, -23.445674444444446 ], [ -45.116406727746423, -23.445674564994732 ], [ -45.121375976472585, -23.455482142027726 ], [ -45.131831645228203, -23.476118013243457 ], [ -45.131831666666663, -23.476118055555556 ], [ -45.170450277777775, -23.468878611111112 ], [ -45.170615700809698, -23.469704133785832 ], [ -45.175153611111114, -23.49235 ], [ -45.175543185016586, -23.492328745043718 ], [ -45.195294722222222, -23.491251111111112 ], [ -45.208975590067006, -23.49748074127351 ], [ -45.218703888888889, -23.501910555555554 ], [ -45.212345288057492, -23.528408290495438 ], [ -45.212345277777779, -23.528408333333335 ], [ -45.233355335458121, -23.542042103499828 ], [ -45.244566944444443, -23.5493175 ], [ -45.262503777131272, -23.543742554436964 ], [ -45.303674166666667, -23.530946388888889 ], [ -45.347353333333331, -23.537144722222223 ], [ -45.393813055555555, -23.51338638888889 ], [ -45.402778847679429, -23.514654117991022 ], [ -45.408372222222219, -23.515445 ], [ -45.408372222796061, -23.515445092794508 ], [ -45.408671388888891, -23.563822222222221 ], [ -45.44343, -23.621466666666667 ], [ -45.436891111111109, -23.654650833333335 ], [ -45.414313055555553, -23.674057222222221 ], [ -45.414313055674434, -23.674057223013673 ], [ -45.418841111111114, -23.704203055555556 ], [ -45.415308316571732, -23.723560531262155 ], [ -45.412177222222219, -23.740716944444443 ], [ -45.418048055555559, -23.785911666666667 ], [ -45.428224253512965, -23.798799046862111 ], [ -45.440931388888892, -23.814891666666668 ], [ -45.554585555555555, -23.812936944444445 ], [ -45.591971388888886, -23.788894166666665 ], [ -45.6528275, -23.7754575 ], [ -45.678952222222222, -23.759440833333333 ], [ -45.84485027777778, -23.721863333333335 ], [ -45.885048646444503, -23.724365293282112 ], [ -45.932570277777778, -23.727323055555555 ], [ -45.996051111111115, -23.748865833333333 ], [ -46.060471666666665, -23.803808888888888 ], [ -46.065651487187445, -23.802988807991728 ], [ -46.069670555555554, -23.8023525 ], [ -46.077763611111109, -23.774148888888888 ], [ -46.108698055555557, -23.781539444444444 ], [ -46.140485277777778, -23.825690555555557 ], [ -46.139635835538172, -23.857406306566553 ], [ -46.139635833333337, -23.85740638888889 ], [ -46.18091965678483, -23.884985150403239 ], [ -46.181049166666668, -23.885071666666665 ], [ -46.181049166724534, -23.885071666968194 ], [ -46.182320938147932, -23.891698473850575 ], [ -46.183190277777776, -23.896228333333333 ], [ -46.186920040925585, -23.91566403299397 ], [ -46.189098055555554, -23.927013611111111 ], [ -46.189098098148413, -23.927013642207235 ], [ -46.208064134380557, -23.940860333919286 ], [ -46.226874444444448, -23.954593333333332 ], [ -46.250537706081715, -23.958730713423986 ], [ -46.259733888888888, -23.960338611111112 ], [ -46.259733893320423, -23.960338615346714 ], [ -46.290155, -23.989414722222222 ], [ -46.313258321792766, -23.987123931670482 ], [ -46.317741086317127, -23.986679446902873 ], [ -46.317741111111111, -23.986679444444444 ], [ -46.318929958229241, -23.985236718938779 ], [ -46.327208055555559, -23.975190833333333 ], [ -46.332028611111113, -23.930183611111111 ], [ -46.341531944444448, -23.917022777777778 ], [ -46.380094166666666, -23.91451 ], [ -46.396459722222225, -23.919872777777776 ], [ -46.40533, -23.93175861111111 ], [ -46.403685551477302, -23.942920264099563 ], [ -46.403121115480182, -23.946751359233936 ], [ -46.403121111111112, -23.946751388888888 ], [ -46.401182102441012, -23.94997431373266 ], [ -46.3763225, -23.991294722222221 ], [ -46.376051391317255, -24.001970958471006 ], [ -46.375940834631805, -24.006324671088461 ], [ -46.375940833333331, -24.006324722222221 ], [ -46.380202726333557, -24.010902470578944 ], [ -46.390228611111112, -24.02167138888889 ], [ -46.497235466558116, -24.04879422227123 ], [ -46.519699166666669, -24.054488055555556 ], [ -46.522280341214014, -24.055697486391352 ], [ -46.595196111111115, -24.089862777777778 ], [ -46.65403083333333, -24.11739861111111 ], [ -46.654030858295243, -24.117398627297238 ], [ -46.784319722222222, -24.201882222222221 ], [ -46.900797222222224, -24.252585277777779 ], [ -46.98388527777778, -24.321017222222221 ], [ -46.99000934831728, -24.326425428249223 ], [ -46.994576388888888, -24.330458611111112 ], [ -47.010961666666667, -24.344925555555555 ], [ -47.01873568854036, -24.398564368228037 ], [ -47.018983333333331, -24.400273055555555 ], [ -47.025643743320252, -24.408682534354146 ], [ -47.035112222222224, -24.4206375 ], [ -47.044888099629389, -24.427576982716356 ], [ -47.056871666666666, -24.436083611111112 ], [ -47.073949592924407, -24.437630778827618 ], [ -47.102799722222223, -24.440244444444446 ], [ -47.123949410656984, -24.485788538352626 ], [ -47.123949444444442, -24.485788611111111 ], [ -47.164761904074624, -24.513461988956855 ], [ -47.207511944444441, -24.542449166666668 ], [ -47.247127777777777, -24.588301944444446 ], [ -47.278304508895069, -24.597451039462001 ], [ -47.307593333333337, -24.606046111111112 ], [ -47.336750241112398, -24.623261089462943 ], [ -47.336750277777774, -24.623261111111113 ], [ -47.383867934510427, -24.665868223875783 ], [ -47.383868055555553, -24.665868333333332 ], [ -47.422546666666669, -24.668159166666666 ], [ -47.449826111111108, -24.688676111111111 ], [ -47.490448055555554, -24.685960555555557 ], [ -47.523370158474819, -24.7008304179259 ], [ -47.549906666666665, -24.71281611111111 ], [ -47.585967524984547, -24.72908558053647 ], [ -47.609389444444446, -24.739652777777778 ], [ -47.618448544531077, -24.746119249480838 ], [ -47.637138055555553, -24.75946 ], [ -47.679234444444447, -24.730825277777779 ], [ -47.814683611111114, -24.6718175 ], [ -47.814683651340729, -24.671817482385197 ], [ -48.074136944444447, -24.558214166666666 ], [ -48.492975621105892, -24.405472946123545 ], [ -48.609195715885768, -24.363090042830532 ], [ -48.568219597840859, -24.361632355375214 ], [ -48.609195715888468, -24.363090042829548 ], [ -48.609195833333331, -24.36309 ], [ -48.83044, -24.281586944444445 ], [ -48.830440209360255, -24.281586867018181 ], [ -48.905714722222221, -24.25374861111111 ], [ -49.304485833333331, -24.13773611111111 ], [ -49.434849444444446, -24.106770277777777 ], [ -49.434849479436465, -24.10677026938561 ], [ -49.881297222222223, -23.999698333333335 ], [ -50.31504972222222, -23.907578055555554 ], [ -50.750618547475156, -23.873729714456875 ], [ -50.831098611111109, -23.867475555555554 ], [ -51.067422904346039, -23.843966680334923 ], [ -51.487639444444447, -23.802164722222223 ], [ -51.544630355677945, -23.804258747070577 ], [ -51.77380777451198, -23.812679444324448 ], [ -51.773807777777776, -23.812679444444445 ], [ -51.889704166666668, -23.816787777777776 ], [ -52.510321361485019, -23.892277774444455 ], [ -52.51032138888889, -23.892277777777778 ], [ -52.515715, -23.892923055555556 ], [ -52.542617036522635, -23.896918403312018 ], [ -52.812691283689091, -23.937028397831803 ], [ -52.885448333333336, -23.947833888888891 ], [ -52.885448381714234, -23.947833896004237 ], [ -52.94582611111111, -23.956713611111113 ], [ -53.460255, -24.122910833333332 ], [ -53.82580027777778, -24.261473333333335 ], [ -54.220375277777777, -24.4249375 ], [ -54.305126349853481, -24.458266373537978 ], [ -54.305126388888887, -24.458266388888887 ], [ -54.295257794586938, -24.436835138762639 ], [ -54.270157777777776, -24.382326388888888 ], [ -54.265752871269122, -24.354400300079671 ], [ -54.263021401096232, -24.337083410725096 ], [ -54.263021388888887, -24.337083333333332 ], [ -54.309611666666669, -24.251521944444445 ], [ -54.330506388888892, -24.168401388888888 ], [ -54.329898333333333, -24.151584722222221 ], [ -54.319283048773102, -24.133632942107361 ], [ -54.312291388888887, -24.121809166666665 ], [ -54.310364470116745, -24.111810616378794 ], [ -54.307775, -24.098374166666666 ], [ -54.3141475, -24.087138888888887 ], [ -54.314147551158506, -24.087138798667432 ], [ -54.323315, -24.070971388888889 ], [ -54.307796111111109, -24.047866944444444 ], [ -54.319738055555554, -24.035013055555556 ], [ -54.415507777777776, -23.931803055555555 ], [ -54.472540386467607, -23.879422059827462 ], [ -54.497079722222225, -23.856884166666667 ], [ -54.501834677058604, -23.858885176670274 ], [ -54.508254166666667, -23.861586666666668 ], [ -54.544683333333332, -23.855392222222221 ], [ -54.623631944444448, -23.810792777777777 ], [ -54.672983333333335, -23.807521111111111 ], [ -54.69056333333333, -23.835574166666667 ], [ -54.700135775753743, -23.842110851991684 ], [ -54.7093925, -23.848431944444446 ], [ -54.77393138888889, -23.858101944444446 ], [ -54.812862666816592, -23.870739647517464 ], [ -54.84450972222222, -23.881012777777777 ], [ -54.854306373528644, -23.885724576121536 ], [ -54.883776652746057, -23.899898604415853 ], [ -54.88377666666667, -23.899898611111112 ], [ -54.884175535881148, -23.901021465174804 ], [ -54.887913888888889, -23.911545277777776 ], [ -54.93438722222222, -23.926806944444444 ], [ -54.940465626232488, -23.931181776220058 ], [ -54.958956111111114, -23.94449 ], [ -54.986082979855738, -23.97218035587861 ], [ -54.987680277777777, -23.973810833333335 ], [ -54.987680286199165, -23.973810837126592 ], [ -55.00218156877542, -23.980342670196052 ], [ -55.011987222222224, -23.984759444444446 ], [ -55.0341175, -23.987360833333334 ], [ -55.079438199330177, -23.976784469643516 ], [ -55.085004166666664, -23.975485555555554 ], [ -55.104340207437126, -23.974310524875118 ], [ -55.150895833333337, -23.97148138888889 ], [ -55.240788798195439, -23.996850417159393 ], [ -55.256785786835522, -24.001364986877679 ], [ -55.256785833333332, -24.001365 ], [ -55.259940430748472, -24.000764527356214 ], [ -55.278630277777779, -23.997206944444443 ], [ -55.31783769803544, -23.970596899158306 ], [ -55.323193053357691, -23.96696222371391 ], [ -55.323193055555556, -23.966962222222222 ], [ -55.325498963054642, -23.967018383076649 ], [ -55.378303333333335, -23.968304444444446 ], [ -55.390116934002918, -23.967089453679471 ], [ -55.403878055555559, -23.965674166666666 ], [ -55.411543383717714, -23.960668429860071 ], [ -55.44488777777778, -23.938893333333333 ], [ -55.455171678891837, -23.907908600637043 ], [ -55.456204430096001, -23.904796987675379 ], [ -55.456204444444445, -23.904796944444445 ], [ -55.456789369893777, -23.88477870211053 ], [ -55.461277222222222, -23.731188333333332 ], [ -55.466521388888886, -23.704336944444446 ], [ -55.473200833333337, -23.670128055555555 ], [ -55.530638888888888, -23.603982222222221 ], [ -55.5373475, -23.549849166666668 ], [ -55.564359166666669, -23.499995277777778 ], [ -55.56337111111111, -23.478144722222222 ], [ -55.559532925611748, -23.468379466097357 ], [ -55.538593333333331, -23.415104166666666 ], [ -55.532592559229577, -23.388702957131439 ], [ -55.524933611111109, -23.355006388888889 ], [ -55.528423202289268, -23.343838281052808 ], [ -55.529725277777779, -23.339671111111112 ], [ -55.556807975148544, -23.311112294662134 ], [ -55.562852162577578, -23.304738674006632 ], [ -55.562852222222219, -23.304738611111112 ], [ -55.553434183585857, -23.269812762602253 ], [ -55.545324444444446, -23.239738611111111 ], [ -55.544182861510578, -23.235968630185234 ], [ -55.542299722222225, -23.229749722222223 ], [ -55.53675611111111, -23.211438888888889 ], [ -55.539408905420217, -23.197407297715397 ], [ -55.544130555555554, -23.172432777777779 ], [ -55.5515276757233, -23.160655352778992 ], [ -55.556047777777778, -23.153458611111112 ], [ -55.6037625, -23.1196475 ], [ -55.610842028781043, -23.106372286531347 ], [ -55.613846111111108, -23.100739166666667 ], [ -55.615735833333332, -23.061939722222224 ], [ -55.642631944444446, -23.01207638888889 ], [ -55.647378566747385, -22.953798415058365 ], [ -55.651986944444445, -22.897217777777779 ], [ -55.661798934240032, -22.863913404070097 ], [ -55.663026111111108, -22.859748055555556 ], [ -55.65710416666667, -22.8094625 ], [ -55.623198611111114, -22.743413055555557 ], [ -55.618689155402123, -22.718490472706709 ], [ -55.6183575, -22.7166575 ], [ -55.623649444444446, -22.672674722222222 ], [ -55.632156600965196, -22.659212513088775 ], [ -55.638916666666667, -22.648515 ], [ -55.643082646647251, -22.644997470466734 ], [ -55.714156666666668, -22.58498638888889 ], [ -55.731819953641832, -22.557171167276884 ], [ -55.732795277777775, -22.555635277777778 ], [ -55.738349156915326, -22.543365939154079 ], [ -55.7591775, -22.497353055555557 ], [ -55.770742222222225, -22.432913888888891 ], [ -55.776949449018474, -22.417952596514127 ], [ -55.787076388888892, -22.393543611111109 ], [ -55.796459500406357, -22.368749589775188 ], [ -55.796779444444446, -22.367904166666666 ], [ -55.83262, -22.319341388888891 ], [ -55.8353725, -22.314796666666666 ], [ -55.868903888888887, -22.280856388888889 ], [ -55.892253403134148, -22.263588951426993 ], [ -55.8963575, -22.260553888888889 ], [ -55.896923910948331, -22.259979985443589 ], [ -55.905009166666666, -22.251787777777778 ], [ -55.910006652358049, -22.251587025536864 ], [ -55.921286944444446, -22.251133888888887 ], [ -55.967801640932663, -22.267246646652858 ], [ -55.969184166666665, -22.267725555555554 ], [ -55.969184172314563, -22.267725553383286 ], [ -55.99702222222222, -22.257018611111111 ], [ -56.003167318074198, -22.25465389461765 ], [ -56.008340833333335, -22.252663055555555 ], [ -56.030605277777781, -22.2635425 ], [ -56.063001666666665, -22.258846944444443 ], [ -56.096366666666668, -22.274312777777777 ], [ -56.09636679266778, -22.274312712582727 ], [ -56.108567777777779, -22.267999722222221 ], [ -56.126709479756691, -22.258608859000997 ], [ -56.135267472780505, -22.254178902978772 ], [ -56.1352675, -22.254178888888887 ], [ -56.168230277777781, -22.261226944444445 ], [ -56.200974708311371, -22.257194861395753 ], [ -56.209665277777781, -22.256124722222221 ], [ -56.235638131439984, -22.232861964204524 ], [ -56.237990555555555, -22.230755 ], [ -56.246840633212976, -22.222825245596532 ], [ -56.253061327392039, -22.217251443990655 ], [ -56.253061388888888, -22.21725138888889 ], [ -56.280134563295711, -22.210350120453832 ], [ -56.308527222222224, -22.2031125 ], [ -56.343596944444442, -22.179725555555557 ], [ -56.414447777777781, -22.075648888888889 ], [ -56.454391610674953, -22.071898661545355 ], [ -56.481105555555558, -22.069390555555554 ], [ -56.517739444444445, -22.077892777777777 ], [ -56.517739505358222, -22.077892874309718 ], [ -56.580800277777776, -22.177827222222223 ], [ -56.62670111111111, -22.224618611111111 ], [ -56.626701120882117, -22.224618612179654 ], [ -56.64857111111111, -22.227010277777779 ], [ -56.652929092829069, -22.225197277603122 ], [ -56.65403361111111, -22.224737777777779 ], [ -56.689363333333333, -22.210030833333334 ], [ -56.725121944444446, -22.235359722222221 ], [ -56.725121998506964, -22.235359712163032 ], [ -56.739340474940157, -22.232714139128593 ], [ -56.796908055555555, -22.222002777777778 ], [ -56.798143606778225, -22.222808290299461 ], [ -56.813802777777781, -22.233017222222223 ], [ -56.82644110849148, -22.266111382029251 ], [ -56.826441111111109, -22.266111388888888 ], [ -56.84361361111111, -22.28216 ], [ -56.843613628759492, -22.282159995498141 ], [ -56.853615265701848, -22.27960871424597 ], [ -56.859710555555559, -22.278053888888888 ], [ -56.885304166666664, -22.248255277777776 ], [ -56.917125555555558, -22.233316388888888 ], [ -56.917785712286332, -22.233285777019795 ], [ -56.918683055555555, -22.233244166666665 ], [ -56.940516928079319, -22.232230667677491 ], [ -56.956898055555556, -22.231470277777778 ], [ -56.956898119271784, -22.23147023084265 ], [ -56.973922776657965, -22.218929398740048 ], [ -56.980026539824152, -22.214433198474463 ], [ -56.981295277777775, -22.21349861111111 ], [ -57.020658198296459, -22.224184944186952 ], [ -57.023604136000912, -22.224984713897015 ], [ -57.023604166666665, -22.224984722222221 ], [ -57.054150555555559, -22.22018111111111 ], [ -57.080382777777778, -22.235776666666666 ], [ -57.097090246432771, -22.238064660173869 ], [ -57.107778297859909, -22.239528328475448 ], [ -57.107778333333336, -22.239528333333332 ], [ -57.139015, -22.214476111111111 ], [ -57.162606388888889, -22.21503388888889 ], [ -57.1886875, -22.195268333333335 ], [ -57.201262493163817, -22.193760068581881 ], [ -57.212087777777775, -22.192461666666667 ], [ -57.246606910553311, -22.220085804737305 ], [ -57.2557325, -22.22738861111111 ], [ -57.272043276290134, -22.221242169989186 ], [ -57.301873611111112, -22.210001111111112 ], [ -57.316580817167626, -22.215695136190849 ], [ -57.348204694849997, -22.227938571353157 ], [ -57.368798823179304, -22.215386386169701 ], [ -57.432260347454182, -22.176678215244905 ], [ -57.482754813505892, -22.172491621865738 ], [ -57.490956678901803, -22.168466244576326 ], [ -57.528558611111109, -22.150011666666668 ], [ -57.552869037794906, -22.161953554435058 ], [ -57.565864444444443, -22.168337222222224 ], [ -57.589350833333334, -22.167156111111112 ], [ -57.590284389786135, -22.166309996089979 ], [ -57.603114444444444, -22.154681666666665 ], [ -57.611831325937345, -22.128894312745338 ], [ -57.61700444444444, -22.113590555555554 ], [ -57.629816062373322, -22.098632032340117 ], [ -57.630563773752698, -22.097759023319 ], [ -57.630563888888879, -22.09775888888889 ], [ -57.659751938388965, -22.101328332592804 ], [ -57.659751944444452, -22.101328333333335 ], [ -57.661011161201543, -22.100452187435039 ], [ -57.685844722222221, -22.083173333333335 ], [ -57.738703611111113, -22.088887777777778 ], [ -57.738703613554854, -22.088887783924328 ], [ -57.7472275, -22.110327222222221 ], [ -57.75352641775369, -22.113549548659631 ], [ -57.762175, -22.117973888888891 ], [ -57.80041476876761, -22.117272395628056 ], [ -57.812840833333325, -22.117044444444446 ], [ -57.829635074620811, -22.105927971563766 ], [ -57.845936388888887, -22.095137777777779 ], [ -57.845936423822842, -22.095137781819975 ], [ -57.886065555555554, -22.09978111111111 ], [ -57.925959166666658, -22.070775555555556 ], [ -57.940739444444446, -22.016158611111113 ], [ -57.958783888888881, -22.015211666666666 ], [ -57.967512817619749, -22.009617010328043 ], [ -57.971589444444447, -22.007004166666668 ], [ -57.964566067135983, -21.993393131374333 ], [ -57.95722111111111, -21.97915888888889 ], [ -57.924450895120103, -21.917385555043378 ], [ -57.922485277777781, -21.913680277777779 ], [ -57.922485278684874, -21.913680269051738 ], [ -57.924771111111106, -21.891690833333332 ], [ -57.932590451569602, -21.885749011673951 ], [ -57.94379, -21.87723861111111 ], [ -57.944067222001095, -21.851989464584882 ], [ -57.944067222222223, -21.851989444444445 ], [ -57.941706974987369, -21.846001516621545 ], [ -57.914176944444435, -21.776158055555555 ], [ -57.91240027777777, -21.713616666666667 ], [ -57.903218611111114, -21.678011388888891 ], [ -57.922105277777774, -21.63779 ], [ -57.919386111111116, -21.592506944444445 ], [ -57.933113799983865, -21.560318833786706 ], [ -57.945604166666669, -21.531031944444443 ], [ -57.948224722222221, -21.501842222222223 ], [ -57.948224712095666, -21.501842195489694 ], [ -57.933225, -21.462245277777779 ], [ -57.920070340476528, -21.441637280450323 ], [ -57.887482777777784, -21.390585833333333 ], [ -57.872804780292498, -21.357680115177828 ], [ -57.862539722222216, -21.3346675 ], [ -57.867178611111115, -21.3181575 ], [ -57.86717866685634, -21.318157471310013 ], [ -57.907805, -21.297248611111112 ], [ -57.909991377178123, -21.291155150923348 ], [ -57.91343, -21.281571666666668 ], [ -57.909141388888891, -21.270015833333332 ], [ -57.893607878445728, -21.259035284263984 ], [ -57.865622821907827, -21.239252808973056 ], [ -57.86562277777778, -21.239252777777779 ], [ -57.85293305555556, -21.171960277777778 ], [ -57.853292222222215, -21.14293111111111 ], [ -57.853558611111112, -21.121452777777776 ], [ -57.852769722222227, -21.108034166666666 ], [ -57.839043888888888, -21.094856666666665 ], [ -57.830955277777775, -20.9812775 ], [ -57.832697358586543, -20.969062695534372 ], [ -57.833776666666665, -20.961495 ], [ -57.88182, -20.933758055555554 ], [ -57.89994545811787, -20.916743961371189 ], [ -57.901218779127724, -20.915548714142258 ], [ -57.901218888888899, -20.91554861111111 ], [ -57.905033016016247, -20.89434979951384 ], [ -57.907656388888896, -20.879769166666666 ], [ -57.89124388888888, -20.875564166666667 ], [ -57.876875469053545, -20.854997659382871 ], [ -57.869681388888885, -20.844700277777779 ], [ -57.871270833333341, -20.836964166666668 ], [ -57.872476666666657, -20.831097777777778 ], [ -57.899705833333329, -20.803342777777779 ], [ -57.921237499999989, -20.774760833333332 ], [ -57.921237425262923, -20.77476079306242 ], [ -57.884171388888895, -20.754788333333334 ], [ -57.881291509156149, -20.74792966704825 ], [ -57.874320433257928, -20.731327782902987 ], [ -57.897799070867237, -20.693095719412252 ], [ -57.912505074154232, -20.686931529474208 ], [ -57.919503333333331, -20.683998055555556 ], [ -57.9320225, -20.683355555555554 ], [ -57.954668333333331, -20.70238 ], [ -57.962426297776517, -20.701416304301702 ], [ -57.977821666666671, -20.699503888888888 ], [ -57.982426770736531, -20.692180529427453 ], [ -57.984382222222216, -20.689070833333332 ], [ -57.988196172107926, -20.682286465993592 ], [ -57.989252777777779, -20.680406944444446 ], [ -57.989252773202537, -20.680406916828428 ], [ -57.977498611111116, -20.609459166666667 ], [ -57.978782832542173, -20.603210525684229 ], [ -57.995210277777787, -20.523279444444444 ], [ -58.009671944444442, -20.44887111111111 ], [ -58.017492059250095, -20.43374148804244 ], [ -58.0177125, -20.433315 ], [ -58.024524366527736, -20.426967918202578 ], [ -58.072595, -20.382177222222222 ], [ -58.085916406228655, -20.345406078272006 ], [ -58.098243333333336, -20.31138 ], [ -58.112414166666667, -20.27868 ], [ -58.112414268327527, -20.278679950625804 ], [ -58.115296063757349, -20.27728033292669 ], [ -58.141744444444434, -20.264435 ], [ -58.147641282370145, -20.259379830110994 ], [ -58.157294166666674, -20.251104722222223 ], [ -58.156596388888886, -20.23936611111111 ], [ -58.12786222222222, -20.207223333333335 ], [ -58.137467777777786, -20.188218333333332 ], [ -58.158361944444444, -20.178716388888891 ], [ -58.1454825, -20.142381944444445 ], [ -58.145482492818751, -20.142381940917314 ], [ -58.133584946839854, -20.13653835855294 ], [ -58.132569722222215, -20.136039722222222 ], [ -58.121845470932918, -20.130768781939256 ], [ -58.077375, -20.108911666666668 ], [ -58.008250647861225, -20.066004720477469 ], [ -57.9772625, -20.046769722222223 ], [ -57.977262418862964, -20.046769695276151 ], [ -57.902593333333336, -20.021971666666666 ], [ -57.870644166666665, -19.9630175 ], [ -57.882504166666664, -19.95509 ], [ -57.90331611111111, -19.941175833333332 ], [ -57.916198761469701, -19.933617866687122 ], [ -57.96316250000001, -19.906065277777778 ], [ -57.972386944444445, -19.900650277777778 ], [ -58.105794993345086, -19.801273338290649 ], [ -58.105795, -19.801273333333334 ], [ -58.115275, -19.810875833333334 ], [ -58.144241630847397, -19.757227566339846 ], [ -58.144241666666666, -19.7572275 ], [ -58.120041539959274, -19.719141553258414 ], [ -58.08732055555555, -19.667645555555556 ], [ -58.091359342105349, -19.66193794276667 ], [ -58.092261656360115, -19.66066275138229 ], [ -58.088370764175998, -19.65069802892971 ], [ -58.083890277777776, -19.639223333333334 ], [ -58.029622777777774, -19.535239722222222 ], [ -58.01947396458111, -19.515769694765783 ], [ -58.007808333333344, -19.493389722222222 ], [ -57.977509046929647, -19.429396029014274 ], [ -57.938260277777772, -19.346500555555554 ], [ -57.916821666666664, -19.301146666666668 ], [ -57.89553092935877, -19.261224695920415 ], [ -57.851271944444441, -19.178235277777777 ], [ -57.79673861111111, -19.0597925 ], [ -57.774474166666664, -19.042381944444443 ], [ -57.728166388888887, -19.039610555555555 ], [ -57.720243841557341, -19.039998634205734 ], [ -57.710462222222219, -19.040477777777777 ], [ -57.697793935540666, -19.036048627421742 ], [ -57.697793888888889, -19.036048611111109 ], [ -57.695122494653504, -19.03199799984332 ], [ -57.6881175, -19.021376388888889 ], [ -57.688353611111118, -19.020234444444444 ], [ -57.690924722222213, -19.007777222222224 ], [ -57.720791944444436, -18.937323333333332 ], [ -57.723406284591356, -18.933871612295455 ], [ -57.734215, -18.919600833333334 ], [ -57.760493333333336, -18.884895277777776 ], [ -57.763792542203952, -18.870110554195872 ], [ -57.766188055555546, -18.859375555555555 ], [ -57.761639722222213, -18.841088888888891 ], [ -57.757019176317321, -18.826910198509125 ], [ -57.699621666666665, -18.650779166666666 ], [ -57.699621606294485, -18.650778981062576 ], [ -57.691407660319882, -18.625526593247777 ], [ -57.689326111111122, -18.619127222222222 ], [ -57.645121388888889, -18.488320277777778 ], [ -57.638953090769121, -18.470005160809674 ], [ -57.617791944444441, -18.407172777777777 ], [ -57.578494176835108, -18.29966280559637 ], [ -57.578494166666665, -18.299662777777776 ], [ -57.5561875, -18.2788475 ], [ -57.500751666666666, -18.26633 ], [ -57.47035805555555, -18.225687777777779 ], [ -57.471420277777767, -18.2121725 ], [ -57.482560585237962, -18.200447976427746 ], [ -57.495282777777788, -18.187058611111112 ], [ -57.509573573209423, -18.172014669722014 ], [ -57.5099249573449, -18.171644767125308 ], [ -57.509925, -18.171644722222222 ], [ -57.586900833333331, -18.114618055555557 ], [ -57.586902309976509, -18.11461694807317 ], [ -57.586913055555549, -18.114608888888888 ], [ -57.60361, -18.072948333333333 ], [ -57.606112508563605, -18.069822883552181 ], [ -57.61441527777778, -18.059453333333334 ], [ -57.621385558967575, -18.0507469623311 ], [ -57.640035, -18.0274525 ], [ -57.63900221100586, -18.022392882017403 ], [ -57.637653611111112, -18.015786111111112 ], [ -57.646823948005768, -17.997188868507983 ], [ -57.65040166666666, -17.989933333333333 ], [ -57.65319694234762, -17.990241075457817 ], [ -57.661049099082078, -17.991105548114923 ], [ -57.661049166666665, -17.991105555555556 ], [ -57.677356747270743, -17.94225546158383 ], [ -57.679318888888893, -17.936377777777778 ], [ -57.6884882963477, -17.92031583343088 ], [ -57.729334444444447, -17.848766111111111 ], [ -57.725263875142055, -17.828703280622555 ], [ -57.722995, -17.817520555555557 ], [ -57.707978583711203, -17.813148456626308 ], [ -57.705386944444442, -17.812393888888888 ], [ -57.703913773109591, -17.811964997143512 ], [ -57.699574444444444, -17.810701666666667 ], [ -57.699574466651896, -17.810701627647131 ], [ -57.706749278306837, -17.798095145348018 ], [ -57.718189166666662, -17.777994722222221 ], [ -57.732605, -17.727068333333332 ], [ -57.736946806730437, -17.721034241590353 ], [ -57.753931944444446, -17.69742888888889 ], [ -57.773468333333334, -17.634214166666666 ], [ -57.768798333333336, -17.612561388888889 ], [ -57.768798299441919, -17.612561344300691 ], [ -57.760495031099026, -17.601637402596477 ], [ -57.740415, -17.575219722222222 ], [ -57.739631077020832, -17.560377086951522 ], [ -57.739085, -17.550037777777778 ], [ -57.799941666666669, -17.519971944444446 ], [ -57.845197222222232, -17.486548611111111 ], [ -57.849947643444544, -17.483038921973169 ], [ -57.8608886111111, -17.474955555555557 ], [ -57.865433577274857, -17.474734772450944 ], [ -57.873171388888899, -17.47435888888889 ], [ -57.881093092091739, -17.480085360843308 ], [ -57.91393750000001, -17.503828055555555 ], [ -57.9620825, -17.475251944444445 ], [ -58.001348611111105, -17.453127777777777 ], [ -58.0530475, -17.465715555555555 ], [ -58.063136943666478, -17.463915711452554 ], [ -58.079181111111104, -17.461053611111112 ], [ -58.089727531425702, -17.452329133543863 ], [ -58.094329444444448, -17.448522222222223 ], [ -58.13811722222222, -17.348755555555556 ], [ -58.157588055555564, -17.35114861111111 ], [ -58.168529426830382, -17.373341965043078 ], [ -58.17539634830198, -17.387270751007282 ], [ -58.175396388888899, -17.387270833333332 ], [ -58.19616388888889, -17.381181944444446 ], [ -58.270466591411562, -17.313626676054305 ], [ -58.288233333333338, -17.297473333333333 ], [ -58.388597452255695, -17.178050638165683 ], [ -58.401942777777776, -17.16217111111111 ], [ -58.401942781034002, -17.162171100250625 ], [ -58.402512886579927, -17.160269628858888 ], [ -58.448573888888887, -17.0066425 ], [ -58.448573929804141, -17.006642441619324 ], [ -58.465630277777777, -16.982305277777776 ], [ -58.465630282337536, -16.982305216226759 ], [ -58.481639722222219, -16.766197777777776 ], [ -58.446091944444447, -16.741049444444446 ], [ -58.443864766539903, -16.728777423351712 ], [ -58.438531111111111, -16.699388333333335 ], [ -58.460952222222225, -16.661253055555555 ], [ -58.455790277777787, -16.631243055555554 ], [ -58.439178828332665, -16.600563804828159 ], [ -58.43629112344221, -16.595230578329527 ], [ -58.43629111111111, -16.595230555555556 ], [ -58.423605555555547, -16.5874625 ], [ -58.389692825380479, -16.538093230416642 ], [ -58.3722375, -16.512682222222221 ], [ -58.372237501410652, -16.512682136014579 ], [ -58.372716059205167, -16.483436584029704 ], [ -58.373449444444446, -16.438618055555555 ], [ -58.368413768547434, -16.425388487873473 ], [ -58.36528222222222, -16.417161388888889 ], [ -58.323425, -16.387293888888887 ], [ -58.302111782744547, -16.349828803664249 ], [ -58.298301111111115, -16.343130277777778 ], [ -58.298301116191269, -16.343130246647839 ], [ -58.303559166666666, -16.310910277777779 ], [ -58.326433322830972, -16.281180569205546 ], [ -58.326433333333327, -16.281180555555554 ], [ -58.32915748562754, -16.279696238949587 ], [ -58.340021040135667, -16.273776983117038 ], [ -58.340021111111113, -16.273776944444446 ], [ -58.349180743092987, -16.273320396625859 ], [ -58.374891388888884, -16.27203888888889 ], [ -58.410765555555557, -16.288744444444443 ], [ -58.440129166666665, -16.314179166666666 ], [ -58.461910593342012, -16.321134927991455 ], [ -58.481065555555553, -16.327251944444445 ], [ -58.617310990380062, -16.322717615982647 ], [ -58.698751666666659, -16.320007222222223 ], [ -58.77486357562298, -16.317418437076761 ], [ -58.794989722222219, -16.316733888888891 ], [ -58.826874276840442, -16.315634045132867 ], [ -58.911843888888889, -16.312703055555556 ], [ -58.955848611111108, -16.311167777777779 ], [ -58.955854140228318, -16.311167690453509 ], [ -59.001278611111111, -16.310450277777779 ], [ -59.104540273191276, -16.307702836973498 ], [ -59.122791944444444, -16.307217222222221 ], [ -59.570511944444448, -16.294715833333335 ], [ -59.585427221933323, -16.291596652997967 ], [ -59.603328333333323, -16.287853055555555 ], [ -59.775105542698327, -16.283365315413121 ], [ -59.826844722222219, -16.282013611111111 ], [ -59.846688181794335, -16.281250559008736 ], [ -59.946353888888886, -16.277418055555554 ], [ -60.008311388888899, -16.275009166666667 ], [ -60.152957222222227, -16.266641944444444 ], [ -60.152957230281864, -16.266641823254535 ], [ -60.161952936215883, -16.131376721887172 ], [ -60.1664025, -16.064470277777779 ], [ -60.168181358594367, -16.040361436372702 ], [ -60.177718888888883, -15.911099444444446 ], [ -60.206879444444446, -15.511706666666667 ], [ -60.218061944444443, -15.466086666666667 ], [ -60.219395277777785, -15.460648055555557 ], [ -60.223664569548561, -15.461084263595833 ], [ -60.229913888888881, -15.46172277777778 ], [ -60.229913958688449, -15.461722693988063 ], [ -60.282632913576421, -15.398437110111448 ], [ -60.354695, -15.311931388888889 ], [ -60.365102777777771, -15.31133138888889 ], [ -60.410015277777781, -15.250021944444443 ], [ -60.407433756477005, -15.242951964369727 ], [ -60.405816388888894, -15.2385225 ], [ -60.461841944444451, -15.188311944444445 ], [ -60.47193836313452, -15.186634154559597 ], [ -60.477339166666667, -15.185736666666669 ], [ -60.502023833648153, -15.156615666157139 ], [ -60.5162175, -15.139871111111111 ], [ -60.51039027777778, -15.130146111111111 ], [ -60.534604722222213, -15.1002275 ], [ -60.251416388888899, -15.104769444444443 ], [ -60.246914334655649, -15.105025403705286 ], [ -60.234086413199236, -15.105754720840086 ], [ -60.234086388888898, -15.105754722222221 ], [ -60.234065555555553, -14.961871111111112 ], [ -60.234066292993958, -14.94739460517575 ], [ -60.234066944444443, -14.934606111111114 ], [ -60.234085, -14.820506944444444 ], [ -60.238236425662492, -14.799248865584921 ], [ -60.243361944444445, -14.773002777777778 ], [ -60.247380110667208, -14.765343983037742 ], [ -60.253517222222222, -14.753646388888889 ], [ -60.253517177314414, -14.75364631478527 ], [ -60.244951388888893, -14.739511666666667 ], [ -60.24417152985265, -14.738225092083757 ], [ -60.243659503882526, -14.737380416634199 ], [ -60.243659504415398, -14.737380376715022 ], [ -60.243659444444447, -14.737380277777778 ], [ -60.244069530626163, -14.706664096950924 ], [ -60.244287222222226, -14.690358611111112 ], [ -60.24683106365373, -14.679138686656888 ], [ -60.256619444444446, -14.635965833333334 ], [ -60.269140833333331, -14.613445555555556 ], [ -60.289996944444439, -14.591588055555556 ], [ -60.30056562252247, -14.580509811356094 ], [ -60.314822222222226, -14.565565833333332 ], [ -60.331004722222225, -14.5176725 ], [ -60.346884932738973, -14.49049513843163 ], [ -60.362433055555549, -14.46388611111111 ], [ -60.379058644580944, -14.38074695790182 ], [ -60.379738864388614, -14.377345400295692 ], [ -60.37973888888888, -14.377345277777776 ], [ -60.44081805555556, -14.298403611111111 ], [ -60.445409722222223, -14.2310425 ], [ -60.45977375407972, -14.204862115790952 ], [ -60.467254166666663, -14.191228055555555 ], [ -60.467254140707333, -14.191227957826792 ], [ -60.444864444444441, -14.106937777777778 ], [ -60.43982583333333, -14.100798055555556 ], [ -60.386985277777775, -14.036369722222222 ], [ -60.386985260811613, -14.036369609130309 ], [ -60.38597062240536, -14.029606302297136 ], [ -60.38124472222222, -13.998104722222223 ], [ -60.388606666666668, -13.973432222222222 ], [ -60.389075880875794, -13.971859870479749 ], [ -60.389898888888894, -13.969101944444445 ], [ -60.432863611111109, -13.906310277777777 ], [ -60.437033333333332, -13.871353888888889 ], [ -60.461298055555545, -13.833945277777778 ], [ -60.479455, -13.828734444444445 ], [ -60.499398663952761, -13.819503819127632 ], [ -60.561891388888881, -13.79058 ], [ -60.65361027777778, -13.759933888888888 ], [ -60.730201666666673, -13.726205833333333 ], [ -60.76648295037117, -13.7069677920468 ], [ -60.783218806607074, -13.698093602648978 ], [ -60.775980334547135, -13.692250602889144 ], [ -60.756476111111105, -13.676506666666667 ], [ -60.740483883020758, -13.659761800646743 ], [ -60.737240555555552, -13.656365833333334 ], [ -60.722902187498278, -13.641762083864069 ], [ -60.698804722222221, -13.617218611111111 ], [ -60.63639526764711, -13.554819207783895 ], [ -60.616016388888895, -13.534443611111111 ], [ -60.501418888888892, -13.441974444444444 ], [ -60.400533654881222, -13.373668189591728 ], [ -60.380095346864742, -13.359830046776638 ], [ -60.380095277777777, -13.35983 ], [ -60.261847020202111, -13.310673364826332 ], [ -60.261846944444443, -13.310673333333334 ], [ -60.151195555555553, -13.225871111111111 ], [ -60.029349722222214, -13.165194166666666 ], [ -59.895639722222228, -13.092060833333333 ], [ -59.776413333333323, -13.039174166666667 ], [ -59.695354690160002, -13.012229840582222 ], [ -59.638620555555555, -12.993371111111111 ], [ -59.506827738281061, -12.936133507348472 ], [ -59.460589444444444, -12.916052222222222 ], [ -59.32778, -12.881406944444445 ], [ -59.160611388888881, -12.8139625 ], [ -59.020943888888887, -12.7838025 ], [ -58.882511111111121, -12.755830833333333 ], [ -58.71595416666667, -12.721244444444444 ], [ -58.658143738045261, -12.711366892023079 ], [ -58.590533888888892, -12.699815 ], [ -58.54616434331087, -12.696486244200258 ], [ -58.471123055555566, -12.690856388888889 ], [ -58.378606111111118, -12.680408333333334 ], [ -58.184375833333334, -12.673254444444444 ], [ -58.131727794512912, -12.673764718675896 ], [ -58.015969722222223, -12.674886666666668 ], [ -57.8383413888889, -12.6925475 ], [ -57.786057338956851, -12.697313354111419 ], [ -57.727304166666677, -12.702668888888889 ], [ -57.669612834928252, -12.706329268737433 ], [ -57.644296111111103, -12.707935555555556 ], [ -57.508756111111119, -12.728488611111111 ], [ -57.348708326612609, -12.762203612602359 ], [ -57.34521, -12.762940555555556 ], [ -57.249377222222222, -12.779652222222222 ], [ -57.214375957095754, -12.781521832549478 ], [ -57.103165, -12.787462222222223 ], [ -57.038897538512607, -12.795308256913906 ], [ -56.9453025, -12.806734722222222 ], [ -56.767583888888886, -12.839787777777778 ], [ -56.580443055555556, -12.869325 ], [ -56.42836916666667, -12.89631638888889 ], [ -56.421488477358878, -12.897844078227887 ], [ -56.244689166666667, -12.937098055555555 ], [ -56.137564291982393, -12.951398127428579 ], [ -56.121791666666667, -12.953503611111111 ], [ -56.108393006888186, -12.954373884109991 ], [ -56.066768333333336, -12.9570775 ], [ -56.033987550819575, -12.958585533703753 ], [ -55.988326388888886, -12.96068611111111 ], [ -55.834946944444447, -12.966681111111111 ], [ -55.672194166666664, -12.980634444444444 ], [ -55.548073333333335, -12.976101944444444 ], [ -55.493037777777779, -12.978406944444444 ], [ -55.462658239708119, -12.980929870135531 ], [ -55.423946944444445, -12.984144722222222 ], [ -55.306833888888889, -12.996729722222222 ], [ -55.193225, -13.006969722222221 ], [ -55.102942147503832, -13.009726119635168 ], [ -55.049171388888887, -13.011367777777778 ], [ -54.937919166666667, -13.01001138888889 ], [ -54.89739266175269, -13.010773738803314 ], [ -54.82900027777778, -13.012060277777778 ], [ -54.725959166666669, -13.007186388888888 ], [ -54.626430555555558, -13.0034325 ], [ -54.556176388888886, -13.000894444444445 ], [ -54.531632678089679, -12.995106233266052 ], [ -54.491835833333333, -12.985720833333334 ], [ -54.432999921059263, -12.978825563471228 ], [ -54.430978055555556, -12.97858861111111 ], [ -54.426731964546555, -12.977727492552685 ], [ -54.321023055555557, -12.956289444444444 ], [ -54.19585186559906, -12.934702529722797 ], [ -54.17715, -12.931477222222222 ], [ -54.131210466341187, -12.919852278171263 ], [ -54.03337777777778, -12.895095833333333 ], [ -53.903582222222219, -12.874806388888889 ], [ -53.726221944444447, -12.801279166666667 ], [ -53.579172777777778, -12.753135277777778 ], [ -53.417104166666668, -12.689855 ], [ -53.25518, -12.619585555555556 ], [ -53.143437777777777, -12.566908055555556 ], [ -53.002782777777774, -12.488638611111112 ], [ -52.888711388888886, -12.445030555555556 ], [ -52.707402222222221, -12.358173055555556 ], [ -52.5797475, -12.28673 ], [ -52.464916111111108, -12.222271388888888 ], [ -52.373524444444442, -12.154596944444444 ], [ -52.313491944444444, -12.102201666666666 ], [ -52.236265462517096, -12.049794699637223 ], [ -52.232511111111108, -12.047246944444444 ], [ -52.134417222222226, -11.965642777777777 ], [ -52.076702557987424, -11.915452998941136 ], [ -52.027207777777775, -11.872411388888889 ], [ -51.921342777777781, -11.77112611111111 ], [ -51.840675277777777, -11.705751388888888 ], [ -51.791914552322197, -11.657716766477334 ], [ -51.757945277777779, -11.624253333333334 ], [ -51.696041966370949, -11.55398609527116 ], [ -51.66169027777778, -11.514993055555555 ], [ -51.616152691150944, -11.469826621986527 ], [ -51.560707777777779, -11.414833611111112 ], [ -51.4551, -11.316883055555556 ], [ -51.371531666666669, -11.227267222222222 ], [ -51.329886581660702, -11.183311160733655 ], [ -51.279977222222222, -11.130632222222221 ], [ -51.233005475080695, -11.079086814399821 ], [ -51.147402222222219, -10.985148333333333 ], [ -51.097035088986232, -10.930790267842456 ], [ -51.030884444444446, -10.859398055555555 ], [ -50.918426944444441, -10.703848055555556 ], [ -50.828909444444442, -10.570455 ], [ -50.784390195716185, -10.4978906412575 ], [ -50.746433055555556, -10.436022222222222 ], [ -50.64953777777778, -10.2657825 ], [ -50.566055555555558, -10.129036666666666 ], [ -50.534567340056384, -10.066028382092298 ], [ -50.511137222222224, -10.019144444444445 ], [ -50.456163888888888, -9.913843055555555 ], [ -50.362878055555555, -9.748260555555555 ], [ -50.354718891847462, -9.732125759757395 ], [ -50.297946944444448, -9.619858888888889 ], [ -50.252393888888889, -9.510134166666667 ], [ -50.187296666666668, -9.394356944444445 ], [ -50.124677777777777, -9.270595833333333 ], [ -50.064416944444446, -9.145733055555555 ], [ -50.035683142660311, -9.106641718772119 ], [ -50.0128, -9.07551 ], [ -49.96693888888889, -9.091396388888889 ], [ -49.80686166666667, -9.107814166666667 ], [ -49.74246, -9.11435611111111 ], [ -49.670681666666667, -9.122618611111111 ], [ -49.598901111111111, -9.130866388888888 ], [ -49.460634166666665, -9.163769722222222 ], [ -49.227988611111108, -9.2408875 ], [ -49.000904722222224, -9.306963888888889 ], [ -48.822703611111109, -9.381988611111112 ], [ -48.592073333333332, -9.451688611111111 ], [ -48.37953, -9.501309444444445 ], [ -48.118623888888891, -9.539878888888889 ], [ -47.942607222222222, -9.536878055555556 ], [ -47.667342777777776, -9.519421944444444 ], [ -47.461260277777775, -9.487958888888889 ], [ -47.053998333333332, -9.439930833333333 ], [ -46.823501944444445, -9.359925833333334 ], [ -46.512026111111112, -9.286559722222222 ], [ -46.333520555555559, -9.226467222222222 ], [ -46.111039166666664, -9.125164444444444 ], [ -45.800769166666669, -8.937493055555555 ], [ -45.486833333333337, -8.74173 ], [ -45.173403611111112, -8.533985 ], [ -44.850919722222223, -8.374236666666667 ], [ -44.847673333333333, -8.372294722222222 ], [ -44.847673239294444, -8.372294665956286 ], [ -44.641912777777776, -8.249182777777778 ], [ -44.444826111111112, -8.140461388888889 ], [ -44.206712222222222, -8.046813888888888 ], [ -44.009189166666665, -7.962122222222222 ], [ -43.722294722222223, -7.8712925 ], [ -43.410581666666666, -7.799781666666667 ], [ -43.0962475, -7.831830555555555 ], [ -42.609415277777778, -7.914789444444445 ], [ -42.249350555555559, -7.972633888888889 ], [ -42.027216666666668, -8.0459075 ], [ -41.791673055555556, -8.154306666666667 ], [ -41.4874775, -8.363461666666666 ], [ -41.259017222222219, -8.61006888888889 ], [ -41.146551753733604, -8.788564584036937 ], [ -41.146551666666667, -8.788564722222223 ], [ -41.11215416666667, -8.843047222222221 ], [ -40.9839875, -9.112029444444444 ], [ -40.865921388888886, -9.317741666666667 ], [ -40.774835277777775, -9.452993888888889 ], [ -40.643996666666666, -9.554992777777779 ], [ -40.487304166666668, -9.58468388888889 ], [ -40.33708027777778, -9.555241666666667 ], [ -40.225256111111108, -9.487748333333334 ], [ -40.187761175087275, -9.466878368942952 ], [ -40.187761111111108, -9.466878333333334 ], [ -40.065250555555558, -9.398693611111112 ], [ -39.866767222222222, -9.35159 ], [ -39.689230555555554, -9.293446388888889 ], [ -39.312976388888892, -9.294382777777777 ], [ -39.040639166666665, -9.350264166666667 ], [ -38.87506777777778, -9.394545 ], [ -38.616551666666666, -9.472694166666667 ], [ -38.706824444444443, -9.5880525 ], [ -38.781066666666668, -9.736126111111112 ], [ -38.804286944444442, -9.788256944444445 ], [ -38.804286954764358, -9.788256967635135 ], [ -38.885294395921512, -9.970295168738067 ], [ -38.885294444444447, -9.970295277777778 ], [ -38.916537718343811, -10.040574588530141 ], [ -38.916537777777776, -10.040574722222223 ], [ -38.991168333333334, -10.208603333333333 ], [ -39.07293416666667, -10.502486666666666 ], [ -39.065793611111111, -10.5972525 ], [ -39.065793607026961, -10.597252553628978 ], [ -39.04902666666667, -10.817419166666667 ], [ -39.04902665632558, -10.817419300304278 ], [ -39.029452777777777, -11.070371944444444 ], [ -39.026555277970061, -11.113301108262261 ], [ -39.026555277777781, -11.113301111111111 ], [ -39.017143611111109, -11.251785 ], [ -39.017143603280843, -11.251785114369062 ], [ -39.0131375, -11.310298333333334 ], [ -39.036108611111111, -11.435338888888889 ], [ -39.108521388888889, -11.605374444444445 ], [ -39.202713611111108, -11.7836875 ], [ -39.308189166666665, -11.959146111111112 ], [ -39.43596485363171, -12.15564894157076 ], [ -39.435965, -12.155649166666667 ], [ -39.441743055555555, -12.164538333333333 ], [ -39.558484166666666, -12.404726666666667 ], [ -39.610359166666669, -12.606209444444444 ], [ -39.620948332543328, -12.701157215138634 ], [ -39.620948333333331, -12.701157222222223 ], [ -39.637379444444441, -12.849074722222221 ], [ -39.682805555555554, -13.281261666666667 ], [ -39.719703055555556, -13.4751275 ], [ -39.747080277777776, -13.700508333333334 ], [ -39.731165853617583, -13.798409041884133 ], [ -39.731165833333336, -13.798409166666668 ], [ -39.680311111111109, -14.108913055555556 ], [ -39.669784759044383, -14.320895369577253 ], [ -39.669784722222225, -14.320896111111111 ], [ -39.654421944444444, -14.6226575 ], [ -39.666686111111112, -15.000141944444444 ], [ -39.657990833333336, -15.29109388888889 ], [ -39.64062666666667, -15.59218027777778 ], [ -39.6419575, -15.83758722222222 ], [ -39.586906111111112, -16.022453333333335 ], [ -39.56984083333333, -16.103478055555556 ], [ -39.569840822210104, -16.103478108175764 ], [ -39.54027277777778, -16.243354444444446 ], [ -39.498676944444448, -16.393438055555556 ], [ -39.427583055555559, -16.559375277777779 ], [ -39.427582959591575, -16.559375501243551 ], [ -39.420221111111111, -16.576518611111112 ], [ -39.307175833333332, -16.760641944444444 ], [ -39.209735277777774, -16.935015 ], [ -39.188304444444448, -16.962206666666667 ], [ -39.199645555555556, -16.989789444444444 ], [ -39.217677834498026, -17.06886788748778 ], [ -39.250498333333333, -17.212798333333332 ], [ -39.252755957386611, -17.245824273055774 ], [ -39.255658611111109, -17.288286111111113 ], [ -39.255031111111109, -17.290651666666665 ], [ -39.253955287063114, -17.29470224986736 ], [ -39.240620833333331, -17.344907777777777 ], [ -39.226395277777776, -17.375425277777779 ], [ -39.209208888888888, -17.412263055555556 ], [ -39.20535005849699, -17.472083246784724 ], [ -39.201736666666669, -17.528098611111112 ], [ -39.200885277777779, -17.533331666666665 ], [ -39.194075277777777, -17.575151111111111 ], [ -39.16585361111111, -17.647303611111113 ], [ -39.210420277777779, -17.693778055555555 ], [ -39.296410833333333, -17.800614444444445 ], [ -39.302362788562561, -17.806227394421761 ], [ -39.324502222222222, -17.827105833333334 ], [ -39.335769722222224, -17.8293825 ], [ -39.337604160087189, -17.829753033711391 ], [ -39.368220833333332, -17.835937222222221 ], [ -39.4562825, -17.8705525 ], [ -39.498605555555557, -17.932879444444445 ], [ -39.51402685363999, -17.954820148585426 ], [ -39.514026944444446, -17.954820277777777 ], [ -39.552986944444442, -18.010245833333332 ], [ -39.567304722222225, -18.056383055555557 ], [ -39.581857777777778, -18.103291388888888 ], [ -39.609148671354447, -18.153056633604727 ], [ -39.65464166666667, -18.236013611111112 ], [ -39.696687777777775, -18.338393333333332 ], [ -39.708140555555559, -18.366283888888891 ], [ -39.712891439187935, -18.383666338331352 ], [ -39.73945, -18.480838333333335 ], [ -39.749988333333334, -18.581548888888889 ], [ -39.750140555555554, -18.583004166666665 ], [ -39.747935277777778, -18.659991111111111 ], [ -39.753745610688988, -18.724340316685318 ], [ -39.758048055555555, -18.771989722222223 ], [ -39.739617505851228, -18.942572503772329 ], [ -39.737239444444441, -18.9645825 ], [ -39.738159460060842, -18.99291436969904 ], [ -39.738835579704308, -19.013734760487388 ], [ -39.741716235921984, -19.103194793413437 ], [ -39.741821394221574, -19.106478392257603 ], [ -39.741907222222224, -19.109155277777777 ], [ -39.716998888888888, -19.20803888888889 ], [ -39.713514444444442, -19.2169325 ], [ -39.6942725, -19.266003333333334 ], [ -39.692830555555553, -19.292179166666667 ], [ -39.75705138888889, -19.513474722222224 ], [ -39.770179208431003, -19.542754282288477 ], [ -39.787135555555558, -19.580572777777778 ], [ -39.793100828674973, -19.587912334798109 ], [ -39.8038, -19.601076388888888 ], [ -39.805423702687051, -19.60513328906864 ], [ -39.808489166666668, -19.6127925 ], [ -39.849209166666668, -19.6492375 ], [ -39.9716125, -19.691266388888888 ], [ -39.985487439374801, -19.702194214207921 ], [ -39.993815833333336, -19.70875361111111 ], [ -39.993815909625525, -19.708753713499377 ], [ -40.021823888888889, -19.746341944444445 ], [ -40.026712437603159, -19.752901879222563 ], [ -40.036969722222224, -19.76666611111111 ], [ -40.080198611111108, -19.855803888888889 ], [ -40.096388885349128, -19.881375583659956 ], [ -40.1080925, -19.899860833333335 ], [ -40.135211666666663, -19.925809722222223 ], [ -40.146458888888887, -19.980577777777778 ], [ -40.168802243139559, -20.005470771210813 ], [ -40.183457222222223, -20.021798055555557 ], [ -40.212254841836774, -20.034356067032462 ], [ -40.213102777415095, -20.034725830969194 ], [ -40.226447565475326, -20.051802807501755 ], [ -40.223248183332871, -20.061168252184611 ], [ -40.211522323743147, -20.095468622530408 ], [ -40.221249448769122, -20.166839413479035 ], [ -40.221670555555555, -20.169929166666666 ], [ -40.22123671639892, -20.18968618514965 ], [ -40.220516666666668, -20.222477222222221 ], [ -40.255531351670527, -20.287145634411726 ], [ -40.256169166666666, -20.28832361111111 ], [ -40.270258055555558, -20.292295 ], [ -40.286774722222219, -20.284873611111109 ], [ -40.286812489494693, -20.284893296685159 ], [ -40.29372774138578, -20.288497758809044 ], [ -40.293727777777775, -20.288497777777778 ], [ -40.294292719774127, -20.292518604639355 ], [ -40.296286666666667, -20.30671 ], [ -40.291828203219438, -20.321950201519154 ], [ -40.289646111111111, -20.329409166666668 ], [ -40.29833778969406, -20.334920029647915 ], [ -40.312110555555556, -20.3436525 ], [ -40.327738888270346, -20.3653488638958 ], [ -40.340341111111108, -20.382844166666668 ], [ -40.382043916371025, -20.478042932725884 ], [ -40.415788713971914, -20.555075078748345 ], [ -40.438023292173725, -20.605824709174012 ] ], [ [ -43.1628, -22.68 ], [ -43.1262, -22.6454 ], [ -43.0975, -22.6377 ], [ -43.0806, -22.6486 ], [ -43.0603, -22.6943 ], [ -43.073510346582566, -22.715925826627757 ], [ -43.07342361111111, -22.715870555555554 ], [ -43.067329769928776, -22.705907922924307 ], [ -43.059906388888891, -22.693771666666667 ], [ -43.080196111111114, -22.648120277777778 ], [ -43.094267147235357, -22.638978694795192 ], [ -43.097054949421874, -22.63716753285928 ], [ -43.097055, -22.6371675 ], [ -43.110430259115319, -22.640780812406391 ], [ -43.125771666666665, -22.644925277777777 ], [ -43.1623525, -22.679531666666666 ], [ -43.214819444444444, -22.684879444444444 ], [ -43.234681111111108, -22.692743333333333 ], [ -43.242777200453219, -22.699233049660858 ], [ -43.281638333333333, -22.730383611111112 ], [ -43.292353055555559, -22.739303333333332 ], [ -43.292385532331885, -22.739455255864844 ], [ -43.2821, -22.7309 ], [ -43.2351, -22.6932 ], [ -43.2152, -22.6854 ], [ -43.1628, -22.68 ] ], [ [ -43.124345555555557, -22.794193333333332 ], [ -43.114578784702495, -22.778491230404764 ], [ -43.098956388888887, -22.753375 ], [ -43.092896382551892, -22.728445410532728 ], [ -43.0933, -22.7287 ], [ -43.0994, -22.7539 ], [ -43.12459533086377, -22.794371240127631 ], [ -43.124345555555557, -22.794193333333332 ] ], [ [ -43.136731982617725, -22.803236703011052 ], [ -43.1371, -22.8035 ], [ -43.143098841038501, -22.83029482330533 ], [ -43.142709112113813, -22.829759758555547 ], [ -43.136731982617725, -22.803236703011052 ] ], [ [ -49.113332128488302, -20.372645194289561 ], [ -49.135414451611268, -20.375342110306864 ], [ -49.135414451611268, -20.375342110306867 ], [ -49.113332128488302, -20.372645194289561 ] ] ] ] } }
]
}
