{
"type": "FeatureCollection",
"name": "LITORAL_GJSON",
"features": [
{ "type": "Feature", "properties": { "fid": 1, "MSLINK": 2835, "ZONA": "ilha", "TP_UMIDADE": null, "DISTR_UMID": null, "TEMPERATUR": null, "DESC_COMPL": "Tropical Zona Equatorial, quente - média > 18° C em todos os meses, úmido 3 meses secos" }, "geometry": { "type": "MultiPolygon", "coordinates": [ [ [ [ -38.500011388888886, -13.0360825 ], [ -38.553170277777781, -13.042503055555555 ], [ -38.558973903253801, -13.038372474711363 ], [ -38.561969722222223, -13.036240277777777 ], [ -38.554124166666668, -13.01157888888889 ], [ -38.551349792426862, -13.008144061742717 ], [ -38.532573333333332, -12.984897777777778 ], [ -38.529009203557486, -12.955134611432269 ], [ -38.527112065012027, -12.9392920766033 ], [ -38.5275, -12.9396 ], [ -38.5329, -12.9853 ], [ -38.5545, -13.012 ], [ -38.5623, -13.0367 ], [ -38.618626325469187, -12.991140476567397 ], [ -38.62634388888889, -13.013638055555555 ], [ -38.644762777777778, -13.030456944444444 ], [ -38.663586878842906, -13.039022679573385 ], [ -38.705879961486268, -13.058267760252456 ], [ -38.70588, -13.058267777777777 ], [ -38.760460273328803, -13.131549994026589 ], [ -38.760460277777774, -13.13155 ], [ -38.794718888888887, -13.1374125 ], [ -38.794718897021156, -13.13741243143525 ], [ -38.797032221490213, -13.117908339505037 ], [ -38.779523166635578, -13.075331776775604 ], [ -38.7798, -13.0755 ], [ -38.7974, -13.1184 ], [ -38.7951, -13.1378 ], [ -38.837345500576895, -13.145498946366818 ], [ -38.831726016611988, -13.156206501158158 ], [ -38.826565838393478, -13.166038879247123 ], [ -38.826565833333333, -13.166038888888888 ], [ -38.921347777777775, -13.220918611111111 ], [ -38.94693934578234, -13.258895896311069 ], [ -38.949370833333333, -13.262504166666666 ], [ -38.958634609606321, -13.305097284965527 ], [ -38.969014166666668, -13.352820555555555 ], [ -38.97735327071409, -13.360363433196117 ], [ -38.985783055555558, -13.367988333333333 ], [ -39.028584147527823, -13.377369718027262 ], [ -39.028584166666668, -13.377369722222221 ], [ -39.029909964664789, -13.376585210431665 ], [ -39.039115, -13.371138333333333 ], [ -39.050141388888889, -13.348594166666667 ], [ -39.050141455235185, -13.34859419796541 ], [ -39.072229313536646, -13.359014104911152 ], [ -39.072229444444446, -13.359014166666666 ], [ -39.095756388888887, -13.547466666666667 ], [ -39.084347777777779, -13.581428611111111 ], [ -39.037864444444445, -13.578441944444444 ], [ -39.020558764433126, -13.586478270407291 ], [ -39.00810222222222, -13.592262777777778 ], [ -38.997138888888891, -13.611528611111112 ], [ -38.992754722222223, -13.640782222222223 ], [ -38.972796944444447, -13.671202222222222 ], [ -38.993263055555559, -13.732212222222222 ], [ -38.983734884178567, -13.79358599498128 ], [ -38.98014638888889, -13.816700555555556 ], [ -38.984893051540489, -13.829904155498127 ], [ -38.984893055555553, -13.829904166666667 ], [ -39.003977777777777, -13.827220277777778 ], [ -39.017722210040397, -13.801700799609026 ], [ -39.018686111111109, -13.799911111111111 ], [ -39.027870441517038, -13.796231882372375 ], [ -39.041429166666667, -13.790800277777779 ], [ -39.045472222222223, -13.719079444444445 ], [ -39.050861080814187, -13.708715616339328 ], [ -39.054669444444443, -13.701391388888888 ], [ -39.070083888888888, -13.705113611111111 ], [ -39.070083899771674, -13.705113647948144 ], [ -39.075558772712817, -13.723645489395366 ], [ -39.077871111111108, -13.7314725 ], [ -39.088218883390063, -13.731778888726073 ], [ -39.088218888888889, -13.731778888888888 ], [ -39.089300386723551, -13.730498026002763 ], [ -39.109744444444445, -13.706285277777777 ], [ -39.130281388888889, -13.711789722222223 ], [ -39.135025191218254, -13.719481074852986 ], [ -39.137953333333336, -13.72422861111111 ], [ -39.138196818063747, -13.724622746507631 ], [ -39.138490277777777, -13.725097777777778 ], [ -39.138490233472901, -13.725097880062147 ], [ -39.132901388888889, -13.738000555555555 ], [ -39.073163055555554, -13.770523888888889 ], [ -39.067921450999563, -13.798972553807394 ], [ -39.064785, -13.815995555555556 ], [ -39.029001111111114, -13.854101944444444 ], [ -39.025290077519536, -13.86362467658388 ], [ -39.021455277777775, -13.873465 ], [ -39.021455359069208, -13.873465054846156 ], [ -39.025989928535694, -13.876524463524754 ], [ -39.031593333333333, -13.880305 ], [ -39.061463888888888, -13.864883888888889 ], [ -39.087196551084247, -13.871797532794242 ], [ -39.116255, -13.879604722222222 ], [ -39.116254996836062, -13.879604819232215 ], [ -39.115616388888888, -13.899185277777777 ], [ -39.090651944444446, -13.922927222222222 ], [ -39.090651944650418, -13.922927225721468 ], [ -39.092866944444445, -13.960557777777778 ], [ -39.092866864554985, -13.960557762669406 ], [ -39.090706034403993, -13.960149115205219 ], [ -39.072260833333331, -13.956660833333334 ], [ -39.057266666666663, -13.939871666666667 ], [ -39.052518989554613, -13.939162525784512 ], [ -39.043512222222219, -13.937817222222222 ], [ -39.02637254803156, -13.943959587358314 ], [ -39.022529268278006, -13.945336908029869 ], [ -39.022529166666665, -13.945336944444444 ], [ -39.013463055555555, -13.958118888888889 ], [ -39.013463062390429, -13.958118974721215 ], [ -39.0171125, -14.003948611111111 ], [ -39.007931111111112, -14.01999 ], [ -39.007214722222223, -14.041192222222222 ], [ -39.029126665988613, -14.04936043152477 ], [ -39.055014722222225, -14.059010833333334 ], [ -39.074693888888888, -14.090651944444444 ], [ -39.074684166666664, -14.090938055555556 ], [ -39.074597044259576, -14.093515271380818 ], [ -39.074307777777776, -14.102072222222223 ], [ -39.074165341359965, -14.106279290163924 ], [ -39.073976388888887, -14.111860277777778 ], [ -39.064508888888888, -14.136061111111111 ], [ -39.048646468686854, -14.144149115624401 ], [ -39.043390277777775, -14.146829166666667 ], [ -39.041230126009317, -14.123511708576926 ], [ -39.03959722222222, -14.105885555555556 ], [ -38.9958025, -14.071856111111112 ], [ -38.977906708361864, -14.00334316658542 ], [ -38.957541111111112, -13.925374722222223 ], [ -38.958041575024545, -13.910404635257546 ], [ -38.958413333333333, -13.899284444444444 ], [ -38.951116447137416, -13.88945377530735 ], [ -38.948493888888891, -13.885920555555556 ], [ -38.94085143745216, -13.896037666399845 ], [ -38.937649722222226, -13.900276111111111 ], [ -38.936775277777777, -13.926363055555555 ], [ -38.971123611111111, -14.0857725 ], [ -38.98897, -14.220209722222222 ], [ -38.998394095422078, -14.239571048191943 ], [ -39.001887222222223, -14.2467475 ], [ -39.001887220800441, -14.246747540649771 ], [ -38.999833611111114, -14.305461666666666 ], [ -39.004688169484162, -14.335979509040977 ], [ -39.004822222222224, -14.336822222222223 ], [ -39.004910206532557, -14.337375681512343 ], [ -39.009751666666666, -14.367830555555557 ], [ -39.054295, -14.478701111111109 ], [ -39.08678722222222, -14.634948055555556 ], [ -39.088084161697729, -14.64966665429359 ], [ -39.089146666666664, -14.661724722222223 ], [ -39.09169277777778, -14.690652777777778 ], [ -39.088705833333336, -14.724858333333334 ], [ -39.073466944444448, -14.761916666666666 ], [ -39.075602222222223, -14.797926666666665 ], [ -39.064053055555554, -14.82857027777778 ], [ -39.062329400068116, -14.846694601138555 ], [ -39.058340555555553, -14.8886375 ], [ -39.058335538918641, -14.888689722367904 ], [ -39.058323611111113, -14.888813888888889 ], [ -39.052860161178373, -15.031269637312171 ], [ -39.04749972222222, -15.171039444444446 ], [ -39.043522841345236, -15.214010378960669 ], [ -39.04297833333333, -15.219893888888889 ], [ -39.035414166666669, -15.301294444444444 ], [ -38.992112777777777, -15.512064444444444 ], [ -38.989589444444448, -15.657350555555556 ], [ -38.983655658257661, -15.680428181211834 ], [ -38.98335, -15.681616944444444 ], [ -38.963120833333335, -15.706984166666667 ], [ -38.963120809640195, -15.706984220287247 ], [ -38.949635555555552, -15.737503055555557 ], [ -38.933499722222223, -15.829980277777777 ], [ -38.944985256685996, -15.84675746919074 ], [ -38.944985277777775, -15.8467575 ], [ -38.99769388888889, -15.837356944444444 ], [ -39.00650288054905, -15.840746275015492 ], [ -39.01656361111111, -15.844617222222222 ], [ -39.016563489496072, -15.844617281760266 ], [ -38.992802149272656, -15.856249919656694 ], [ -38.957793333333335, -15.87338888888889 ], [ -38.939785027678667, -15.875273192937506 ], [ -38.935021111111112, -15.875771666666669 ], [ -38.935021099597463, -15.875771703414651 ], [ -38.933740529115944, -15.879858886851924 ], [ -38.930976666666666, -15.88868027777778 ], [ -38.942805566742265, -15.92125883706407 ], [ -38.962673888888887, -15.975979166666669 ], [ -38.963989379428178, -15.979603632569496 ], [ -38.965268055555555, -15.983126666666667 ], [ -38.989428333333336, -16.149084722222224 ], [ -39.037702777777781, -16.242511388888889 ], [ -39.044686944444443, -16.2820125 ], [ -39.043375, -16.350600277777779 ], [ -39.082701316209182, -16.409392113567925 ], [ -39.082701388888886, -16.409392222222223 ], [ -39.10536583333333, -16.488775 ], [ -39.110165611932104, -16.506884610519268 ], [ -39.130771944444447, -16.5846325 ], [ -39.127907133578375, -16.647405002969261 ], [ -39.12742027777778, -16.658072777777779 ], [ -39.137363216720267, -16.684525164801681 ], [ -39.143026944444443, -16.699593055555557 ], [ -39.143026973441941, -16.699593081623473 ], [ -39.154928606061219, -16.710292307240287 ], [ -39.171621666666667, -16.72529888888889 ], [ -39.176238800019718, -16.736687047964548 ], [ -39.181061944444444, -16.748583333333332 ], [ -39.182313611111113, -16.835316388888888 ], [ -39.179931111111109, -16.843608055555556 ], [ -39.174026675533888, -16.864142492281793 ], [ -39.173950555555557, -16.864407222222223 ], [ -39.157061111111112, -16.888234166666667 ], [ -39.157061110885657, -16.888234168404111 ], [ -39.156348171930006, -16.893728302046618 ], [ -39.154317222222225, -16.909379444444443 ], [ -39.183904722222223, -16.951508333333333 ], [ -39.185402283895918, -16.955149793671779 ], [ -39.188304444444448, -16.962206666666667 ], [ -39.209735277777774, -16.935015 ], [ -39.307175833333332, -16.760641944444444 ], [ -39.420221111111111, -16.576518611111112 ], [ -39.427582959591575, -16.559375501243551 ], [ -39.427583055555559, -16.559375277777779 ], [ -39.498676944444448, -16.393438055555556 ], [ -39.54027277777778, -16.243354444444446 ], [ -39.569840822210104, -16.103478108175761 ], [ -39.56984083333333, -16.103478055555556 ], [ -39.586906111111112, -16.022453333333335 ], [ -39.6419575, -15.83758722222222 ], [ -39.64062666666667, -15.59218027777778 ], [ -39.657990833333336, -15.29109388888889 ], [ -39.666686111111112, -15.000141944444444 ], [ -39.654421944444444, -14.6226575 ], [ -39.669784722222225, -14.320896111111111 ], [ -39.669784759044383, -14.320895369577253 ], [ -39.680311111111109, -14.108913055555556 ], [ -39.731165833333336, -13.798409166666668 ], [ -39.731165853617583, -13.798409041884133 ], [ -39.747080277777776, -13.700508333333334 ], [ -39.719703055555556, -13.4751275 ], [ -39.682805555555554, -13.281261666666667 ], [ -39.637379444444441, -12.849074722222221 ], [ -39.620948333333331, -12.701157222222223 ], [ -39.620948332543328, -12.701157215138634 ], [ -39.610359166666669, -12.606209444444444 ], [ -39.558484166666666, -12.404726666666667 ], [ -39.441743055555555, -12.164538333333333 ], [ -39.435965, -12.155649166666667 ], [ -39.43596485363171, -12.15564894157076 ], [ -39.308189166666665, -11.959146111111112 ], [ -39.202713611111108, -11.7836875 ], [ -39.108521388888889, -11.605374444444445 ], [ -39.036108611111111, -11.435338888888889 ], [ -39.0131375, -11.310298333333334 ], [ -39.017143603280843, -11.251785114369062 ], [ -39.017143611111109, -11.251785 ], [ -39.026555277777781, -11.113301111111111 ], [ -39.026555277970061, -11.113301108262261 ], [ -39.029452777777777, -11.070371944444444 ], [ -39.04902665632558, -10.817419300304278 ], [ -39.04902666666667, -10.817419166666667 ], [ -39.065793607026961, -10.597252553628978 ], [ -39.065793611111111, -10.5972525 ], [ -39.07293416666667, -10.502486666666666 ], [ -38.991168333333334, -10.208603333333333 ], [ -38.916537777777776, -10.040574722222223 ], [ -38.916537718343811, -10.040574588530141 ], [ -38.885294444444447, -9.970295277777778 ], [ -38.885294395921512, -9.970295168738067 ], [ -38.804286954764358, -9.788256967635135 ], [ -38.804286944444442, -9.788256944444445 ], [ -38.781066666666668, -9.736126111111112 ], [ -38.706824444444443, -9.5880525 ], [ -38.616551666666666, -9.472694166666667 ], [ -38.496932777777779, -9.343421944444444 ], [ -38.392303182312119, -9.229136249565833 ], [ -38.392303055555558, -9.229136111111112 ], [ -38.142291111111113, -8.956358611111112 ], [ -37.86979, -8.745594722222222 ], [ -37.71870777777778, -8.653411666666667 ], [ -37.512025, -8.501260833333333 ], [ -37.303070555555557, -8.361372777777778 ], [ -37.128811944444443, -8.248731666666666 ], [ -37.0129275, -8.098642777777778 ], [ -36.834094166666667, -7.954755555555556 ], [ -36.654549166666669, -7.828096666666666 ], [ -36.485366666666664, -7.738959722222221 ], [ -36.314761944444442, -7.683941944444444 ], [ -36.200856111111108, -7.628346666666666 ], [ -36.134698333333333, -7.57182111111111 ], [ -36.103301111111108, -7.468443333333333 ], [ -36.122836111111113, -7.284755277777777 ], [ -36.125116388888891, -7.080547777777777 ], [ -36.071792222222221, -6.846004444444445 ], [ -36.051096666666666, -6.607053888888889 ], [ -35.976224444444448, -6.295511111111111 ], [ -35.914030555555556, -6.120624722222222 ], [ -35.872951111111114, -5.932351388888889 ], [ -35.860051111111112, -5.69404 ], [ -35.849891666666664, -5.453024166666666 ], [ -35.80249527777778, -5.256320277777778 ], [ -35.780950833333335, -5.109629444444445 ], [ -35.664664750049475, -5.126272377370793 ], [ -35.618574166666669, -5.132868888888889 ], [ -35.544569166666669, -5.152221666666667 ], [ -35.535206384559991, -5.157193627412659 ], [ -35.514311666666664, -5.168289444444444 ], [ -35.48073, -5.205181111111111 ], [ -35.467534054370034, -5.211479417574147 ], [ -35.440370277777781, -5.224444444444444 ], [ -35.410125833333332, -5.2549 ], [ -35.410125818168837, -5.254900032174341 ], [ -35.395025833333335, -5.2869375 ], [ -35.384112998568455, -5.333904673767938 ], [ -35.378282226792926, -5.358999424772856 ], [ -35.378282222222225, -5.358999444444445 ], [ -35.370941852003803, -5.364937063763572 ], [ -35.344633611111114, -5.386217777777778 ], [ -35.344573440063421, -5.386373372338383 ], [ -35.343949453875418, -5.387986920057172 ], [ -35.343949444444448, -5.387986944444444 ], [ -35.33287, -5.416632222222222 ], [ -35.312676388888889, -5.439035833333334 ], [ -35.307634722222225, -5.466243611111111 ], [ -35.307634609559685, -5.466243700283918 ], [ -35.277327777777778, -5.490231666666666 ], [ -35.287432777777781, -5.525448888888889 ], [ -35.27509151360006, -5.548296840818201 ], [ -35.27083200101913, -5.556182673038448 ], [ -35.270831944444446, -5.556182777777778 ], [ -35.266185830923099, -5.564778823593568 ], [ -35.253730555555556, -5.587823055555556 ], [ -35.237315269411958, -5.651747329488017 ], [ -35.223308611111108, -5.706291944444445 ], [ -35.220831012720303, -5.715919316042696 ], [ -35.214231111111111, -5.741565 ], [ -35.209754444444442, -5.758944444444444 ], [ -35.208664060531724, -5.768131024199138 ], [ -35.2063375, -5.7877325 ], [ -35.204483267957059, -5.828943303719305 ], [ -35.202810833333331, -5.866113611111111 ], [ -35.1706525, -5.9236025 ], [ -35.149335784322403, -5.987489972267497 ], [ -35.13494027777778, -6.030634166666666 ], [ -35.131035752161971, -6.043799253264806 ], [ -35.126413055555552, -6.059385833333334 ], [ -35.127614732005227, -6.08920570739304 ], [ -35.12796, -6.097773611111111 ], [ -35.126354386600042, -6.104509195297543 ], [ -35.1182275, -6.138601666666666 ], [ -35.103948611111115, -6.198408333333333 ], [ -35.092038055555555, -6.222334444444445 ], [ -35.071556048401391, -6.242990808918993 ], [ -35.06975111111111, -6.244811111111111 ], [ -35.067204944563237, -6.247377837760162 ], [ -35.046290277777778, -6.268461388888888 ], [ -35.046290281583644, -6.268461468611942 ], [ -35.047816940814357, -6.300441035070163 ], [ -35.049131356650392, -6.302289083935422 ], [ -35.054673611111113, -6.310081111111111 ], [ -35.06681771522333, -6.32715576103037 ], [ -35.07293220396739, -6.335752752111429 ], [ -35.072932222222221, -6.335752777777778 ], [ -35.058549038607993, -6.340529972567958 ], [ -35.0256225, -6.351466111111111 ], [ -34.989801388888885, -6.4215725 ], [ -34.98627472222222, -6.447120277777778 ], [ -34.990311903376771, -6.472491802158136 ], [ -34.998124444444443, -6.521589444444444 ], [ -34.999256666666668, -6.528712777777778 ], [ -35.000099529565567, -6.580282332482486 ], [ -35.00096458168543, -6.633200976174631 ], [ -35.001616443494818, -6.674171586450736 ], [ -34.994112791257997, -6.695800819864104 ], [ -34.988994166666664, -6.710555277777778 ], [ -34.988994161283671, -6.710555293280136 ], [ -34.975313888888891, -6.749952777777778 ], [ -34.958443888888887, -6.798480277777778 ], [ -34.953101075149938, -6.824033332180808 ], [ -34.95167277777778, -6.830864444444445 ], [ -34.939081666666667, -6.890990277777778 ], [ -34.894720842331331, -6.970095039743604 ], [ -34.892732003095048, -6.973641562080195 ], [ -34.892731944444442, -6.973641666666667 ], [ -34.894424325110691, -7.001791598415247 ], [ -34.894623611111108, -7.005106388888889 ], [ -34.89563293609973, -7.007359823386549 ], [ -34.895977791632774, -7.008129707210023 ], [ -34.897660541614961, -7.011886116581927 ], [ -34.910663333333332, -7.040911944444445 ], [ -34.906711111111115, -7.098387222222223 ], [ -34.921454444444443, -7.143273888888888 ], [ -34.921065974122953, -7.143990560456082 ], [ -34.916287222222223, -7.152806666666667 ], [ -34.897738055555557, -7.149418611111111 ], [ -34.8877525, -7.134936944444444 ], [ -34.865621666257823, -7.058158966499148 ], [ -34.863278077545317, -7.05002840962189 ], [ -34.863278055555554, -7.050028333333334 ], [ -34.85924711319953, -7.048348021190303 ], [ -34.851503333333334, -7.04512 ], [ -34.851458479284403, -7.046000946492317 ], [ -34.847276944444445, -7.1281275 ], [ -34.833833004434211, -7.167547164084569 ], [ -34.822855833333335, -7.199733888888889 ], [ -34.831843888888891, -7.3020425 ], [ -34.83230472163801, -7.451825309282743 ], [ -34.832454166666665, -7.500398888888889 ], [ -34.832461910793469, -7.503489072060083 ], [ -34.83247749989463, -7.50970968017409 ], [ -34.8324775, -7.509709722222222 ], [ -34.832489485594685, -7.514781102412675 ], [ -34.832511388888889, -7.524048888888889 ], [ -34.83719111111111, -7.550180277777778 ], [ -34.838089192908953, -7.55519515549871 ], [ -34.838818333333336, -7.559266666666667 ], [ -34.841017509805596, -7.564214023381025 ], [ -34.855243055555555, -7.596216388888889 ], [ -34.853028333333334, -7.60649 ], [ -34.852179012563674, -7.610426027437547 ], [ -34.840809722222225, -7.663115 ], [ -34.841655243892461, -7.664099763150615 ], [ -34.849133888888886, -7.67281 ], [ -34.858340233623835, -7.671487012301269 ], [ -34.859303333333337, -7.671348611111111 ], [ -34.873524722222221, -7.620416111111112 ], [ -34.873524744918313, -7.62041611014581 ], [ -34.902294111048207, -7.619192502365543 ], [ -34.902294166666664, -7.6191925 ], [ -34.906831666666669, -7.659197777777778 ], [ -34.89938834384813, -7.708631319056688 ], [ -34.899388333333334, -7.708631388888889 ], [ -34.917122777777777, -7.771191111111111 ], [ -34.916917777777776, -7.785570555555554 ], [ -34.887301388888886, -7.844277222222222 ], [ -34.88724534825753, -7.845470290155044 ], [ -34.884826388888889, -7.896968333333333 ], [ -34.884826256799684, -7.896968393338651 ], [ -34.874601388888891, -7.901613333333334 ], [ -34.872917040407501, -7.900626450919023 ], [ -34.866212777777775, -7.896698333333332 ], [ -34.849699188330597, -7.869300591498246 ], [ -34.849699166666667, -7.869300555555554 ], [ -34.836019444444446, -7.878686388888888 ], [ -34.834062222222222, -7.896228611111111 ], [ -34.844206489796086, -7.941497247728335 ], [ -34.845920252129908, -7.949144885546787 ], [ -34.845920277777779, -7.949145 ], [ -34.860979149942281, -8.016442147481994 ], [ -34.860979166666667, -8.016442222222222 ], [ -34.894121944444443, -8.061686944444444 ], [ -34.946717462426953, -8.159996596436477 ], [ -34.9467175, -8.159996666666666 ], [ -34.951094903572617, -8.177698034928397 ], [ -34.956241944444443, -8.198511666666667 ], [ -34.9604927988781, -8.20369690054083 ], [ -34.976161944444442, -8.222810277777779 ], [ -34.980626734731324, -8.25787095674549 ], [ -34.980650277777777, -8.258055833333334 ], [ -34.980593807725292, -8.258433331766387 ], [ -34.980183888888888, -8.261173611111111 ], [ -34.975032815573002, -8.29554270187224 ], [ -34.974914460393322, -8.296332402635677 ], [ -34.980642028276364, -8.306069537388506 ], [ -34.98342355072495, -8.310799108259085 ], [ -34.999603888888892, -8.338311111111111 ], [ -34.999603794764063, -8.338311239583074 ], [ -34.978773055555557, -8.366743333333334 ], [ -34.978773055114907, -8.36674335831429 ], [ -34.9785475, -8.379530277777778 ], [ -34.992521216213419, -8.403045482647915 ], [ -35.001583611111108, -8.418295833333334 ], [ -35.013103832305255, -8.450610992250875 ], [ -35.027396388888889, -8.490702777777777 ], [ -35.031373606225365, -8.519874462507961 ], [ -35.036358055555553, -8.556433888888888 ], [ -35.069988333333335, -8.571425555555555 ], [ -35.113996111111113, -8.575403888888889 ], [ -35.114291088873053, -8.575887071590243 ], [ -35.11893361111111, -8.583491666666667 ], [ -35.113789756916638, -8.599409603484064 ], [ -35.111736111111114, -8.605764722222222 ], [ -35.115014771473675, -8.624047786840952 ], [ -35.116341944444443, -8.631448611111111 ], [ -35.120741589895808, -8.634684638479634 ], [ -35.1297225, -8.641290277777777 ], [ -35.153575833333335, -8.635315833333333 ], [ -35.165231942418231, -8.646728053571739 ], [ -35.165231944444443, -8.646728055555556 ], [ -35.165309531743887, -8.649186462237264 ], [ -35.166293333333336, -8.68035888888889 ], [ -35.159412950690978, -8.689720610795552 ], [ -35.152363611111113, -8.699312222222222 ], [ -35.152363572721022, -8.699312237500889 ], [ -35.136981944444443, -8.705433888888889 ], [ -35.134191988103893, -8.71227911429658 ], [ -35.129860555555553, -8.722906388888889 ], [ -35.143135234407168, -8.745935480315628 ], [ -35.14313527777778, -8.745935555555555 ], [ -35.1708825, -8.794088333333333 ], [ -35.172459721507423, -8.804167773209747 ], [ -35.172459722222222, -8.804167777777778 ], [ -35.176907222222219, -8.83261861111111 ], [ -35.172276666666669, -8.849475 ], [ -35.168241014212491, -8.864150605871295 ], [ -35.156769722222222, -8.905865833333333 ], [ -35.156083333333335, -8.939465555555556 ], [ -35.165996789537225, -8.968409393169313 ], [ -35.17209, -8.986199444444445 ], [ -35.204862222222225, -9.032297777777778 ], [ -35.204862275219057, -9.032297852339914 ], [ -35.214218206592093, -9.045460869314791 ], [ -35.215745555555557, -9.047609722222223 ], [ -35.22980611111111, -9.06739638888889 ], [ -35.239364973941775, -9.08266612522346 ], [ -35.256745, -9.110429722222221 ], [ -35.256745042968831, -9.11042979089188 ], [ -35.280003417158795, -9.147599634504232 ], [ -35.28564027777778, -9.156608055555555 ], [ -35.308300555555554, -9.208333333333334 ], [ -35.348001944444448, -9.257218333333334 ], [ -35.37078972222222, -9.302561666666668 ], [ -35.370789770813602, -9.302561711105955 ], [ -35.379934573232084, -9.310925098312957 ], [ -35.394104444444444, -9.323884166666666 ], [ -35.400958907417539, -9.32674692198378 ], [ -35.425158611111108, -9.336853888888889 ], [ -35.434509444444444, -9.340758611111111 ], [ -35.451747987235358, -9.348586690399699 ], [ -35.453014166666669, -9.349161666666667 ], [ -35.455438091614759, -9.36030290080387 ], [ -35.460723888888886, -9.384598333333333 ], [ -35.493980555555552, -9.417370833333333 ], [ -35.503368328682768, -9.42204862302528 ], [ -35.507426666666667, -9.424070833333333 ], [ -35.538039983446353, -9.423112500518203 ], [ -35.53804, -9.4231125 ], [ -35.538282231955414, -9.430721149201911 ], [ -35.540033055555554, -9.485715555555556 ], [ -35.571257897997562, -9.518297183196909 ], [ -35.62638611111111, -9.575820833333333 ], [ -35.689244399529926, -9.653085830852877 ], [ -35.694186656737955, -9.659160821129026 ], [ -35.694186666666667, -9.659160833333333 ], [ -35.694341232213404, -9.661680817759841 ], [ -35.696651944444447, -9.699353888888888 ], [ -35.706589444444447, -9.710812222222222 ], [ -35.787973333333333, -9.72224 ], [ -35.787973384423942, -9.722239935540625 ], [ -35.796734444444446, -9.711186388888889 ], [ -35.788524660979874, -9.680092973083271 ], [ -35.787349738133337, -9.675643115816698 ], [ -35.787349722222224, -9.675643055555556 ], [ -35.791540249563539, -9.676230251182435 ], [ -35.800913055555554, -9.677543611111112 ], [ -35.807296080119997, -9.684901450915955 ], [ -35.810855, -9.689003888888889 ], [ -35.847443333333331, -9.725146111111112 ], [ -35.891094166666669, -9.750202777777778 ], [ -35.889703888888889, -9.754445 ], [ -35.887433333333334, -9.761372777777778 ], [ -35.876681579347526, -9.758261769429163 ], [ -35.833356944444446, -9.745725833333333 ], [ -35.831072120045206, -9.748608191533801 ], [ -35.824594166666664, -9.756780277777779 ], [ -35.833984146126305, -9.766342869427268 ], [ -35.879431666666669, -9.812625833333334 ], [ -35.8894123907154, -9.828863906495224 ], [ -35.897459166666664, -9.841955555555556 ], [ -35.919455277777779, -9.847266666666666 ], [ -35.966278645401836, -9.835534536848337 ], [ -35.972519412471478, -9.833970841344525 ], [ -35.972519444444444, -9.833970833333334 ], [ -35.991228055555553, -9.834381666666667 ], [ -36.004646666666666, -9.842717222222221 ], [ -36.004646665484906, -9.84271727299882 ], [ -36.004310001397442, -9.857182717733659 ], [ -36.00431, -9.857182777777778 ], [ -35.941377222222222, -9.855791388888889 ], [ -35.929372773379789, -9.867705521169004 ], [ -35.923950555555557, -9.873086944444445 ], [ -35.923950567194588, -9.87308699750435 ], [ -35.925391426011821, -9.879655572586325 ], [ -35.928557222222224, -9.894087777777777 ], [ -35.941783055555554, -9.910461111111111 ], [ -35.983469722222225, -9.946773333333333 ], [ -35.99127543300601, -9.954498282177003 ], [ -36.010075555555552, -9.97310388888889 ], [ -36.054391336096231, -10.045609080292426 ], [ -36.054391388888888, -10.045609166666667 ], [ -36.05481509141525, -10.046302761376122 ], [ -36.055935555555557, -10.048136944444444 ], [ -36.065635050608407, -10.057742906021842 ], [ -36.07422722222222, -10.066252222222221 ], [ -36.121413611111109, -10.08664 ], [ -36.124737208376871, -10.090345566072758 ], [ -36.161207222222224, -10.131006944444444 ], [ -36.174156008091742, -10.138068043980105 ], [ -36.179697222222224, -10.141089722222222 ], [ -36.18029293537429, -10.140917040326441 ], [ -36.18999, -10.138106111111112 ], [ -36.218433095784164, -10.146723590149451 ], [ -36.218733888888892, -10.146814722222222 ], [ -36.218733889682447, -10.146814723487418 ], [ -36.223013822529154, -10.153638397942144 ], [ -36.259724166666665, -10.212167222222222 ], [ -36.299605833333331, -10.250300277777777 ], [ -36.302651173802715, -10.253212326443645 ], [ -36.306333128794392, -10.256733043659716 ], [ -36.314978710402933, -10.272809716723508 ], [ -36.316113278690644, -10.274919557236181 ], [ -36.31773722222222, -10.277939166666666 ], [ -36.328615693360774, -10.326429268346734 ], [ -36.331543611111108, -10.339480277777778 ], [ -36.334708455802513, -10.342336223423896 ], [ -36.386548055555558, -10.389116111111111 ], [ -36.419317040587821, -10.430579230497223 ], [ -36.422893611111114, -10.435104722222222 ], [ -36.430639206533954, -10.452157216398458 ], [ -36.440658055555552, -10.474214444444444 ], [ -36.452217777777776, -10.488998611111111 ], [ -36.466537943020107, -10.494549865379133 ], [ -36.487678333333335, -10.502745 ], [ -36.501393888888892, -10.499846666666667 ], [ -36.507035833333333, -10.47901888888889 ], [ -36.530974722222226, -10.47636 ], [ -36.572808333333334, -10.507994444444444 ], [ -36.631973821592133, -10.528751920834214 ], [ -36.631973888888886, -10.528751944444444 ], [ -36.630189193759549, -10.534882815863751 ], [ -36.630107777777781, -10.5351625 ], [ -36.621572073456278, -10.535967614468753 ], [ -36.616431388888891, -10.5364525 ], [ -36.582809445064036, -10.527650633756423 ], [ -36.541887777777781, -10.516937777777779 ], [ -36.540117358142979, -10.520093036968301 ], [ -36.538315277777777, -10.523304722222223 ], [ -36.540791333056482, -10.525764238766495 ], [ -36.544969166666668, -10.529914166666666 ], [ -36.674190732823618, -10.57256379966338 ], [ -36.72934166666667, -10.590766388888889 ], [ -36.833789722222221, -10.643287777777777 ], [ -36.860343055555553, -10.672989722222223 ], [ -36.897417599725479, -10.694822039002688 ], [ -36.9746875, -10.740324444444445 ], [ -37.010599083473025, -10.780514530987913 ], [ -37.01452861111111, -10.784912222222221 ], [ -37.015702889773586, -10.789862546325308 ], [ -37.017613888888889, -10.797918611111111 ], [ -37.0378, -10.809715277777778 ], [ -37.046410833333333, -10.806685555555555 ], [ -37.046410816571367, -10.806685471756991 ], [ -37.04186138888889, -10.78394138888889 ], [ -37.041861462048558, -10.783941350378599 ], [ -37.071263611111114, -10.768464444444444 ], [ -37.073624781614292, -10.764756764108329 ], [ -37.078366944444447, -10.757310277777778 ], [ -37.082696111111112, -10.720217222222223 ], [ -37.082696190566324, -10.720217224059859 ], [ -37.114108171314655, -10.72094371846131 ], [ -37.12533333333333, -10.721203333333333 ], [ -37.15964, -10.713904444444445 ], [ -37.159325277777775, -10.726839166666666 ], [ -37.15932516527716, -10.726839244240443 ], [ -37.151694846810059, -10.732100661016323 ], [ -37.129816216410646, -10.747186871836105 ], [ -37.129816111111111, -10.747186944444444 ], [ -37.124908897134787, -10.755964561776958 ], [ -37.120889166666664, -10.763154722222222 ], [ -37.123738990764799, -10.773524452041073 ], [ -37.124020833333333, -10.77455 ], [ -37.124020844119251, -10.774550003421378 ], [ -37.146035833333336, -10.781533333333334 ], [ -37.146035843909679, -10.781533464516835 ], [ -37.146168046486437, -10.783173237379041 ], [ -37.1473425, -10.797740555555556 ], [ -37.138531666666665, -10.808857777777778 ], [ -37.092185424795829, -10.836222943966257 ], [ -37.072687049712407, -10.847735835280961 ], [ -37.070324780764452, -10.873553011274403 ], [ -37.071157004026823, -10.875865003409805 ], [ -37.081485572858938, -10.904547511812442 ], [ -37.077113291776485, -10.905981779192684 ], [ -37.053933055555554, -10.913585833333334 ], [ -37.053712330051724, -10.914284328423731 ], [ -37.04835527777778, -10.931236944444445 ], [ -37.054931111111109, -10.941098888888888 ], [ -37.095014146489753, -10.976035815746854 ], [ -37.095014166666665, -10.976035833333333 ], [ -37.126059704145689, -11.030172468478469 ], [ -37.126059722222223, -11.0301725 ], [ -37.144501388888891, -11.043566388888889 ], [ -37.15381793365632, -11.042196433858813 ], [ -37.163365555555558, -11.0407925 ], [ -37.16699, -11.032791666666666 ], [ -37.164204166666664, -11.008454722222222 ], [ -37.144221388888887, -10.988555833333333 ], [ -37.147926944444443, -10.977320833333334 ], [ -37.160403737248757, -10.977622555315907 ], [ -37.164996111111108, -10.977733611111111 ], [ -37.17473833333333, -10.997384722222222 ], [ -37.184827688221979, -11.002469705007721 ], [ -37.194972777777778, -11.007582777777777 ], [ -37.208610939607404, -11.006301296133602 ], [ -37.222368333333335, -11.00500861111111 ], [ -37.237541786512388, -10.996864481685034 ], [ -37.257004166666668, -10.986418333333333 ], [ -37.274219013012726, -10.986829598052056 ], [ -37.2826075, -10.98703 ], [ -37.291512837451151, -10.993936046122876 ], [ -37.297683888888891, -10.998721666666667 ], [ -37.283940427702426, -11.012669811330289 ], [ -37.283658177287329, -11.012956265344144 ], [ -37.283658055555556, -11.012956388888888 ], [ -37.249267232741765, -11.02184166394882 ], [ -37.249267222222223, -11.021841666666667 ], [ -37.238733611111108, -11.032916944444445 ], [ -37.239856944444448, -11.055603611111112 ], [ -37.23627863070832, -11.058827494897102 ], [ -37.227612777777779, -11.066635 ], [ -37.201876111111112, -11.070860833333333 ], [ -37.19697201735115, -11.080122479427558 ], [ -37.187496944444447, -11.098016666666666 ], [ -37.165085833333336, -11.105553333333333 ], [ -37.164915718125684, -11.106390238539955 ], [ -37.1631225, -11.115212222222222 ], [ -37.185844722222221, -11.1414975 ], [ -37.185844753436676, -11.141497536114352 ], [ -37.198662801935313, -11.156327701345026 ], [ -37.204575555555557, -11.163168611111111 ], [ -37.254638412324049, -11.188436124418283 ], [ -37.261918611111113, -11.192110555555555 ], [ -37.26191864637299, -11.192110588371987 ], [ -37.286940277777781, -11.215396944444445 ], [ -37.309360441534125, -11.256018599123886 ], [ -37.311404722222221, -11.2597225 ], [ -37.311863768621876, -11.261005879581313 ], [ -37.320296453944827, -11.284581392061714 ], [ -37.340033943404279, -11.339788084102903 ], [ -37.356050353289589, -11.358688674399865 ], [ -37.35826553997407, -11.361302759390469 ], [ -37.358265555555555, -11.361302777777778 ], [ -37.377683149039733, -11.363551097405665 ], [ -37.394068598163571, -11.365448331834166 ], [ -37.394068611111109, -11.365448333333333 ], [ -37.397701628505764, -11.360564653208069 ], [ -37.404714166666665, -11.351138055555555 ], [ -37.403729698108378, -11.338615255440374 ], [ -37.402162222222223, -11.318676388888889 ], [ -37.378938643298575, -11.281188419763827 ], [ -37.364453611111109, -11.25780638888889 ], [ -37.362357884082776, -11.254978155537174 ], [ -37.361216670570499, -11.253438126933903 ], [ -37.331439900440429, -11.213263269284568 ], [ -37.326996636757507, -11.18724535179787 ], [ -37.326996679487408, -11.187245352849974 ], [ -37.326996666666666, -11.187245277777778 ], [ -37.34066111111111, -11.187581666666667 ], [ -37.345910181293405, -11.194493261305237 ], [ -37.377010277777778, -11.23544361111111 ], [ -37.380181397538429, -11.235844900853861 ], [ -37.383729444444441, -11.236293888888889 ], [ -37.383729464184761, -11.236293891385811 ], [ -37.417593674864037, -11.240577322161576 ], [ -37.424716897160991, -11.241478327352525 ], [ -37.424716944444441, -11.241478333333333 ], [ -37.422438155349241, -11.260074810827904 ], [ -37.418185833333332, -11.294776666666667 ], [ -37.424013923929259, -11.303533569682003 ], [ -37.424763611111111, -11.30466 ], [ -37.438727244763236, -11.31203463951738 ], [ -37.460177222222221, -11.323363055555555 ], [ -37.464874166666668, -11.339682777777778 ], [ -37.437917440838859, -11.368206583395075 ], [ -37.434957269881643, -11.371338838458881 ], [ -37.434957222222224, -11.371338888888889 ], [ -37.433600861042819, -11.38655791665798 ], [ -37.432508055555559, -11.398819722222223 ], [ -37.432508014230137, -11.398819795691589 ], [ -37.427364497221163, -11.407964068877705 ], [ -37.4181325, -11.424376944444445 ], [ -37.451541117945297, -11.454400373608875 ], [ -37.468231666666668, -11.469399722222223 ], [ -37.468231727681022, -11.469399745135066 ], [ -37.537673888888889, -11.4954775 ], [ -37.538373840422402, -11.497080044436927 ], [ -37.544117777777778, -11.510230833333333 ], [ -37.539388977082076, -11.51376775113839 ], [ -37.533638055555556, -11.518069166666667 ], [ -37.525152092936366, -11.51785192425921 ], [ -37.5165375, -11.517631388888889 ], [ -37.48773388888889, -11.507170555555556 ], [ -37.42757860642125, -11.465200199764537 ], [ -37.39371388888889, -11.441572777777777 ], [ -37.383712647815344, -11.442366272708306 ], [ -37.378284444444446, -11.442796944444444 ], [ -37.374554722222221, -11.454038888888888 ], [ -37.37455475223112, -11.454038928057582 ], [ -37.450530555555552, -11.553205277777778 ], [ -37.466823340875735, -11.566780494682485 ], [ -37.480642222222222, -11.578294444444445 ], [ -37.510577522017613, -11.627229963125751 ], [ -37.533035833333336, -11.663942777777779 ], [ -37.550342030831565, -11.677798529185104 ], [ -37.558155833333331, -11.684054444444444 ], [ -37.564942895981815, -11.687711400914898 ], [ -37.583458888888892, -11.697688055555556 ], [ -37.587965003205433, -11.713421467760783 ], [ -37.588137777777774, -11.714024722222222 ], [ -37.544713786241623, -11.701726164341643 ], [ -37.543967286492752, -11.701514740424944 ], [ -37.543967222222221, -11.701514722222223 ], [ -37.538285555555554, -11.720818333333334 ], [ -37.565796211377133, -11.788817338838713 ], [ -37.567437454234501, -11.792874053546569 ], [ -37.5674375, -11.792874166666667 ], [ -37.568082884312489, -11.794470213832923 ], [ -37.584691944444444, -11.835544722222222 ], [ -37.64386861111111, -11.863076666666666 ], [ -37.638174722222224, -11.8823875 ], [ -37.60832010718638, -11.881584318028422 ], [ -37.598794817750729, -11.881328058125568 ], [ -37.598794722222223, -11.881328055555555 ], [ -37.593685524372411, -11.896239828247669 ], [ -37.589436111111112, -11.908642222222221 ], [ -37.601653043977421, -11.956591887617829 ], [ -37.609275, -11.986506944444445 ], [ -37.616101397143041, -12.013327412689666 ], [ -37.624788888888887, -12.04746 ], [ -37.670324722222219, -12.120296111111111 ], [ -37.671690109759759, -12.122480652801968 ], [ -37.672260555555553, -12.123393333333333 ], [ -37.70307435931349, -12.174911686010129 ], [ -37.719632777777775, -12.202596111111111 ], [ -37.722263425207728, -12.207950970235276 ], [ -37.729332777777778, -12.222341111111112 ], [ -37.746091299557115, -12.235799205935853 ], [ -37.754461666666664, -12.242521111111111 ], [ -37.754461714367885, -12.2425211708243 ], [ -37.8685625, -12.385354444444445 ], [ -37.874215871099658, -12.39314699388699 ], [ -37.944360277777776, -12.489833333333333 ], [ -37.981334444444443, -12.572125 ], [ -38.005385382436764, -12.600898758405549 ], [ -38.0161275, -12.613750277777777 ], [ -38.016127570159199, -12.613750302155722 ], [ -38.020482362866311, -12.615263445279728 ], [ -38.026328333333332, -12.617294722222223 ], [ -38.028831932393359, -12.620114551143466 ], [ -38.080342222222221, -12.678131111111112 ], [ -38.080342258306239, -12.67813115179043 ], [ -38.08112527777778, -12.679013888888889 ], [ -38.127088888888892, -12.748626111111111 ], [ -38.149553785507628, -12.767819348488995 ], [ -38.160582252914146, -12.777241646406736 ], [ -38.178189239138021, -12.797594907227824 ], [ -38.256168586888492, -12.887754410785154 ], [ -38.260164722222221, -12.892374722222222 ], [ -38.279683951014071, -12.905803624301837 ], [ -38.357563333333331, -12.959383333333333 ], [ -38.3713175, -12.968845833333333 ], [ -38.421836021541637, -12.995239448622403 ], [ -38.500011388888886, -13.0360825 ] ], [ [ -38.499311666666664, -12.891111666666667 ], [ -38.489938888888886, -12.859904166666666 ], [ -38.489938911467348, -12.859904112742557 ], [ -38.504696163252532, -12.824659386467538 ], [ -38.5051, -12.8249 ], [ -38.4903, -12.8603 ], [ -38.4997, -12.8916 ], [ -38.495524415616984, -12.914068620727628 ], [ -38.495179444444446, -12.913794722222223 ], [ -38.496096926734012, -12.908758376007917 ], [ -38.499311666666664, -12.891111666666667 ] ], [ [ -38.481971741279871, -12.781219948362052 ], [ -38.483798055555553, -12.778306666666667 ], [ -38.535870972357756, -12.760640330805693 ], [ -38.563689722222222, -12.7512025 ], [ -38.563689802249321, -12.751202535116827 ], [ -38.582347369103921, -12.759389693614001 ], [ -38.599333319164508, -12.766843327115886 ], [ -38.599333333333334, -12.766843333333334 ], [ -38.601899461480421, -12.766740159322325 ], [ -38.623431388888889, -12.765874444444444 ], [ -38.626046745954334, -12.762373463285387 ], [ -38.630588611111108, -12.756293611111111 ], [ -38.630588614465324, -12.75629349606664 ], [ -38.631490555555558, -12.725358333333334 ], [ -38.640782665006533, -12.715644064866735 ], [ -38.652761666666663, -12.703120833333333 ], [ -38.654590079763807, -12.690633226579022 ], [ -38.657039722222223, -12.673902777777778 ], [ -38.690411944444442, -12.648719722222221 ], [ -38.694270261527578, -12.648822364336697 ], [ -38.698765277777781, -12.648941944444445 ], [ -38.711021481998422, -12.649267386783153 ], [ -38.719603888888891, -12.649495277777778 ], [ -38.719720692776427, -12.649893318009005 ], [ -38.6991, -12.6494 ], [ -38.6908, -12.6492 ], [ -38.6574, -12.6743 ], [ -38.6531, -12.7036 ], [ -38.6319, -12.7258 ], [ -38.6309, -12.7567 ], [ -38.6238, -12.7663 ], [ -38.5997, -12.7673 ], [ -38.564, -12.7516 ], [ -38.4842, -12.7788 ], [ -38.4751, -12.7932 ], [ -38.476382275163481, -12.80760093645141 ], [ -38.476046944444441, -12.80740138888889 ], [ -38.474768888888889, -12.792709722222222 ], [ -38.481971741279871, -12.781219948362052 ] ], [ [ -38.74765920033294, -12.687859839526336 ], [ -38.7262, -12.6713 ], [ -38.726127771574689, -12.671050695435229 ], [ -38.737366387553244, -12.679729252132903 ], [ -38.747734444444447, -12.687735555555555 ], [ -38.74765920033294, -12.687859839526336 ] ], [ [ -38.8664977451106, -12.803411419245236 ], [ -38.866497777777781, -12.80341138888889 ], [ -38.867421512378961, -12.801771724544757 ], [ -38.879172777777775, -12.780912777777777 ], [ -38.880602374495965, -12.761636173995175 ], [ -38.881949722222224, -12.743468611111112 ], [ -38.857695, -12.689006111111111 ], [ -38.859060637579468, -12.685437363592239 ], [ -38.8614025, -12.6793175 ], [ -38.881966111111112, -12.681485 ], [ -38.88216965971931, -12.681886648068806 ], [ -38.8618, -12.6798 ], [ -38.8581, -12.6894 ], [ -38.8823, -12.7439 ], [ -38.8795, -12.7814 ], [ -38.8669, -12.8039 ], [ -38.8174, -12.8498 ], [ -38.7918, -12.8442 ], [ -38.79154704336004, -12.843829389108901 ], [ -38.817027777777781, -12.849381944444444 ], [ -38.81702781065249, -12.849381913895249 ], [ -38.8664977451106, -12.803411419245236 ] ], [ [ -38.95445853096308, -12.734442683629615 ], [ -38.9324, -12.7372 ], [ -38.9117, -12.7398 ], [ -38.911458754143823, -12.739324893364886 ], [ -38.932023611111113, -12.736751944444444 ], [ -38.954414444444446, -12.733947222222222 ], [ -38.95445853096308, -12.734442683629615 ] ], [ [ -38.893560719880107, -12.825759780072332 ], [ -38.8937, -12.8258 ], [ -38.906449412106035, -12.856734620071233 ], [ -38.906249722222221, -12.856671944444445 ], [ -38.906249716836626, -12.85667193132439 ], [ -38.893560719880107, -12.825759780072332 ] ], [ [ -38.757764844749794, -12.935920745374768 ], [ -38.7315, -12.9062 ], [ -38.73150488494457, -12.906192556274931 ], [ -38.736070472615594, -12.911348542184776 ], [ -38.757735833333335, -12.935815555555555 ], [ -38.757764844749794, -12.935920745374768 ] ], [ [ -38.790270929998115, -13.002115527020921 ], [ -38.7746895171014, -12.982765586353835 ], [ -38.78478538121562, -12.995253133706752 ], [ -38.7901875, -13.001935 ], [ -38.790270929998115, -13.002115527020921 ] ], [ [ -38.887209757152867, -13.087281740014831 ], [ -38.902601666666669, -13.099656944444444 ], [ -38.93882111111111, -13.097396666666667 ], [ -38.945148951637002, -13.101234694636908 ], [ -38.947277222222219, -13.102525555555555 ], [ -38.947236767914561, -13.102775142042352 ], [ -38.9392, -13.0978 ], [ -38.903, -13.1001 ], [ -38.8777, -13.0798 ], [ -38.818, -13.0619 ], [ -38.817789566393252, -13.061443792791483 ], [ -38.843838919775123, -13.06928433769319 ], [ -38.8773825, -13.079380555555556 ], [ -38.887209757152867, -13.087281740014831 ] ], [ [ -38.6926, -12.9393 ], [ -38.6983, -12.9786 ], [ -38.7261, -13.0283 ], [ -38.745613259662647, -13.054514783183158 ], [ -38.745584461929283, -13.054497307450127 ], [ -38.738472099672535, -13.044951028510994 ], [ -38.725734166666669, -13.027854166666666 ], [ -38.697973888888889, -12.978170833333333 ], [ -38.6922675, -12.938892222222222 ], [ -38.681061908866269, -12.921108530060833 ], [ -38.6811, -12.9211 ], [ -38.6926, -12.9393 ] ] ], [ [ [ -38.900914722222225, -13.652730277777778 ], [ -38.909244482585351, -13.656984027637256 ], [ -38.917890277777779, -13.661399166666667 ], [ -38.942184385625559, -13.657230565648227 ], [ -38.942184444444443, -13.657230555555556 ], [ -38.946926497586759, -13.651447302320632 ], [ -38.956553611111111, -13.639706388888889 ], [ -38.958018361841916, -13.634438070707054 ], [ -38.962404340648114, -13.618662384007052 ], [ -38.967254991199844, -13.574737779947258 ], [ -38.937696666666668, -13.582024722222222 ], [ -38.935744840990644, -13.584192318768826 ], [ -38.90907416666667, -13.613811388888889 ], [ -38.908568388141795, -13.616223849485459 ], [ -38.900914734938581, -13.652730217123334 ], [ -38.900914722222225, -13.652730277777778 ] ] ], [ [ [ -39.03331027777778, -13.558718055555556 ], [ -39.050142281478543, -13.554557440424626 ], [ -39.062861944444442, -13.551413333333333 ], [ -39.065986440741462, -13.542520042415529 ], [ -39.068540730078382, -13.535249463684242 ], [ -39.064283865693731, -13.50573623151061 ], [ -39.047155279458337, -13.501977070396316 ], [ -39.032965288459074, -13.514627804600176 ], [ -39.029315091016905, -13.515743946807699 ], [ -39.008588055555556, -13.522081944444444 ], [ -39.001859047406576, -13.532491656372706 ], [ -39.00133778132453, -13.533298075398427 ], [ -39.004270819055876, -13.54970742012247 ], [ -39.004270833333337, -13.5497075 ], [ -39.03331027777778, -13.558718055555556 ] ] ], [ [ [ -38.938785277777775, -13.382961666666667 ], [ -38.937353286641077, -13.383070694252943 ], [ -38.923235833333337, -13.384145555555556 ], [ -38.910711388888892, -13.453946944444445 ], [ -38.918681790975356, -13.476799677386477 ], [ -38.94233777777778, -13.544626111111111 ], [ -38.962964166666666, -13.546865 ], [ -38.962964169123921, -13.546864995851891 ], [ -38.984823611111111, -13.509963888888889 ], [ -39.002718233474525, -13.497805788344614 ], [ -39.014776064269974, -13.489613308988064 ], [ -39.030939873821289, -13.468857693251847 ], [ -39.028150696086328, -13.447554252370777 ], [ -39.035744433720119, -13.424916369274898 ], [ -39.027583632781173, -13.409990872966256 ], [ -39.027583611111112, -13.409990833333334 ], [ -38.986083050959706, -13.40111002424811 ], [ -38.965935555555554, -13.396798611111111 ], [ -38.952431721431807, -13.389916478851299 ], [ -38.938785277777775, -13.382961666666667 ] ] ], [ [ [ -36.9721, -10.7908 ], [ -36.9997, -10.8464 ], [ -37.023, -10.8696 ], [ -37.0417, -10.8717 ], [ -37.0439, -10.8507 ], [ -36.9958, -10.7962 ], [ -36.986, -10.7782 ], [ -36.9343, -10.7301 ], [ -36.902, -10.7261 ], [ -36.9001, -10.7357 ], [ -36.91, -10.7473 ], [ -36.9721, -10.7908 ] ] ], [ [ [ -34.8883, -7.7968 ], [ -34.8788, -7.7519 ], [ -34.8691, -7.7214 ], [ -34.849, -7.7068 ], [ -34.8485, -7.7403 ], [ -34.8681, -7.7885 ], [ -34.8765, -7.7982 ], [ -34.8883, -7.7968 ] ] ], [ [ [ -34.8783, -7.6688 ], [ -34.8851, -7.6641 ], [ -34.8854, -7.6401 ], [ -34.8786, -7.6417 ], [ -34.875, -7.6592 ], [ -34.8783, -7.6688 ] ] ] ] } }
]
}
