{
"type": "FeatureCollection",
"name": "NORDESTE_GJSON",
"features": [
{ "type": "Feature", "properties": { "fid": 1, "MSLINK": 2918, "ZONA": "ilha", "TP_UMIDADE": null, "DISTR_UMID": null, "TEMPERATUR": null, "DESC_COMPL": "Equatorial, quente - média > 18° C em todos os meses, úmido 3 meses secos" }, "geometry": { "type": "MultiPolygon", "coordinates": [ [ [ [ -39.312976388888892, -9.294382777777777 ], [ -39.689230555555554, -9.293446388888889 ], [ -39.866767222222222, -9.35159 ], [ -40.065250555555558, -9.398693611111112 ], [ -40.187761111111108, -9.466878333333334 ], [ -40.187761175087275, -9.466878368942952 ], [ -40.225256111111108, -9.487748333333334 ], [ -40.33708027777778, -9.555241666666667 ], [ -40.487304166666668, -9.58468388888889 ], [ -40.643996666666666, -9.554992777777779 ], [ -40.774835277777775, -9.452993888888889 ], [ -40.865921388888886, -9.317741666666667 ], [ -40.9839875, -9.112029444444444 ], [ -41.11215416666667, -8.843047222222221 ], [ -41.146551666666667, -8.788564722222223 ], [ -41.146551753733604, -8.788564584036937 ], [ -41.259017222222219, -8.61006888888889 ], [ -41.4874775, -8.363461666666666 ], [ -41.791673055555556, -8.154306666666667 ], [ -42.027216666666668, -8.0459075 ], [ -42.249350555555559, -7.972633888888889 ], [ -42.609415277777778, -7.914789444444445 ], [ -43.0962475, -7.831830555555555 ], [ -43.410581666666666, -7.799781666666667 ], [ -43.722294722222223, -7.8712925 ], [ -44.009189166666665, -7.962122222222222 ], [ -44.206712222222222, -8.046813888888888 ], [ -44.444826111111112, -8.140461388888889 ], [ -44.641912777777776, -8.249182777777778 ], [ -44.847673239294444, -8.372294665956286 ], [ -44.847673333333333, -8.372294722222222 ], [ -44.850919722222223, -8.374236666666667 ], [ -45.173403611111112, -8.533985 ], [ -45.486833333333337, -8.74173 ], [ -45.800769166666669, -8.937493055555555 ], [ -46.111039166666664, -9.125164444444444 ], [ -46.333520555555559, -9.226467222222222 ], [ -46.512026111111112, -9.286559722222222 ], [ -46.823501944444445, -9.359925833333334 ], [ -47.053998333333332, -9.439930833333333 ], [ -47.461260277777775, -9.487958888888889 ], [ -47.667342777777776, -9.519421944444444 ], [ -47.942607222222222, -9.536878055555556 ], [ -48.118623888888891, -9.539878888888889 ], [ -48.37953, -9.501309444444445 ], [ -48.592073333333332, -9.451688611111111 ], [ -48.822703611111109, -9.381988611111112 ], [ -49.000904722222224, -9.306963888888889 ], [ -49.227988611111108, -9.2408875 ], [ -49.460634166666665, -9.163769722222222 ], [ -49.598901111111111, -9.130866388888888 ], [ -49.670681666666667, -9.122618611111111 ], [ -49.74246, -9.11435611111111 ], [ -49.80686166666667, -9.107814166666667 ], [ -49.96693888888889, -9.091396388888889 ], [ -50.0128, -9.07551 ], [ -49.99103, -9.045887777777779 ], [ -49.943976111111112, -8.961390833333333 ], [ -49.884534444444448, -8.859491111111112 ], [ -49.86258460158593, -8.822370233898074 ], [ -49.819481944444448, -8.749476388888889 ], [ -49.778587308989046, -8.679685574191996 ], [ -49.767917777777775, -8.661476944444445 ], [ -49.731166944444446, -8.585193888888888 ], [ -49.704733231179631, -8.537472286305526 ], [ -49.674121388888892, -8.482207777777777 ], [ -49.629991540849836, -8.393932893406369 ], [ -49.627310277777781, -8.388569444444444 ], [ -49.626161616703584, -8.386406053662519 ], [ -49.590464722222222, -8.319174444444444 ], [ -49.557183077537282, -8.266252367546516 ], [ -49.534368611111113, -8.229974444444444 ], [ -49.495233611111111, -8.160548611111111 ], [ -49.485349117743141, -8.142978415152889 ], [ -49.44381222222222, -8.069144444444444 ], [ -49.420130489720293, -8.02697646817834 ], [ -49.38793583333333, -7.969650277777777 ], [ -49.324331388888886, -7.851699722222222 ], [ -49.252804722222223, -7.726751944444445 ], [ -49.205856099720592, -7.648671904676856 ], [ -49.195738611111111, -7.631845555555555 ], [ -49.125416944444446, -7.505795833333333 ], [ -49.062116111111109, -7.37415 ], [ -48.992695277777777, -7.264177777777777 ], [ -48.916530833333333, -7.146088611111111 ], [ -48.838083611111109, -7.027975277777778 ], [ -48.750599444444447, -6.901711944444444 ], [ -48.68568, -6.8010275 ], [ -48.618253611111108, -6.712903888888889 ], [ -48.605639332806916, -6.697607914361868 ], [ -48.515848333333331, -6.588728055555555 ], [ -48.441738611111113, -6.490217777777778 ], [ -48.385795, -6.404610555555555 ], [ -48.301493611111113, -6.299091944444444 ], [ -48.249226407893708, -6.233184593146355 ], [ -48.230704166666669, -6.209828611111111 ], [ -48.136378333333333, -6.0881625 ], [ -48.048853888888885, -5.972351111111111 ], [ -47.999400277777781, -5.9120725 ], [ -47.955408121749407, -5.859729413616916 ], [ -47.926315, -5.825113611111111 ], [ -47.858776944444443, -5.749691944444445 ], [ -47.818928969916641, -5.708011053400042 ], [ -47.783278055555556, -5.670720277777778 ], [ -47.736259044117098, -5.626350434845944 ], [ -47.6896, -5.582320277777778 ], [ -47.613885833333335, -5.517084166666667 ], [ -47.592516746756843, -5.500971487764859 ], [ -47.55502083333333, -5.472698888888889 ], [ -47.535626158415432, -5.459971718005374 ], [ -47.483591944444441, -5.425825833333334 ], [ -47.388357777777777, -5.363715833333333 ], [ -47.348974891132769, -5.33308212740726 ], [ -47.319355, -5.3100425 ], [ -47.272935036186588, -5.272812455318971 ], [ -47.268475555555554, -5.269235833333333 ], [ -47.265438707339705, -5.266904641283085 ], [ -47.219831944444444, -5.231895277777777 ], [ -47.178160782068083, -5.195422249715001 ], [ -47.137408333333333, -5.159753333333334 ], [ -47.099576384914222, -5.132072000469253 ], [ -47.075163333333336, -5.114209166666667 ], [ -47.029801447368264, -5.077293729829586 ], [ -47.010748333333332, -5.061788333333333 ], [ -47.004594224419591, -5.056665496581377 ], [ -46.981376666666669, -5.037338611111111 ], [ -46.947157302172336, -5.017200159041303 ], [ -46.923527222222219, -5.003293611111111 ], [ -46.830804444444446, -4.932169444444445 ], [ -46.742709166666664, -4.858855555555555 ], [ -46.737914608564346, -4.855920436782017 ], [ -46.656559444444447, -4.806116666666667 ], [ -46.562617777777781, -4.740718055555556 ], [ -46.48690361111111, -4.681333333333333 ], [ -46.447360277777776, -4.649906944444444 ], [ -46.425823888888885, -4.637016111111111 ], [ -46.365425451964576, -4.590590828476781 ], [ -46.354619722222225, -4.582285 ], [ -46.354619630767388, -4.582284900264876 ], [ -46.337688021716211, -4.563820310212011 ], [ -46.279305833333332, -4.500152222222222 ], [ -46.263087619125827, -4.483179425173378 ], [ -46.214062777777777, -4.431873611111111 ], [ -46.18995780585044, -4.401911805940135 ], [ -46.154637777777779, -4.35801 ], [ -46.082567982553897, -4.274062484498919 ], [ -46.078295010190693, -4.269085289647991 ], [ -46.078295, -4.269085277777778 ], [ -46.076857925346538, -4.26723676551116 ], [ -46.011066111111113, -4.182608611111111 ], [ -45.977005624349566, -4.133619061326437 ], [ -45.946234444444443, -4.089360555555555 ], [ -45.910248950157261, -4.04104521505587 ], [ -45.880178333333333, -4.000671388888889 ], [ -45.839409574195514, -3.936035251969132 ], [ -45.822178055555554, -3.908715833333333 ], [ -45.784281111111113, -3.846677222222222 ], [ -45.717262222222224, -3.745519722222222 ], [ -45.650678611111111, -3.615957777777777 ], [ -45.627375967733528, -3.581968329805965 ], [ -45.581346388888889, -3.514829166666666 ], [ -45.542438645850105, -3.452876626748498 ], [ -45.512142222222224, -3.404635833333333 ], [ -45.447578888888891, -3.288858888888889 ], [ -45.415998417903168, -3.218091734228777 ], [ -45.401114166666666, -3.184738333333333 ], [ -45.393898919680673, -3.163750359032075 ], [ -45.374803055555553, -3.108203611111111 ], [ -45.361773044577916, -3.065017345394678 ], [ -45.348628055555558, -3.02145 ], [ -45.333798333333334, -2.939407222222222 ], [ -45.312256944444442, -2.845916388888889 ], [ -45.290928888888892, -2.73539 ], [ -45.286955710663108, -2.710159587452665 ], [ -45.2751475, -2.635175277777778 ], [ -45.268638985338399, -2.577174067239687 ], [ -45.262887777777777, -2.525921666666667 ], [ -45.251594444444443, -2.428051111111111 ], [ -45.246191541899343, -2.377905540456469 ], [ -45.239334722222225, -2.314265833333333 ], [ -45.235120833333333, -2.193763611111111 ], [ -45.238522222222223, -2.101759166666667 ], [ -45.236889444444444, -2.047196388888889 ], [ -45.235971141865953, -2.007109975852404 ], [ -45.23462416666667, -1.948310833333333 ], [ -45.237273938299104, -1.908474395174445 ], [ -45.239762027824547, -1.871068671865841 ], [ -45.2413, -1.8699 ], [ -45.2488, -1.833 ], [ -45.2806, -1.7672 ], [ -45.3005, -1.7583 ], [ -45.3525, -1.7587 ], [ -45.3705, -1.7399 ], [ -45.3677, -1.6999 ], [ -45.3534, -1.6653 ], [ -45.3471, -1.6171 ], [ -45.3118, -1.553 ], [ -45.3022, -1.5083 ], [ -45.2159, -1.5405 ], [ -45.2332, -1.5634 ], [ -45.2475, -1.593 ], [ -45.248, -1.6114 ], [ -45.2204, -1.6471 ], [ -45.2097, -1.6873 ], [ -45.216683531086176, -1.700283466244718 ], [ -45.216364722222224, -1.700135277777778 ], [ -45.209305833333332, -1.686984444444444 ], [ -45.209305841195189, -1.686984414780691 ], [ -45.212683854128016, -1.674238758634365 ], [ -45.21997972222222, -1.646710555555555 ], [ -45.247546944444444, -1.610993888888889 ], [ -45.247057222222224, -1.592672777777778 ], [ -45.237482663366301, -1.572715567523023 ], [ -45.2328425, -1.563043611111111 ], [ -45.215451666666667, -1.540165833333333 ], [ -45.184649722222225, -1.517643611111111 ], [ -45.168528611111114, -1.479739444444444 ], [ -45.158799073599916, -1.4806883411713 ], [ -45.145105, -1.482023888888889 ], [ -45.129285, -1.517431111111111 ], [ -45.129284930989549, -1.517431101540609 ], [ -45.129273688014642, -1.517429542343298 ], [ -45.119181944444442, -1.51603 ], [ -45.115955165004266, -1.51002626845169 ], [ -45.113883611111113, -1.506171944444444 ], [ -45.080131944444446, -1.498728055555556 ], [ -45.080954444444444, -1.467052222222222 ], [ -45.077626991938963, -1.463919333507676 ], [ -45.075790555555557, -1.462190277777778 ], [ -45.068490158711924, -1.463841426258398 ], [ -45.059116944444447, -1.465961388888889 ], [ -45.040342166444034, -1.494938977633069 ], [ -45.034960277777778, -1.503245555555556 ], [ -45.034960218967342, -1.503245563860368 ], [ -44.991509444444446, -1.509381388888889 ], [ -44.988514166666668, -1.522784166666667 ], [ -44.996759395520819, -1.529681783121955 ], [ -45.00395972222222, -1.535705277777778 ], [ -45.004271666666668, -1.547356944444444 ], [ -44.988654998218671, -1.553641314778492 ], [ -44.977716666666666, -1.558043055555556 ], [ -44.973443611111108, -1.5864675 ], [ -44.973443666891114, -1.586467518158864 ], [ -45.0208275, -1.601893055555556 ], [ -45.021949503506313, -1.604963103841443 ], [ -45.024445833333331, -1.611793611111111 ], [ -45.012887777777777, -1.618756388888889 ], [ -44.980946447222721, -1.616251949018254 ], [ -44.980946388888889, -1.616251944444445 ], [ -44.9467975, -1.593820555555556 ], [ -44.946797501408689, -1.593820481508347 ], [ -44.948192222222225, -1.5205075 ], [ -44.947022398670285, -1.51969834486162 ], [ -44.915715, -1.498043333333333 ], [ -44.906673833822964, -1.476669772162029 ], [ -44.903174722222225, -1.468397777777778 ], [ -44.864484166666664, -1.464418333333333 ], [ -44.856195244382775, -1.449006767416079 ], [ -44.852121666666669, -1.441432777777778 ], [ -44.848634166666663, -1.436530277777778 ], [ -44.825211111111109, -1.438811111111111 ], [ -44.823035692336489, -1.448546902418398 ], [ -44.8222175, -1.452208611111111 ], [ -44.822217513713639, -1.452208632898126 ], [ -44.839743055555559, -1.480051666666667 ], [ -44.845621388888887, -1.511530833333333 ], [ -44.865847149682857, -1.51833220328224 ], [ -44.877784444444444, -1.522346388888889 ], [ -44.902234166666666, -1.558342222222222 ], [ -44.904139599706006, -1.570134467816787 ], [ -44.906253333333332, -1.583215833333333 ], [ -44.901592310156921, -1.602891264119897 ], [ -44.898712222222223, -1.615048888888889 ], [ -44.891597970774747, -1.623988443421268 ], [ -44.890594444444446, -1.625249444444445 ], [ -44.89059442467061, -1.62524944989658 ], [ -44.8639475, -1.632596666666667 ], [ -44.85156586155793, -1.640296023280435 ], [ -44.8276375, -1.655175555555556 ], [ -44.811706111111114, -1.687215277777778 ], [ -44.800781148150918, -1.69463407623335 ], [ -44.783686111111109, -1.706242777777778 ], [ -44.782990350820384, -1.712172701932901 ], [ -44.780943611111113, -1.729616944444444 ], [ -44.780943489143652, -1.729616924956348 ], [ -44.753988333333332, -1.72531 ], [ -44.75398829842355, -1.725310016666453 ], [ -44.741533624771563, -1.731256065045567 ], [ -44.720848055555557, -1.741131666666667 ], [ -44.721369166666669, -1.76109 ], [ -44.721369249295741, -1.761090043188924 ], [ -44.763891111111114, -1.783315555555556 ], [ -44.767720277777777, -1.801528055555556 ], [ -44.767720265192281, -1.801528063810258 ], [ -44.759323803009806, -1.807035221195502 ], [ -44.75452277777778, -1.810184166666666 ], [ -44.729603995911347, -1.813173403582511 ], [ -44.719399722222221, -1.8143975 ], [ -44.719399683116066, -1.814397528344389 ], [ -44.697990555555556, -1.829915 ], [ -44.68083190906237, -1.822375820933988 ], [ -44.665746944444443, -1.815747777777778 ], [ -44.653255580059202, -1.788041662604499 ], [ -44.647944166666669, -1.776260833333333 ], [ -44.645184723816179, -1.734731412877776 ], [ -44.645184722222226, -1.734731388888889 ], [ -44.635979539521109, -1.734053839249961 ], [ -44.628375833333337, -1.733494166666667 ], [ -44.607316950864515, -1.762312213436668 ], [ -44.607316944444442, -1.762312222222222 ], [ -44.634790555555554, -1.786575833333333 ], [ -44.642574722222221, -1.827977777777778 ], [ -44.642574793801202, -1.827977871261404 ], [ -44.673828055555553, -1.868795277777778 ], [ -44.681696477697365, -1.872453999838368 ], [ -44.697601666666664, -1.879849722222222 ], [ -44.698499930066767, -1.886931951041732 ], [ -44.699705833333333, -1.896439722222222 ], [ -44.69970579864318, -1.89643972596129 ], [ -44.679627222222223, -1.898603888888889 ], [ -44.662543838663154, -1.889180292125098 ], [ -44.613251944444443, -1.861989722222222 ], [ -44.578126111111111, -1.866194444444444 ], [ -44.569118717434584, -1.858312922916439 ], [ -44.554096111111114, -1.845168055555556 ], [ -44.548373795440263, -1.845748499854156 ], [ -44.532341666666667, -1.847374722222222 ], [ -44.531211097230035, -1.850185810432713 ], [ -44.527611111111113, -1.859136944444445 ], [ -44.527611183760499, -1.85913704676143 ], [ -44.528883047500649, -1.860928297425592 ], [ -44.538055833333331, -1.873846944444445 ], [ -44.604088611111109, -1.897157777777777 ], [ -44.606191111111109, -1.913742777777778 ], [ -44.601377553774761, -1.914079537364055 ], [ -44.569345, -1.916320555555555 ], [ -44.542048611111113, -1.898699444444444 ], [ -44.530302756868906, -1.902191012241977 ], [ -44.523732222222222, -1.904144166666667 ], [ -44.514951416777301, -1.915605857431663 ], [ -44.510742858045376, -1.921099339670185 ], [ -44.510742777777779, -1.921099444444444 ], [ -44.510153642527847, -1.935228161752079 ], [ -44.509701388888892, -1.946074166666667 ], [ -44.499825774979406, -1.959197298633071 ], [ -44.4918475, -1.969799166666667 ], [ -44.484430853406359, -2.008234618197349 ], [ -44.484430833333334, -2.008234722222222 ], [ -44.455108523802203, -2.028666926377972 ], [ -44.454749722222225, -2.028916944444445 ], [ -44.454749722249431, -2.02891694552723 ], [ -44.455125555555554, -2.043875 ], [ -44.4783498154885, -2.060267512270491 ], [ -44.482457222222223, -2.063166666666667 ], [ -44.507736944444446, -2.067541388888889 ], [ -44.52005916666667, -2.090528611111111 ], [ -44.55401472222222, -2.106338611111111 ], [ -44.561262222222226, -2.127788611111111 ], [ -44.561262223554067, -2.127788612298258 ], [ -44.582293482601251, -2.146534946189579 ], [ -44.592153055555556, -2.155323333333333 ], [ -44.591260833333337, -2.186953611111111 ], [ -44.598298888888891, -2.200094444444444 ], [ -44.603137991741782, -2.202816790301422 ], [ -44.632335, -2.219242222222222 ], [ -44.663263333333333, -2.248451944444445 ], [ -44.701960555555559, -2.252518055555556 ], [ -44.701960566718604, -2.252518170825261 ], [ -44.702611117079535, -2.259235761558661 ], [ -44.704211666666666, -2.275763055555556 ], [ -44.731292222222223, -2.2851025 ], [ -44.731292159072368, -2.285102527396789 ], [ -44.694761666666665, -2.300950833333333 ], [ -44.69018926838784, -2.298989152061055 ], [ -44.672713072420201, -2.291491396124274 ], [ -44.672713055555555, -2.291491388888889 ], [ -44.6661675, -2.298302222222222 ], [ -44.689678888888892, -2.367635277777778 ], [ -44.686566684741145, -2.377693830472706 ], [ -44.686566666666664, -2.377693888888889 ], [ -44.673004207978586, -2.385685526009929 ], [ -44.660093611111108, -2.393293055555556 ], [ -44.660093606198139, -2.393293103920513 ], [ -44.659257536588221, -2.401523664786898 ], [ -44.657382777777777, -2.419979444444444 ], [ -44.645681666666668, -2.421917222222222 ], [ -44.6369725, -2.408810833333333 ], [ -44.636695299682849, -2.397373016456039 ], [ -44.636488888888891, -2.388856111111111 ], [ -44.653522777777781, -2.3302175 ], [ -44.649700732256932, -2.314413772971572 ], [ -44.647921388888889, -2.307056388888889 ], [ -44.647921349338482, -2.30705634865302 ], [ -44.625546944444444, -2.284294166666667 ], [ -44.61038037247188, -2.26547474611246 ], [ -44.592658611111112, -2.243484722222222 ], [ -44.567173333333336, -2.230784444444444 ], [ -44.558459639178629, -2.211274040286033 ], [ -44.545856388888886, -2.183054722222222 ], [ -44.52342885410696, -2.165156026137228 ], [ -44.501344722222221, -2.147531388888889 ], [ -44.486273611111109, -2.1472725 ], [ -44.461055, -2.146838333333333 ], [ -44.443795651612518, -2.153419846547609 ], [ -44.437781944444446, -2.155713055555556 ], [ -44.434939122668709, -2.158967947115787 ], [ -44.421464166666667, -2.174396111111111 ], [ -44.41496095406481, -2.197589647762488 ], [ -44.410668333333334, -2.212899166666667 ], [ -44.378063611111109, -2.251915277777778 ], [ -44.360327788389561, -2.314677072246733 ], [ -44.354888055555556, -2.333926666666667 ], [ -44.354888066163845, -2.333926698447797 ], [ -44.367553027407716, -2.371869360116995 ], [ -44.367553055555554, -2.371869444444445 ], [ -44.396828611111111, -2.402776944444444 ], [ -44.396828692954777, -2.402776967966817 ], [ -44.428938611111114, -2.412005555555556 ], [ -44.432115411454845, -2.412116786040322 ], [ -44.434444444444445, -2.412198333333333 ], [ -44.486049722222219, -2.414002222222222 ], [ -44.512204955159426, -2.385116716188028 ], [ -44.512205, -2.385116666666667 ], [ -44.515860051892226, -2.384511656059334 ], [ -44.523906663932408, -2.383179722674817 ], [ -44.523906666666669, -2.383179722222222 ], [ -44.529300277777779, -2.398023055555556 ], [ -44.520070326378864, -2.413824510234722 ], [ -44.511570277777778, -2.428376388888889 ], [ -44.5225125, -2.464714166666667 ], [ -44.52126156951838, -2.475153020098695 ], [ -44.518315277777781, -2.499739444444444 ], [ -44.524867907430036, -2.51050740031636 ], [ -44.525302222222223, -2.511221111111111 ], [ -44.567419532639889, -2.5273990859876 ], [ -44.57546416666667, -2.530489166666666 ], [ -44.57744747805323, -2.531251069203412 ], [ -44.594753888888889, -2.537899444444444 ], [ -44.609281249422466, -2.565084125257035 ], [ -44.617588854258351, -2.58062993519675 ], [ -44.617588888888889, -2.58063 ], [ -44.626306355346593, -2.588877830887445 ], [ -44.650211944444443, -2.611495555555555 ], [ -44.650268928723385, -2.611914560358277 ], [ -44.65224222222222, -2.626424166666667 ], [ -44.649621111111109, -2.627006111111111 ], [ -44.637808205753004, -2.629630242845026 ], [ -44.635544722222221, -2.630133055555556 ], [ -44.635544699771238, -2.630133034798501 ], [ -44.560038611111111, -2.560323888888889 ], [ -44.560038586919219, -2.560323905689191 ], [ -44.550530369447891, -2.566926982586265 ], [ -44.545176944444442, -2.570644722222222 ], [ -44.55450722222222, -2.610353333333333 ], [ -44.566524722222219, -2.621724166666667 ], [ -44.595280555555554, -2.631050833333333 ], [ -44.604878055555552, -2.682405 ], [ -44.627505, -2.716832222222222 ], [ -44.628433333333334, -2.756741111111111 ], [ -44.628433370713921, -2.756741230372543 ], [ -44.646558611111111, -2.814569166666667 ], [ -44.646243991908776, -2.819155295790357 ], [ -44.644043611111108, -2.851229722222222 ], [ -44.646255, -2.874474722222222 ], [ -44.650539856562524, -2.882231261166066 ], [ -44.670773333333337, -2.918858333333334 ], [ -44.675999650603572, -2.982500323383549 ], [ -44.677729722222224, -3.003567777777778 ], [ -44.671027222222222, -3.014027222222222 ], [ -44.667997222222219, -3.018755833333334 ], [ -44.62977, -3.036223333333333 ], [ -44.631040559535464, -3.051421440806864 ], [ -44.634351660458243, -3.091027981292014 ], [ -44.634351666666667, -3.091028055555555 ], [ -44.67493, -3.103466666666667 ], [ -44.680371944444445, -3.121653888888889 ], [ -44.688916551919519, -3.131958114262652 ], [ -44.699351944444444, -3.1445425 ], [ -44.73869333333333, -3.176984444444444 ], [ -44.765321184453505, -3.187483475641883 ], [ -44.782739722222225, -3.194351388888889 ], [ -44.7849523674046, -3.20507489917161 ], [ -44.786501111111114, -3.212580833333333 ], [ -44.76584861111111, -3.26628 ], [ -44.771393022561043, -3.289464306475803 ], [ -44.771393055555556, -3.289464444444445 ], [ -44.791465833333334, -3.285711944444444 ], [ -44.79846498947655, -3.273685546072963 ], [ -44.823833611111112, -3.230095555555556 ], [ -44.835323739404387, -3.23362134813999 ], [ -44.83905158801776, -3.234765253644039 ], [ -44.83905166666667, -3.234765277777778 ], [ -44.844399722222221, -3.244814722222222 ], [ -44.847811944444445, -3.251226388888889 ], [ -44.854769010856906, -3.251078325374801 ], [ -44.878027211731123, -3.25058333355661 ], [ -44.878027222222222, -3.250583333333333 ], [ -44.885035, -3.263753055555556 ], [ -44.882977186919007, -3.267326519642568 ], [ -44.880181944444445, -3.272180555555555 ], [ -44.875629279981894, -3.273793504537579 ], [ -44.870066944444446, -3.275764166666667 ], [ -44.864768055555558, -3.277640555555556 ], [ -44.860183888888891, -3.279264444444444 ], [ -44.8601838497462, -3.279264432938548 ], [ -44.817923888888892, -3.266842222222222 ], [ -44.808153038573373, -3.284209594378819 ], [ -44.790439722222224, -3.315694444444444 ], [ -44.784192722543374, -3.316515540117876 ], [ -44.776396388888891, -3.317540277777778 ], [ -44.765596103824635, -3.318959646929528 ], [ -44.760294444444447, -3.319656388888889 ], [ -44.739823333333334, -3.305107777777778 ], [ -44.737290403201975, -3.29281460855361 ], [ -44.736067507056319, -3.286879478691182 ], [ -44.7360675, -3.286879444444444 ], [ -44.744847368457094, -3.249872197788361 ], [ -44.74836916666667, -3.235027777777778 ], [ -44.7439651764928, -3.219056337633925 ], [ -44.741069444444442, -3.208554722222222 ], [ -44.723322323439845, -3.199448120848913 ], [ -44.703700833333336, -3.189379722222222 ], [ -44.679877869399682, -3.193396066224761 ], [ -44.658525833333336, -3.196995833333333 ], [ -44.634367777777776, -3.167561111111111 ], [ -44.627463314998515, -3.14253516539703 ], [ -44.625241111111109, -3.134480555555556 ], [ -44.621137881282309, -3.129398373805888 ], [ -44.602794722222221, -3.106678888888889 ], [ -44.565585660702602, -3.091593281249892 ], [ -44.563822340443103, -3.090878381263428 ], [ -44.563822222222221, -3.090878333333333 ], [ -44.551754607253152, -3.071474534913826 ], [ -44.541244444444445, -3.054575 ], [ -44.534793779716978, -3.044203907958713 ], [ -44.534217222222225, -3.043276944444445 ], [ -44.529196312628777, -3.038983076216249 ], [ -44.464033611111113, -2.983256111111111 ], [ -44.434420833333334, -2.935674722222222 ], [ -44.409159444444441, -2.858077222222222 ], [ -44.412446388888888, -2.78152 ], [ -44.391356111111108, -2.740421666666667 ], [ -44.388024679461431, -2.701847481677344 ], [ -44.38677, -2.687319722222222 ], [ -44.384396390887439, -2.68257004307889 ], [ -44.374445555555553, -2.662658055555556 ], [ -44.368770863046798, -2.657703341118408 ], [ -44.352170833333332, -2.643209444444445 ], [ -44.368716111111112, -2.561372777777778 ], [ -44.367712530404582, -2.550903609162219 ], [ -44.366489722222219, -2.5381475 ], [ -44.361006062320087, -2.534705889902464 ], [ -44.35626666666667, -2.531731388888889 ], [ -44.346210748206254, -2.532793345933391 ], [ -44.336176111111108, -2.533853055555555 ], [ -44.325200223779994, -2.535740717404112 ], [ -44.3027425, -2.539603055555556 ], [ -44.302742496912309, -2.539602924977474 ], [ -44.3024675, -2.527973333333333 ], [ -44.314485364114439, -2.516888500944891 ], [ -44.317251385920081, -2.514337224960543 ], [ -44.317251388888891, -2.514337222222222 ], [ -44.301523888888887, -2.488101111111111 ], [ -44.2037175, -2.468738611111111 ], [ -44.107304391708574, -2.423283487196788 ], [ -44.039073055555555, -2.391115 ], [ -44.030583861342549, -2.395894381839681 ], [ -44.017543888888888, -2.403235833333333 ], [ -44.02016722222222, -2.443036111111111 ], [ -44.027073888888886, -2.4511825 ], [ -44.027073943227407, -2.451182498761182 ], [ -44.03270724311168, -2.451054069910076 ], [ -44.037138055555559, -2.450953055555555 ], [ -44.037138124890141, -2.450952991647307 ], [ -44.041524516955391, -2.446909891756729 ], [ -44.051920833333334, -2.437327222222222 ], [ -44.063740833333334, -2.440378611111111 ], [ -44.063976944444441, -2.450339722222222 ], [ -44.036283888888889, -2.485851666666667 ], [ -44.022682762575549, -2.516056741437555 ], [ -44.021928055555556, -2.517732777777778 ], [ -44.041353287118568, -2.558816568923805 ], [ -44.041353333333333, -2.558816666666667 ], [ -44.097217777777779, -2.579153611111111 ], [ -44.105048055555557, -2.627152777777778 ], [ -44.111136148636824, -2.636811815351742 ], [ -44.132928333333332, -2.671386111111111 ], [ -44.143974110720244, -2.682530796314587 ], [ -44.158707222222219, -2.697395833333333 ], [ -44.18234972222222, -2.703516944444444 ], [ -44.185525984818831, -2.700480023509418 ], [ -44.203700833333336, -2.6831025 ], [ -44.217123055555554, -2.682803333333333 ], [ -44.236650833333336, -2.728900277777778 ], [ -44.292858611111114, -2.764219444444445 ], [ -44.293018520175259, -2.76528889803355 ], [ -44.293443333333336, -2.76813 ], [ -44.296822222222225, -2.790726666666667 ], [ -44.290452222222221, -2.805825833333333 ], [ -44.282062777777774, -2.806010833333333 ], [ -44.262998888888887, -2.779837777777778 ], [ -44.256841004582164, -2.779973617208929 ], [ -44.249575555555559, -2.780133888888889 ], [ -44.24373478172371, -2.787533491397431 ], [ -44.234890856075538, -2.79873774896596 ], [ -44.234890833333331, -2.798737777777778 ], [ -44.232456102067999, -2.799397433283133 ], [ -44.221543104392936, -2.802354153434879 ], [ -44.221543055555557, -2.802354166666666 ], [ -44.220082308719881, -2.791564979595582 ], [ -44.217505277777775, -2.772530833333333 ], [ -44.200308611111112, -2.754631111111111 ], [ -44.186961666666669, -2.758248611111111 ], [ -44.181077742075054, -2.766803370262418 ], [ -44.178838611111111, -2.770058888888889 ], [ -44.179178887241349, -2.785005760963778 ], [ -44.179178888888892, -2.785005833333333 ], [ -44.18638111111111, -2.806448888888889 ], [ -44.212342222222219, -2.840775833333333 ], [ -44.212717777777776, -2.857385 ], [ -44.198315702350982, -2.851422997149399 ], [ -44.197465, -2.851070833333333 ], [ -44.196095124955548, -2.849601347097404 ], [ -44.171656666666664, -2.823385833333333 ], [ -44.143185564744186, -2.777328389855505 ], [ -44.128084444444447, -2.752899444444445 ], [ -44.089798401488231, -2.759503729517163 ], [ -44.072903633983323, -2.762418051610133 ], [ -44.072903611111109, -2.762418055555556 ], [ -44.070465755633165, -2.761109751926888 ], [ -44.061008055555554, -2.756034166666667 ], [ -44.05959995562938, -2.751119861472826 ], [ -44.048238888888889, -2.711469444444444 ], [ -44.01747856722686, -2.66797983380626 ], [ -44.010070277777778, -2.657505833333333 ], [ -43.995149502619569, -2.648137738496711 ], [ -43.989631666666668, -2.644673333333333 ], [ -43.942541666666664, -2.640737777777778 ], [ -43.942541696137845, -2.640737669607812 ], [ -43.950279166666668, -2.612338333333333 ], [ -43.941551745873539, -2.603173923045335 ], [ -43.934795555555553, -2.596079444444444 ], [ -43.934795554675155, -2.596079432521398 ], [ -43.933966364627913, -2.584849848984692 ], [ -43.9323475, -2.562925833333333 ], [ -43.922205277777778, -2.559833333333333 ], [ -43.898118055555557, -2.6068575 ], [ -43.888205, -2.613718888888889 ], [ -43.888204889583591, -2.613718879234165 ], [ -43.887516380744493, -2.613658676562024 ], [ -43.8730675, -2.612395277777778 ], [ -43.873067461822302, -2.612395231908422 ], [ -43.835085555555558, -2.566761111111111 ], [ -43.792953333333337, -2.559402777777778 ], [ -43.761948333333336, -2.525244722222222 ], [ -43.755294961418521, -2.523216275915237 ], [ -43.746734444444442, -2.520606388888889 ], [ -43.746734433243496, -2.520606362948506 ], [ -43.736089722222225, -2.495954166666666 ], [ -43.736089640813127, -2.495954217485497 ], [ -43.732431338616834, -2.498237876726678 ], [ -43.719546944444446, -2.506280833333333 ], [ -43.689389166666665, -2.508615555555556 ], [ -43.685892744374009, -2.517477693138768 ], [ -43.681464166666665, -2.5287025 ], [ -43.668081666666666, -2.530659722222222 ], [ -43.668081666460651, -2.530659721152232 ], [ -43.662356666666668, -2.500925555555555 ], [ -43.654590131447343, -2.498243581972603 ], [ -43.64882027777778, -2.496251111111111 ], [ -43.632584750049936, -2.519838848459475 ], [ -43.632584722222219, -2.519838888888889 ], [ -43.633316432036224, -2.531906891987372 ], [ -43.635296666666669, -2.564566666666667 ], [ -43.621033795406156, -2.56645337057829 ], [ -43.620236111111112, -2.566558888888889 ], [ -43.619526914157532, -2.565950058480547 ], [ -43.601401111111109, -2.550389444444444 ], [ -43.60140110867853, -2.550389339188451 ], [ -43.601277743905953, -2.545051433003517 ], [ -43.600864722222219, -2.527180277777778 ], [ -43.584586708317161, -2.524338189925183 ], [ -43.575585833333335, -2.522766666666667 ], [ -43.554648888888892, -2.488404722222222 ], [ -43.564135, -2.463315277777778 ], [ -43.56442904679173, -2.452498194383876 ], [ -43.565037222222223, -2.430125277777778 ], [ -43.565037288044799, -2.430125242218151 ], [ -43.613099166666665, -2.404160555555555 ], [ -43.616102222222224, -2.389164166666667 ], [ -43.61437531511325, -2.386995086286694 ], [ -43.610913333333336, -2.382646666666667 ], [ -43.607516233026843, -2.380435265901769 ], [ -43.588755277777778, -2.3682225 ], [ -43.588755243450898, -2.368222494744479 ], [ -43.541593622582269, -2.361001946200704 ], [ -43.541593611111111, -2.361001944444444 ], [ -43.533559722222222, -2.376109166666667 ], [ -43.535974647155683, -2.378712590649487 ], [ -43.545613055555556, -2.389103333333333 ], [ -43.549552222222225, -2.413889722222222 ], [ -43.549552183769926, -2.413889720558989 ], [ -43.53321969238776, -2.413183267708058 ], [ -43.524352567406282, -2.412799725137844 ], [ -43.5243525, -2.412799722222222 ], [ -43.509643333333337, -2.429713333333333 ], [ -43.516831050944859, -2.46330000464903 ], [ -43.520945, -2.482523611111111 ], [ -43.510709016421544, -2.489286096488906 ], [ -43.502761111111113, -2.494536944444445 ], [ -43.502761112071582, -2.494536960988754 ], [ -43.505549166666668, -2.542561944444444 ], [ -43.505549154438036, -2.542561949798761 ], [ -43.485608342037928, -2.551293051744242 ], [ -43.485608333333332, -2.551293055555556 ], [ -43.483138554201737, -2.546430373021378 ], [ -43.469785833333333, -2.520140555555555 ], [ -43.461320833333332, -2.517011944444445 ], [ -43.454669787666269, -2.548755950953916 ], [ -43.452247222222219, -2.560318333333333 ], [ -43.452247170638437, -2.560318356526814 ], [ -43.447737430494428, -2.562346059264252 ], [ -43.440617222222222, -2.5655475 ], [ -43.440617202875622, -2.565547446717813 ], [ -43.431659722222221, -2.540877777777778 ], [ -43.434247085625955, -2.517700239425411 ], [ -43.4344425, -2.515949722222222 ], [ -43.458685277777775, -2.475621944444444 ], [ -43.469129890791272, -2.446657736891432 ], [ -43.479178611111109, -2.418791388888889 ], [ -43.479178592983487, -2.418791389297756 ], [ -43.470791758408225, -2.418980553486334 ], [ -43.470791666666663, -2.418980555555556 ], [ -43.449345495426044, -2.443501288572212 ], [ -43.439731944444446, -2.454493055555556 ], [ -43.439731901759103, -2.454493058267758 ], [ -43.428893933424817, -2.455181696512104 ], [ -43.399511944444441, -2.457048611111111 ], [ -43.399511906842555, -2.457048540900018 ], [ -43.394248334396472, -2.447220279762906 ], [ -43.39424833333333, -2.447220277777778 ], [ -43.395228210799303, -2.446534291849626 ], [ -43.460300555555555, -2.400978888888889 ], [ -43.467279789321587, -2.390839612504045 ], [ -43.46841524453486, -2.389190048294574 ], [ -43.46841527777778, -2.38919 ], [ -43.466465, -2.377628055555555 ], [ -43.460157549737296, -2.371137984650981 ], [ -43.447545555555557, -2.358160833333333 ], [ -43.41372611111111, -2.347322777777778 ], [ -43.399371620603119, -2.356503570565102 ], [ -43.370738888888887, -2.374816388888889 ], [ -43.340663181535938, -2.380465809669178 ], [ -43.340663055555552, -2.380465833333334 ], [ -43.341429027190046, -2.370597199435851 ], [ -43.341951666666667, -2.363863611111111 ], [ -43.351568625378107, -2.353917831872171 ], [ -43.356696944444444, -2.348614166666667 ], [ -43.354472243155591, -2.345137125026437 ], [ -43.351470277777779, -2.340445277777778 ], [ -43.315910467385208, -2.349222106487604 ], [ -43.248020555555556, -2.365978611111111 ], [ -43.233873645451709, -2.371389125098337 ], [ -43.218162777777778, -2.377397777777778 ], [ -43.109954166666668, -2.418755555555556 ], [ -43.067454781772881, -2.44198691437494 ], [ -43.043658333333333, -2.454994722222222 ], [ -42.971981944444444, -2.476434444444445 ], [ -42.92837382247469, -2.501499400439365 ], [ -42.879206388888889, -2.529759722222222 ], [ -42.81601666666667, -2.555941666666667 ], [ -42.793599432070899, -2.560863518016777 ], [ -42.766101680202432, -2.566900830361466 ], [ -42.766101666666664, -2.566900833333333 ], [ -42.765995787326844, -2.566923917491725 ], [ -42.765910555555557, -2.5669425 ], [ -42.723859166666664, -2.562880833333333 ], [ -42.703912222222222, -2.571576388888889 ], [ -42.648003813209179, -2.629102667676874 ], [ -42.641556388888887, -2.635736666666667 ], [ -42.575260897538676, -2.680887562434688 ], [ -42.55390361111111, -2.695433055555556 ], [ -42.54796808495874, -2.697367341514432 ], [ -42.510568333333332, -2.709555277777778 ], [ -42.508320822382203, -2.712153430869533 ], [ -42.507778333333334, -2.712780555555556 ], [ -42.495739471791403, -2.726696172810965 ], [ -42.484366388888887, -2.739842222222222 ], [ -42.44106166666667, -2.755603333333333 ], [ -42.386503618227444, -2.79471443934295 ], [ -42.38650361111111, -2.794714444444444 ], [ -42.374667222222222, -2.793011388888889 ], [ -42.374667205694195, -2.793011302567797 ], [ -42.3728325, -2.783429166666667 ], [ -42.376690278803999, -2.779775146078739 ], [ -42.394221666666667, -2.763169722222222 ], [ -42.416989366160259, -2.747269167679997 ], [ -42.4405275, -2.730830555555555 ], [ -42.441112460242159, -2.724399949376321 ], [ -42.441882771016466, -2.715931740995367 ], [ -42.441882777777778, -2.715931666666667 ], [ -42.391749336943711, -2.71970980021412 ], [ -42.381551388888887, -2.720478333333333 ], [ -42.360144427359138, -2.733528091993104 ], [ -42.345100586018326, -2.742698870318678 ], [ -42.345100555555554, -2.742698888888889 ], [ -42.299726111111113, -2.740323055555556 ], [ -42.294674666192861, -2.743938539201709 ], [ -42.207133333333331, -2.806594722222222 ], [ -42.125014444444446, -2.8131925 ], [ -42.166161666666667, -2.774403611111111 ], [ -42.235788888888891, -2.733370833333333 ], [ -42.235788886867951, -2.7333708205048 ], [ -42.23026255006129, -2.698290689948748 ], [ -42.228010833333336, -2.683997222222222 ], [ -42.217800555555556, -2.677603055555556 ], [ -42.196451944444448, -2.699503333333333 ], [ -42.153288888888888, -2.721843611111111 ], [ -42.120743378663548, -2.751780586435566 ], [ -42.089079722222223, -2.780906388888889 ], [ -42.08609775972959, -2.79611937148634 ], [ -42.084533333333333, -2.804100555555555 ], [ -42.099150507543705, -2.823969379182927 ], [ -42.099150555555553, -2.823969444444444 ], [ -42.075799270316473, -2.833695273976238 ], [ -42.066768333333336, -2.837456666666667 ], [ -42.043206944444442, -2.834624166666667 ], [ -42.031948611111112, -2.822941111111111 ], [ -42.080375, -2.766229166666667 ], [ -42.17267833333333, -2.686783333333334 ], [ -42.137562941452984, -2.692833085388665 ], [ -42.107455833333333, -2.69802 ], [ -42.091728804576618, -2.698340253368362 ], [ -42.050408611111109, -2.699181666666667 ], [ -42.020073888888888, -2.772390277777778 ], [ -41.992347222222222, -2.8108875 ], [ -41.991007581913905, -2.805492419721523 ], [ -41.985010555555554, -2.781340833333333 ], [ -41.9929475, -2.759736388888889 ], [ -41.978788333333334, -2.725379444444445 ], [ -41.943135050823663, -2.731799782067405 ], [ -41.916916666666665, -2.736521111111111 ], [ -41.846095277777778, -2.721453333333333 ], [ -41.846095184208863, -2.721453395113757 ], [ -41.822918660146136, -2.736756078734927 ], [ -41.822918611111113, -2.736756111111111 ], [ -41.808445555555558, -2.777177222222222 ], [ -41.796626666666668, -2.7636575 ], [ -41.796626643978009, -2.763657496412692 ], [ -41.794500403506753, -2.763321316160055 ], [ -41.778100555555554, -2.760728333333333 ], [ -41.770623888888892, -2.766015277777778 ], [ -41.746986736445564, -2.782725028959359 ], [ -41.730128611111112, -2.7946425 ], [ -41.725702919457866, -2.796342922879158 ], [ -41.698485555555557, -2.806800277777778 ], [ -41.685778055555552, -2.841653333333333 ], [ -41.674689722222219, -2.852647222222222 ], [ -41.671524350590552, -2.855785729418036 ], [ -41.665198055555557, -2.862058333333333 ], [ -41.664765111156207, -2.862487533848933 ], [ -41.662339166666669, -2.8648925 ], [ -41.653718943694763, -2.873437404516876 ], [ -41.643772777777777, -2.883296666666667 ], [ -41.629836111111111, -2.897108055555556 ], [ -41.499071944444445, -2.906200833333333 ], [ -41.449356388888887, -2.938428888888889 ], [ -41.440305, -2.989634444444444 ], [ -41.432815894728762, -2.99983010514945 ], [ -41.430496715670245, -3.002987433286582 ], [ -41.43049666666667, -3.0029875 ], [ -41.420328888888889, -2.998238611111111 ], [ -41.420328884754113, -2.998238537762652 ], [ -41.417733333333331, -2.952195 ], [ -41.415368840730217, -2.9496472184832 ], [ -41.405721666666665, -2.939252222222222 ], [ -41.342178611111109, -2.951968333333333 ], [ -41.331394033529818, -2.964333356255353 ], [ -41.329046666666663, -2.967024722222222 ], [ -41.331311387356223, -2.996603313315733 ], [ -41.331311388888892, -2.996603333333333 ], [ -41.326731004073615, -2.99668842902938 ], [ -41.311171388888887, -2.9969775 ], [ -41.281284722222225, -3.013984444444445 ], [ -41.27744222222222, -2.989376388888889 ], [ -41.236512222222224, -2.957234444444444 ], [ -41.236872430338046, -2.954829322064043 ], [ -41.239476944444448, -2.937438888888889 ], [ -41.239477004051203, -2.937438873092435 ], [ -41.272878055555559, -2.928587222222222 ], [ -41.272878055153484, -2.928587202104302 ], [ -41.272840006756546, -2.926683442525334 ], [ -41.272680833333332, -2.918719166666667 ], [ -41.271295831123261, -2.917088778377856 ], [ -41.265802777777779, -2.9106225 ], [ -41.21855, -2.8983525 ], [ -41.178306111111112, -2.900754444444444 ], [ -41.123416944444443, -2.926449444444445 ], [ -41.105099992781689, -2.927847261159047 ], [ -41.094919444444443, -2.928624166666667 ], [ -41.082012586085575, -2.908946378541165 ], [ -41.081069722222225, -2.907508888888889 ], [ -41.044083611111112, -2.904912222222222 ], [ -41.025427247213635, -2.895397790522978 ], [ -41.02542722222222, -2.895397777777778 ], [ -41.011430141239607, -2.895378825056431 ], [ -40.94316361111111, -2.895286388888889 ], [ -40.89756, -2.881347777777778 ], [ -40.891118117023112, -2.881167677497031 ], [ -40.878433888888885, -2.880813055555556 ], [ -40.87710666666667, -2.880776111111111 ], [ -40.867626985696823, -2.880510847055484 ], [ -40.862285833333331, -2.880361388888889 ], [ -40.856476302682545, -2.884587692533314 ], [ -40.850701666666666, -2.888788611111111 ], [ -40.850701649860845, -2.88878865592635 ], [ -40.85056448585695, -2.889154424328251 ], [ -40.8041, -2.8852 ], [ -40.816, -2.8997 ], [ -40.8163, -2.9128 ], [ -40.7887, -2.9626 ], [ -40.7842, -2.9873 ], [ -40.7849, -3.025 ], [ -40.798502176879481, -3.047311484377868 ], [ -40.798381944444444, -3.047409166666667 ], [ -40.793158491198341, -3.038842778676794 ], [ -40.784514444444447, -3.024666666666667 ], [ -40.7837875, -2.986911388888889 ], [ -40.78834472222222, -2.962196944444444 ], [ -40.80906932519234, -2.924780353150496 ], [ -40.8159125, -2.912425555555556 ], [ -40.815653888888889, -2.899291388888889 ], [ -40.806279357496138, -2.887955862996678 ], [ -40.803615, -2.884734166666667 ], [ -40.761075277777778, -2.855964722222222 ], [ -40.754584722222219, -2.853877222222222 ], [ -40.753048463571922, -2.853383274064031 ], [ -40.727285277777774, -2.845099722222222 ], [ -40.673599500261297, -2.854874130535497 ], [ -40.636958333333332, -2.861545277777778 ], [ -40.591583888888891, -2.859098888888889 ], [ -40.554406944444445, -2.846658055555555 ], [ -40.539430009211188, -2.831231526717294 ], [ -40.518420555555558, -2.809591388888889 ], [ -40.49825083333333, -2.808324444444445 ], [ -40.466691944444442, -2.825309444444445 ], [ -40.452961215816416, -2.829669985327559 ], [ -40.428322222222221, -2.837494722222222 ], [ -40.349428293367268, -2.83758679411209 ], [ -40.332638055555556, -2.837606388888889 ], [ -40.326952578587921, -2.838824786357427 ], [ -40.282486388888891, -2.848353888888889 ], [ -40.19177222222222, -2.845083055555556 ], [ -40.173745847153384, -2.854288983824159 ], [ -40.135253611111111, -2.873946666666667 ], [ -40.123095555555558, -2.852874166666667 ], [ -40.109543611111114, -2.846567777777778 ], [ -39.932474722222224, -2.892289722222222 ], [ -39.834292777777776, -2.938183888888889 ], [ -39.72171, -3.0235175 ], [ -39.709334702413173, -3.024824462121381 ], [ -39.7032775, -3.025464166666667 ], [ -39.690401439430453, -3.012017436120924 ], [ -39.687871944444446, -3.009375833333333 ], [ -39.66614222222222, -3.0146475 ], [ -39.622482900827308, -3.052598035443491 ], [ -39.61821, -3.056312222222222 ], [ -39.618209950862962, -3.056312249140061 ], [ -39.5566925, -3.090012222222222 ], [ -39.540059088699721, -3.102986367631257 ], [ -39.50535166666667, -3.130058333333333 ], [ -39.492192451032778, -3.133386899672172 ], [ -39.395019444444443, -3.157966388888889 ], [ -39.388418333333334, -3.164602777777778 ], [ -39.39720777777778, -3.18732 ], [ -39.397051161780048, -3.187516981150291 ], [ -39.390634444444444, -3.1955875 ], [ -39.320155, -3.198333333333333 ], [ -39.26877305511578, -3.213339732679259 ], [ -39.23159888888889, -3.224196666666667 ], [ -39.203335555555554, -3.240948888888889 ], [ -39.131115, -3.341538888888889 ], [ -39.119802770522298, -3.351204056772685 ], [ -39.074794444444443, -3.389659166666667 ], [ -39.024820826797686, -3.393086141789529 ], [ -38.984201111111112, -3.395871666666667 ], [ -38.972544199697488, -3.398880474332075 ], [ -38.964130277777777, -3.401052222222222 ], [ -38.957542860586194, -3.409295174158134 ], [ -38.957542777777775, -3.409295277777778 ], [ -38.952354722222225, -3.507138611111111 ], [ -38.958047174390622, -3.521013998670282 ], [ -38.966313888888891, -3.541164166666666 ], [ -38.931541111111109, -3.574232777777778 ], [ -38.931541058187385, -3.574232778500551 ], [ -38.919784797705432, -3.574393332302469 ], [ -38.919784722222225, -3.574393333333334 ], [ -38.933856666666664, -3.505768611111111 ], [ -38.925259444444443, -3.492853888888889 ], [ -38.928137493911052, -3.461857287800199 ], [ -38.9281375, -3.461857222222222 ], [ -38.918578173439101, -3.460670618712977 ], [ -38.916357882703586, -3.460395013024489 ], [ -38.916357777777776, -3.460395 ], [ -38.882459427922242, -3.488380017402603 ], [ -38.878214228470014, -3.491884671200038 ], [ -38.878214166666666, -3.491884722222222 ], [ -38.800543888888889, -3.576014444444445 ], [ -38.74078027777778, -3.624031388888889 ], [ -38.712516734007643, -3.645841963672057 ], [ -38.689280833333335, -3.663772777777778 ], [ -38.657989301113503, -3.680467352824635 ], [ -38.644395277777775, -3.68772 ], [ -38.641988989487515, -3.689003388492619 ], [ -38.639264166666663, -3.690456666666666 ], [ -38.638679766161125, -3.690541500971571 ], [ -38.612729166666668, -3.694308611111111 ], [ -38.565496666666668, -3.701159166666667 ], [ -38.50707083333333, -3.727918611111111 ], [ -38.507070739288501, -3.727918727249274 ], [ -38.502474041317683, -3.733595297140272 ], [ -38.397717355031233, -3.862961994787553 ], [ -38.397691708918543, -3.862985085029445 ], [ -38.357590952713466, -3.899126694313275 ], [ -38.313007936371612, -3.939276720818086 ], [ -38.304982222222222, -3.946504444444444 ], [ -38.273685833333332, -3.997214722222223 ], [ -38.261865491029212, -4.008907128921402 ], [ -38.254873611111108, -4.015823333333334 ], [ -38.237155, -4.033346666666667 ], [ -38.220188312621453, -4.05686306042592 ], [ -38.204092222222222, -4.079172777777778 ], [ -38.203983900405653, -4.079541905198877 ], [ -38.203983888888892, -4.079541944444444 ], [ -38.199863611111113, -4.093560555555555 ], [ -38.191162777777777, -4.123151666666667 ], [ -38.157682222222221, -4.134861388888889 ], [ -38.131630833333332, -4.164990555555556 ], [ -38.131310063859878, -4.165361522187182 ], [ -38.130798333333331, -4.165953333333333 ], [ -38.114540480655918, -4.184745768806456 ], [ -38.09961361111111, -4.201999722222222 ], [ -38.037049529082047, -4.257412584033752 ], [ -38.001204942384817, -4.289160119441438 ], [ -37.939558077300873, -4.34368643352737 ], [ -37.871267153923803, -4.389045934073166 ], [ -37.833312216077005, -4.400381001072358 ], [ -37.804210277777777, -4.409072222222222 ], [ -37.806790778157023, -4.413060497318312 ], [ -37.822986666666665, -4.438091944444444 ], [ -37.823017777758423, -4.441334442427372 ], [ -37.823017777777778, -4.441334444444444 ], [ -37.822813503962237, -4.44141025824319 ], [ -37.81252527777778, -4.445228611111111 ], [ -37.782804722222224, -4.456254444444444 ], [ -37.75898480056491, -4.488405692078789 ], [ -37.73739777777778, -4.517543055555556 ], [ -37.716366944444445, -4.5459075 ], [ -37.688334404880024, -4.56920686861038 ], [ -37.627872222222223, -4.619460277777778 ], [ -37.577070880875489, -4.64104645579022 ], [ -37.565862222222222, -4.645809166666667 ], [ -37.542223888888891, -4.634642222222222 ], [ -37.528783611111109, -4.636355 ], [ -37.495358055555556, -4.662483611111111 ], [ -37.459119722222219, -4.678087777777778 ], [ -37.357893924718098, -4.721634151253282 ], [ -37.357893888888889, -4.721634166666667 ], [ -37.324529166666665, -4.759039444444444 ], [ -37.315228055555558, -4.7757025 ], [ -37.31038028042537, -4.784381206099444 ], [ -37.284661944444444, -4.830423333333333 ], [ -37.275993888888891, -4.842408333333333 ], [ -37.232981666666667, -4.901840277777778 ], [ -37.197843611111111, -4.932731666666666 ], [ -37.17265583333333, -4.940939166666666 ], [ -37.133917777777775, -4.934667777777777 ], [ -37.115468611111112, -4.944453055555556 ], [ -37.092247777777779, -4.94568 ], [ -37.090051634196307, -4.945796141082888 ], [ -37.081826666666664, -4.946231111111111 ], [ -37.002664657168857, -4.929576991245399 ], [ -36.999276388888887, -4.928864166666667 ], [ -36.997121686436287, -4.929401946445855 ], [ -36.913589444444447, -4.950250277777778 ], [ -36.880063611111112, -4.972993611111111 ], [ -36.874674064921614, -4.991981260193253 ], [ -36.871809166666665, -5.002074444444444 ], [ -36.84840361111111, -5.031215277777778 ], [ -36.835820119740582, -5.038473547064193 ], [ -36.820155277777779, -5.047509166666667 ], [ -36.769535833333336, -5.076688333333333 ], [ -36.710013756042244, -5.099755417335841 ], [ -36.702338888888889, -5.102729722222223 ], [ -36.659519820490502, -5.10170567780992 ], [ -36.643428055555553, -5.101320833333333 ], [ -36.632711842058342, -5.096630402169078 ], [ -36.621506388888889, -5.091725833333333 ], [ -36.609965522445115, -5.087903508561797 ], [ -36.58779638888889, -5.080561111111111 ], [ -36.568519092314567, -5.081045962924985 ], [ -36.546159722222221, -5.081608333333334 ], [ -36.513755, -5.082420555555555 ], [ -36.51335090175867, -5.082201434538921 ], [ -36.50194611111111, -5.076017222222222 ], [ -36.500754005253754, -5.066129889796454 ], [ -36.500199166666668, -5.061528055555556 ], [ -36.49626216744884, -5.060600156395277 ], [ -36.49346, -5.059939722222222 ], [ -36.429360100789665, -5.084319891165498 ], [ -36.423800555555559, -5.086434444444444 ], [ -36.420124650507816, -5.087831366734787 ], [ -36.390968333333333, -5.098911388888889 ], [ -36.195422777777779, -5.098297222222222 ], [ -36.135121111111111, -5.089993055555555 ], [ -36.107239823315687, -5.077933080931978 ], [ -36.057579166666663, -5.0564525 ], [ -36.046426622878954, -5.054354998169788 ], [ -36.032317222222225, -5.051701388888889 ], [ -35.984029166666666, -5.058595 ], [ -35.909147137409789, -5.069272816618377 ], [ -35.906166944444443, -5.069697777777778 ], [ -35.89840842008784, -5.072357483995552 ], [ -35.795964444444444, -5.107476388888889 ], [ -35.793279371284221, -5.107861446930016 ], [ -35.780950833333335, -5.109629444444445 ], [ -35.80249527777778, -5.256320277777778 ], [ -35.849891666666664, -5.453024166666666 ], [ -35.860051111111112, -5.69404 ], [ -35.872951111111114, -5.932351388888889 ], [ -35.914030555555556, -6.120624722222222 ], [ -35.976224444444448, -6.295511111111111 ], [ -36.051096666666666, -6.607053888888889 ], [ -36.071792222222221, -6.846004444444445 ], [ -36.125116388888891, -7.080547777777777 ], [ -36.122836111111113, -7.284755277777777 ], [ -36.103301111111108, -7.468443333333333 ], [ -36.134698333333333, -7.57182111111111 ], [ -36.200856111111108, -7.628346666666666 ], [ -36.314761944444442, -7.683941944444444 ], [ -36.485366666666664, -7.738959722222221 ], [ -36.654549166666669, -7.828096666666666 ], [ -36.834094166666667, -7.954755555555556 ], [ -37.0129275, -8.098642777777778 ], [ -37.128811944444443, -8.248731666666666 ], [ -37.303070555555557, -8.361372777777778 ], [ -37.512025, -8.501260833333333 ], [ -37.71870777777778, -8.653411666666667 ], [ -37.86979, -8.745594722222222 ], [ -38.142291111111113, -8.956358611111112 ], [ -38.392303055555558, -9.229136111111112 ], [ -38.392303182312119, -9.229136249565833 ], [ -38.496932777777779, -9.343421944444444 ], [ -38.616551666666666, -9.472694166666667 ], [ -38.87506777777778, -9.394545 ], [ -39.040639166666665, -9.350264166666667 ], [ -39.312976388888892, -9.294382777777777 ] ], [ [ -39.259648218075938, -3.776742051153618 ], [ -39.259648218075938, -3.776742051153618 ], [ -39.259552752884225, -3.766882087550008 ], [ -39.259648218075938, -3.776742051153618 ] ], [ [ -36.346854828363078, -7.586829091869006 ], [ -36.312439654117185, -7.615914786398035 ], [ -36.346854828363078, -7.586829091869004 ], [ -36.346854828363078, -7.586829091869006 ] ], [ [ -45.184447957267913, -2.02091099778152 ], [ -45.181370962159242, -2.017363099051396 ], [ -45.1688875, -2.002969166666666 ], [ -45.163923506648686, -1.983845852764877 ], [ -45.157728104573472, -1.959978653466399 ], [ -45.1581, -1.9603 ], [ -45.1693, -2.0033 ], [ -45.184488565901596, -2.020825268348002 ], [ -45.184448055555556, -2.020911111111111 ], [ -45.184447957267913, -2.02091099778152 ] ], [ [ -45.136691111111112, -1.925461111111111 ], [ -45.187331666666665, -1.872526944444445 ], [ -45.214656302019549, -1.858077282034041 ], [ -45.22374277777778, -1.853272222222222 ], [ -45.225953944252318, -1.839748672495102 ], [ -45.2338675, -1.791349166666667 ], [ -45.2644525, -1.742230555555556 ], [ -45.26231065361381, -1.735459850864052 ], [ -45.257183831249961, -1.719253179622222 ], [ -45.2575, -1.7194 ], [ -45.2649, -1.7426 ], [ -45.2343, -1.7917 ], [ -45.2241, -1.8536 ], [ -45.1877, -1.8729 ], [ -45.1371, -1.9258 ], [ -45.137498536799832, -1.94243891139304 ], [ -45.137120833333334, -1.942112222222222 ], [ -45.136691111111112, -1.925461111111111 ] ] ], [ [ [ -45.0952, -1.4221 ], [ -45.1067, -1.4751 ], [ -45.1185, -1.4764 ], [ -45.1217, -1.4697 ], [ -45.1206, -1.4281 ], [ -45.1126, -1.3833 ], [ -45.1042, -1.3802 ], [ -45.0944, -1.3904 ], [ -45.0952, -1.4221 ] ] ] ] } }
]
}
