{
"type": "FeatureCollection",
"name": "SUL_GJSON",
"features": [
{ "type": "Feature", "properties": { "fid": 1, "MSLINK": 2822, "ZONA": "ilha", "TP_UMIDADE": null, "DISTR_UMID": null, "TEMPERATUR": null, "DESC_COMPL": "Temperado, subquente - média entre 15 e 18 ° C em pelo menos 1 mês, super-úmido sem seca" }, "geometry": { "type": "MultiPolygon", "coordinates": [ [ [ [ -57.336316190923441, -29.947610642643298 ], [ -57.33631611111111, -29.947610555555556 ], [ -57.323591388888886, -29.875467777777779 ], [ -57.309615751862644, -29.844780457273902 ], [ -57.3028275, -29.829875 ], [ -57.291174922076536, -29.812978762010985 ], [ -57.289110833333332, -29.809985833333329 ], [ -57.258610833333336, -29.787999722222221 ], [ -57.210901111111113, -29.768563333333329 ], [ -57.118909444444448, -29.751334444444446 ], [ -57.085278611111114, -29.739556666666665 ], [ -57.078333520819875, -29.73238918708758 ], [ -57.072838888888889, -29.72671861111111 ], [ -56.93747888888889, -29.544963888888891 ], [ -56.818552777777775, -29.46321861111111 ], [ -56.811536832766528, -29.448739510972363 ], [ -56.798633055555555, -29.422109444444448 ], [ -56.766138588952778, -29.377914745662107 ], [ -56.74603888888889, -29.350577777777783 ], [ -56.706314444444445, -29.330575833333331 ], [ -56.701463931598617, -29.324899284193236 ], [ -56.693873888888888, -29.316016666666663 ], [ -56.676513880924716, -29.280108746383942 ], [ -56.665238611111114, -29.256786666666667 ], [ -56.645914166666664, -29.192069722222218 ], [ -56.624921666666665, -29.162758888888884 ], [ -56.602131428529354, -29.145394328839849 ], [ -56.564533333333337, -29.116747222222219 ], [ -56.509124722222225, -29.08899 ], [ -56.49180198107549, -29.083698003971833 ], [ -56.456351388888891, -29.07286805555556 ], [ -56.44510128835072, -29.062979560028985 ], [ -56.438139722222225, -29.056860555555559 ], [ -56.4018475, -28.960896388888887 ], [ -56.358383191635461, -28.928658946850891 ], [ -56.339771944444443, -28.914855 ], [ -56.327626599572405, -28.899224518200352 ], [ -56.3170175, -28.885571111111108 ], [ -56.317017469494758, -28.885570978833908 ], [ -56.2966575, -28.797285833333333 ], [ -56.27545527777778, -28.785895 ], [ -56.189023055555559, -28.7548425 ], [ -56.18681849878763, -28.753084238268066 ], [ -56.171005555555553, -28.7404725 ], [ -56.09305333333333, -28.644512777777777 ], [ -56.010983055555556, -28.575601944444443 ], [ -56.00391611111111, -28.515318055555557 ], [ -55.975996666666667, -28.492918611111111 ], [ -55.955773796526628, -28.486132115605685 ], [ -55.886646111111112, -28.462933888888887 ], [ -55.878326388888887, -28.449810555555555 ], [ -55.878568138629809, -28.441264873310789 ], [ -55.878993611111113, -28.426224722222223 ], [ -55.877985277777775, -28.370735 ], [ -55.869526642019117, -28.35737610454624 ], [ -55.86552, -28.351048333333335 ], [ -55.865519973370112, -28.351048323760374 ], [ -55.840276111111109, -28.341973611111111 ], [ -55.811461213541094, -28.345263445535611 ], [ -55.772086666666667, -28.349758888888889 ], [ -55.76085682339027, -28.355290807410633 ], [ -55.7535025, -28.35891361111111 ], [ -55.712073333333336, -28.405988611111113 ], [ -55.712073285879306, -28.405988621455414 ], [ -55.702646113818723, -28.408043610520892 ], [ -55.702646111111115, -28.408043611111111 ], [ -55.685211388888888, -28.393574166666667 ], [ -55.680563848827546, -28.364817421647164 ], [ -55.678997222222222, -28.35512388888889 ], [ -55.679226083409532, -28.352871978648235 ], [ -55.682090833333334, -28.324683888888888 ], [ -55.744351593692365, -28.278088031236361 ], [ -55.7675125, -28.260754444444444 ], [ -55.767512516453159, -28.260754365157979 ], [ -55.769101091250306, -28.253099148626845 ], [ -55.77209, -28.238695833333335 ], [ -55.77208994073402, -28.238695773577238 ], [ -55.756034166666666, -28.222507222222223 ], [ -55.6522525, -28.16433138888889 ], [ -55.608901944444447, -28.134041666666668 ], [ -55.5599725, -28.144340555555555 ], [ -55.55023527777778, -28.139665 ], [ -55.523670080029959, -28.112331054075149 ], [ -55.498189444444442, -28.086113055555554 ], [ -55.498189413693062, -28.086113053804873 ], [ -55.471492191573773, -28.084593176550928 ], [ -55.444829756579495, -28.083075279733741 ], [ -55.444829722222224, -28.083075277777777 ], [ -55.382347222222222, -28.007993611111111 ], [ -55.382347215455468, -28.007993547933978 ], [ -55.380692119687403, -27.992540910726788 ], [ -55.378936111111109, -27.97614611111111 ], [ -55.379047100379005, -27.97427384102944 ], [ -55.379828333333336, -27.961095277777776 ], [ -55.358178611111114, -27.90467111111111 ], [ -55.342921365531375, -27.896888940411607 ], [ -55.321248055555557, -27.885834166666665 ], [ -55.26405, -27.879504166666667 ], [ -55.209489774106785, -27.847810307917353 ], [ -55.209489722222223, -27.847810277777779 ], [ -55.201662288772596, -27.848725640814344 ], [ -55.188743612269441, -27.85023638875343 ], [ -55.188735603440072, -27.850243240662749 ], [ -55.186615277777776, -27.8520575 ], [ -55.175239047954257, -27.861787210956031 ], [ -55.172316978603426, -27.864286359673848 ], [ -55.172316944444447, -27.864286388888889 ], [ -55.153536944444447, -27.86832 ], [ -55.153536859109003, -27.868319930098394 ], [ -55.146361293532678, -27.86244214317194 ], [ -55.14172, -27.858640277777777 ], [ -55.141719993960322, -27.858640245465406 ], [ -55.140131355507087, -27.850141003266224 ], [ -55.136719444444445, -27.831887222222221 ], [ -55.136001621747269, -27.831397799200644 ], [ -55.124984444444443, -27.823886111111111 ], [ -55.096970277777778, -27.833286944444446 ], [ -55.061006227864048, -27.834542495924005 ], [ -55.061006111111112, -27.8345425 ], [ -55.067455833333334, -27.809071388888889 ], [ -55.100615833333336, -27.787714722222223 ], [ -55.101332806188651, -27.76753064118363 ], [ -55.101453888888891, -27.764121944444444 ], [ -55.101453868490999, -27.764121907670347 ], [ -55.100343847216855, -27.762120719372131 ], [ -55.093211944444441, -27.749263055555556 ], [ -55.062426944444447, -27.738556111111112 ], [ -55.047176413166945, -27.743870654290141 ], [ -55.019520277777779, -27.753508333333333 ], [ -55.005621079067545, -27.745950012972589 ], [ -54.996233333333336, -27.740845 ], [ -54.973757222222225, -27.746664444444445 ], [ -54.972969081306779, -27.746109393987805 ], [ -54.96008, -27.737032222222222 ], [ -54.952966767201929, -27.71627128038682 ], [ -54.916755833333333, -27.610584722222221 ], [ -54.891191944444444, -27.587881944444444 ], [ -54.85060277777778, -27.567358611111111 ], [ -54.833226666666668, -27.514076111111113 ], [ -54.828270097697427, -27.509980392527122 ], [ -54.823435277777776, -27.505985277777778 ], [ -54.8084775, -27.509845833333333 ], [ -54.79100833333333, -27.544083888888888 ], [ -54.791008217982942, -27.544083937450601 ], [ -54.771359665909095, -27.552355841498262 ], [ -54.764994444444447, -27.555035555555556 ], [ -54.760340138258115, -27.552083647048466 ], [ -54.739753055555553, -27.539026666666668 ], [ -54.711004812127626, -27.546424689906516 ], [ -54.709820555555552, -27.546729444444445 ], [ -54.709820547937575, -27.546729443135582 ], [ -54.685069722222224, -27.542476944444445 ], [ -54.684208501495156, -27.539823592576248 ], [ -54.680744444444443, -27.529151111111112 ], [ -54.683954889486827, -27.524506945416778 ], [ -54.687883888888891, -27.518823333333334 ], [ -54.693338339253337, -27.514640359015527 ], [ -54.6970475, -27.511795833333334 ], [ -54.695755241087831, -27.507813863080273 ], [ -54.690560555555557, -27.491806944444445 ], [ -54.690560466028593, -27.491806939363133 ], [ -54.671620277777777, -27.490731944444445 ], [ -54.64423415678381, -27.506583973580899 ], [ -54.643923371776886, -27.506763866636437 ], [ -54.643923333333333, -27.506763888888887 ], [ -54.622823055555557, -27.499018055555556 ], [ -54.606653406277921, -27.444963213660767 ], [ -54.605366666666669, -27.440661666666667 ], [ -54.605366653810968, -27.440661654222648 ], [ -54.593578333333333, -27.429250833333334 ], [ -54.570876944444443, -27.428280833333332 ], [ -54.538053055555558, -27.457916666666666 ], [ -54.538053047314094, -27.457916664499034 ], [ -54.497971944444444, -27.447374722222222 ], [ -54.471690555555554, -27.451546944444445 ], [ -54.4619325, -27.44343 ], [ -54.4634275, -27.433286388888888 ], [ -54.496526944444447, -27.410391666666666 ], [ -54.490410555555556, -27.398798055555556 ], [ -54.481585182951079, -27.395197161429365 ], [ -54.471226944444446, -27.390970833333334 ], [ -54.444164350846336, -27.392573050108997 ], [ -54.412836666666664, -27.394427777777778 ], [ -54.404807189201762, -27.403191533604907 ], [ -54.393806388888891, -27.415198333333333 ], [ -54.377754275875034, -27.432708451797119 ], [ -54.374768888888887, -27.435965 ], [ -54.36871079239485, -27.435473103750645 ], [ -54.359613611111108, -27.434734444444445 ], [ -54.359613552878081, -27.434734360308028 ], [ -54.35958476288355, -27.43469276386088 ], [ -54.351624166666667, -27.423191111111112 ], [ -54.351624183048344, -27.423191073599508 ], [ -54.36205, -27.3993175 ], [ -54.357770555555554, -27.385980555555555 ], [ -54.34450833333333, -27.384691944444445 ], [ -54.32428109294392, -27.401222302455775 ], [ -54.318865555555554, -27.405648055555556 ], [ -54.312419178577919, -27.407955194662797 ], [ -54.298370858794009, -27.412983046443259 ], [ -54.298370833333337, -27.412983055555557 ], [ -54.294670835139307, -27.4060339363085 ], [ -54.278076388888891, -27.374867222222221 ], [ -54.239689166666665, -27.357470833333334 ], [ -54.236567083921457, -27.354121825338293 ], [ -54.225938611111111, -27.342720833333335 ], [ -54.216215567075238, -27.280502305957192 ], [ -54.2136325, -27.263973055555557 ], [ -54.199409722222221, -27.235769722222223 ], [ -54.199409659933735, -27.235769708244934 ], [ -54.196502420493275, -27.235117335199465 ], [ -54.186106111111108, -27.232784444444444 ], [ -54.186106055496808, -27.232784591019641 ], [ -54.172046095393355, -27.269840552707208 ], [ -54.1706125, -27.27361888888889 ], [ -54.147439136538942, -27.273291345589882 ], [ -54.130993055555557, -27.27305888888889 ], [ -54.101339013324754, -27.258877152867733 ], [ -54.081125555555559, -27.249210277777777 ], [ -54.063910087503295, -27.233220065016539 ], [ -54.026578333333333, -27.198545277777779 ], [ -54.005040504868191, -27.197853257745908 ], [ -53.998282222222223, -27.197636111111112 ], [ -53.992649489130031, -27.19449956022741 ], [ -53.975229166666665, -27.184799166666668 ], [ -53.955603055555557, -27.161768611111111 ], [ -53.93225847118859, -27.159559340515425 ], [ -53.914029166666666, -27.157834166666667 ], [ -53.8757725, -27.14033638888889 ], [ -53.838520277777775, -27.095875833333334 ], [ -53.831001029317832, -27.091010717356315 ], [ -53.813516388888885, -27.079697777777778 ], [ -53.810132534980177, -27.058223137765438 ], [ -53.8087625, -27.049528611111111 ], [ -53.808762475716613, -27.049528602536792 ], [ -53.768788888888892, -27.035414166666666 ], [ -53.764367184393009, -27.013407328238451 ], [ -53.762060833333337, -27.001928611111111 ], [ -53.732419767073878, -26.933606898463481 ], [ -53.729564759042788, -26.927026195981334 ], [ -53.729564722222221, -26.927026111111111 ], [ -53.690402222222225, -26.877529444444445 ], [ -53.687725841990783, -26.852352581441146 ], [ -53.687725833333332, -26.8523525 ], [ -53.698750332181753, -26.841198756530673 ], [ -53.715021666666665, -26.824736666666666 ], [ -53.738485277777777, -26.736626666666666 ], [ -53.759791388888885, -26.699055277777777 ], [ -53.755681307244998, -26.683034166221482 ], [ -53.746923333333335, -26.648895555555555 ], [ -53.762863015162004, -26.619875629096416 ], [ -53.762863055555556, -26.619875555555556 ], [ -53.744115, -26.561451388888887 ], [ -53.748011370149619, -26.530627420992921 ], [ -53.748597216576009, -26.525992822444667 ], [ -53.748597222222223, -26.525992777777777 ], [ -53.74452418028757, -26.507359461410079 ], [ -53.739817222222221, -26.485826111111113 ], [ -53.713461944444447, -26.422543333333333 ], [ -53.711591388888891, -26.363685277777776 ], [ -53.681330277777775, -26.293764722222221 ], [ -53.681330270656709, -26.293764675253922 ], [ -53.674716946699824, -26.250145292653574 ], [ -53.674716944444441, -26.250145277777779 ], [ -53.6798425, -26.234870833333332 ], [ -53.719951111111108, -26.144662777777778 ], [ -53.741961388888889, -26.132320277777779 ], [ -53.755643888888891, -26.093262222222222 ], [ -53.757763821332297, -26.056297350184998 ], [ -53.7601875, -26.01403611111111 ], [ -53.760347487943058, -26.013773476846964 ], [ -53.777898333333333, -25.984962222222222 ], [ -53.822114166666665, -25.968656111111112 ], [ -53.830242398131155, -25.956912478315218 ], [ -53.836354166666666, -25.948082222222222 ], [ -53.837631179213936, -25.93279411102138 ], [ -53.839031388888891, -25.91603111111111 ], [ -53.83032, -25.8775475 ], [ -53.830320046773018, -25.877547395668351 ], [ -53.849411944444448, -25.834961111111109 ], [ -53.841800876957699, -25.784106252925735 ], [ -53.841077777777777, -25.779274722222222 ], [ -53.841077755269211, -25.779274571781489 ], [ -53.839877222222221, -25.771250555555557 ], [ -53.839925190828218, -25.771088685694707 ], [ -53.844904722222225, -25.754285277777779 ], [ -53.847812719535256, -25.75259931767231 ], [ -53.872293611111111, -25.738406111111111 ], [ -53.877015608757688, -25.730384298869485 ], [ -53.87934083333333, -25.726434166666667 ], [ -53.879340821200444, -25.726434119190973 ], [ -53.870795833333332, -25.692997777777776 ], [ -53.879646325684639, -25.648755438414288 ], [ -53.881968035064524, -25.637149546876152 ], [ -53.881968055555554, -25.637149444444443 ], [ -53.892394761855527, -25.62855666598325 ], [ -53.894635555555553, -25.62671 ], [ -53.941405, -25.635542777777779 ], [ -53.972522564550552, -25.603916769390636 ], [ -54.00609166666667, -25.569799166666666 ], [ -54.009465387485484, -25.569582952575811 ], [ -54.01977097184686, -25.5689223899867 ], [ -54.052442023308039, -25.56682463739763 ], [ -54.079348275047984, -25.572975094888982 ], [ -54.104886666666665, -25.578812777777777 ], [ -54.128961388888889, -25.576444722222224 ], [ -54.131019687223478, -25.574457846736447 ], [ -54.143338611111112, -25.562566388888889 ], [ -54.142746388888888, -25.545749166666667 ], [ -54.10625142418651, -25.511437810963432 ], [ -54.106251388888886, -25.511437777777779 ], [ -54.110957534490417, -25.504579765223273 ], [ -54.113320277777781, -25.501136666666667 ], [ -54.125768164785299, -25.499972883767143 ], [ -54.139234444444448, -25.49871388888889 ], [ -54.173820277777779, -25.531388333333332 ], [ -54.19338796186269, -25.531665335031814 ], [ -54.212849377566592, -25.531940832386606 ], [ -54.212849444444444, -25.531940833333334 ], [ -54.207763055555553, -25.545555833333335 ], [ -54.207763003661469, -25.545555863634256 ], [ -54.171360277777779, -25.56681138888889 ], [ -54.177595790659744, -25.582104746463635 ], [ -54.179501087079487, -25.586777718837286 ], [ -54.179501111111108, -25.586777777777776 ], [ -54.201839722222225, -25.587813888888888 ], [ -54.216040129017408, -25.580855157688582 ], [ -54.231060277777779, -25.573494722222222 ], [ -54.273304764281995, -25.577023140467968 ], [ -54.275794722222223, -25.577231111111111 ], [ -54.275794726032487, -25.577231107053944 ], [ -54.293683333333334, -25.558183333333332 ], [ -54.306675833333337, -25.5577975 ], [ -54.323406008243367, -25.564760543106754 ], [ -54.336867222222224, -25.570363055555557 ], [ -54.375427222222221, -25.607922777777777 ], [ -54.375427273288913, -25.607922779117136 ], [ -54.386036634484171, -25.608201037645738 ], [ -54.405198611111111, -25.60870361111111 ], [ -54.443729444444443, -25.644563333333334 ], [ -54.458906944444443, -25.65251388888889 ], [ -54.475508983840285, -25.650744266331266 ], [ -54.481131111111111, -25.650145 ], [ -54.49883221548609, -25.630498024652898 ], [ -54.531067222222219, -25.594719444444443 ], [ -54.56243222222222, -25.588684444444443 ], [ -54.572751395458084, -25.586696979585341 ], [ -54.579472329043689, -25.585402532926054 ], [ -54.5794725, -25.5854025 ], [ -54.575290016861899, -25.57602309936593 ], [ -54.573335, -25.571638888888888 ], [ -54.569801388831301, -25.525669429018929 ], [ -54.569591666666668, -25.522941111111113 ], [ -54.568291388888888, -25.489315833333333 ], [ -54.5460125, -25.441199166666667 ], [ -54.545519443950205, -25.440468221657131 ], [ -54.544815555555559, -25.439424722222221 ], [ -54.451629444444443, -25.301043611111112 ], [ -54.445265851687338, -25.280871550571003 ], [ -54.430591388888892, -25.234354722222221 ], [ -54.418687187323165, -25.218286210811321 ], [ -54.411078888888888, -25.20801638888889 ], [ -54.4076025, -25.164355555555556 ], [ -54.423911001416165, -25.110009258103737 ], [ -54.42901472222222, -25.093001666666666 ], [ -54.429014703446363, -25.093001594133771 ], [ -54.413882777777779, -25.034545555555557 ], [ -54.413882778742739, -25.034545491808831 ], [ -54.413909377379206, -25.03278833951299 ], [ -54.415488888888888, -24.928443055555555 ], [ -54.389205051228046, -24.876187036226959 ], [ -54.369619444444446, -24.837248055555555 ], [ -54.341011984431574, -24.750456217104805 ], [ -54.3135775, -24.667223055555556 ], [ -54.319911922852732, -24.638414542642032 ], [ -54.319911944444442, -24.638414444444443 ], [ -54.304031859286056, -24.609350742927397 ], [ -54.298190555555557, -24.59866 ], [ -54.297280833333332, -24.573436111111111 ], [ -54.316044310097617, -24.54684893082602 ], [ -54.328836944444447, -24.528722222222221 ], [ -54.330189166666663, -24.515214444444446 ], [ -54.314615, -24.492112777777777 ], [ -54.306161388888889, -24.462062222222222 ], [ -54.306131685451476, -24.461237338689724 ], [ -54.306100833333332, -24.460380555555556 ], [ -54.305289701083197, -24.458620713036808 ], [ -54.305126349853488, -24.458266373537978 ], [ -54.220375277777777, -24.4249375 ], [ -53.82580027777778, -24.261473333333335 ], [ -53.460255, -24.122910833333332 ], [ -52.94582611111111, -23.956713611111113 ], [ -52.885448381714234, -23.947833896004237 ], [ -52.885448333333336, -23.947833888888891 ], [ -52.812691283689091, -23.937028397831803 ], [ -52.542617036522635, -23.896918403312018 ], [ -52.515715, -23.892923055555556 ], [ -52.51032138888889, -23.892277777777778 ], [ -52.510321361485019, -23.892277774444455 ], [ -51.889704166666668, -23.816787777777776 ], [ -51.773807777777776, -23.812679444444445 ], [ -51.77380777451198, -23.812679444324448 ], [ -51.544630355677945, -23.804258747070577 ], [ -51.487639444444447, -23.802164722222223 ], [ -51.067422904346039, -23.843966680334923 ], [ -50.831098611111109, -23.867475555555554 ], [ -50.750618547475156, -23.873729714456875 ], [ -50.31504972222222, -23.907578055555554 ], [ -49.881297222222223, -23.999698333333335 ], [ -49.434849479436465, -24.10677026938561 ], [ -49.434849444444446, -24.106770277777777 ], [ -49.304485833333331, -24.13773611111111 ], [ -48.905714722222221, -24.25374861111111 ], [ -48.830440209360255, -24.281586867018181 ], [ -48.83044, -24.281586944444445 ], [ -48.609195833333331, -24.36309 ], [ -48.609195715888468, -24.363090042829548 ], [ -48.649554289668664, -24.364515103224381 ], [ -48.609195715885768, -24.363090042830532 ], [ -48.492975621105892, -24.405472946123545 ], [ -48.074136944444447, -24.558214166666666 ], [ -47.814683651340729, -24.671817482385197 ], [ -47.814683611111114, -24.6718175 ], [ -47.679234444444447, -24.730825277777779 ], [ -47.637138055555553, -24.75946 ], [ -47.693700155327981, -24.799764521995634 ], [ -47.815537777777777, -24.8865825 ], [ -47.877671735894118, -24.903755461870038 ], [ -47.898304444444442, -24.909458055555554 ], [ -47.898304458887239, -24.909458070061277 ], [ -47.915058181545326, -24.926284782116788 ], [ -47.921959444444447, -24.933216111111111 ], [ -47.956709444444442, -24.957113888888887 ], [ -47.971912517233605, -24.979432541399959 ], [ -47.982032777777775, -24.994289444444444 ], [ -47.996471708072214, -24.981555146440133 ], [ -47.998888888888892, -24.979423333333333 ], [ -47.998888912902601, -24.979423333632919 ], [ -48.008129123453536, -24.979538610572 ], [ -48.00812916666667, -24.97953861111111 ], [ -48.01345361111111, -24.994682222222224 ], [ -48.009241666666668, -25.029811111111112 ], [ -48.009241621544803, -25.029811134879179 ], [ -47.990603888888892, -25.039628611111112 ], [ -47.970491666666668, -25.024296944444444 ], [ -47.946427503249851, -24.993877337797446 ], [ -47.914262777777779, -24.953217777777777 ], [ -47.88790901082271, -24.936793697620637 ], [ -47.881318055555553, -24.93268611111111 ], [ -47.872473809785433, -24.933712157372803 ], [ -47.868359788986574, -24.934189436698922 ], [ -47.868359722222223, -24.934189444444446 ], [ -47.882748611111111, -24.959504444444445 ], [ -47.915751111111113, -24.976687777777776 ], [ -47.935135555555554, -25.038918611111111 ], [ -47.98801064705787, -25.065792493939256 ], [ -47.9993775, -25.071569722222222 ], [ -48.0046525, -25.090063888888888 ], [ -47.998878888888889, -25.105068888888891 ], [ -47.991997213507702, -25.105758977638214 ], [ -47.984053611111108, -25.106555555555556 ], [ -47.962083888888891, -25.091196666666665 ], [ -47.956174700575176, -25.086959416272922 ], [ -47.938293888888886, -25.074137777777779 ], [ -47.923472848324188, -25.075619159615464 ], [ -47.923472777777775, -25.075619166666666 ], [ -47.917768055555555, -25.085594444444446 ], [ -47.917562863559766, -25.098764741480224 ], [ -47.917376666666669, -25.110715833333334 ], [ -47.949723611111111, -25.17312 ], [ -48.059268665988753, -25.27414615362326 ], [ -48.099378055555555, -25.31113638888889 ], [ -48.137603534547033, -25.346317013964317 ], [ -48.178238888888892, -25.383715555555554 ], [ -48.238268253735072, -25.469878774637436 ], [ -48.23826833333333, -25.469878888888889 ], [ -48.251082848290459, -25.472928875743069 ], [ -48.253066944444441, -25.473401111111112 ], [ -48.255437126119446, -25.471313664175277 ], [ -48.258702222222219, -25.468438055555556 ], [ -48.262929722222225, -25.429941666666668 ], [ -48.248832777777778, -25.374478611111112 ], [ -48.234547837560598, -25.347847465772354 ], [ -48.2348, -25.348 ], [ -48.2493, -25.375 ], [ -48.2634, -25.4304 ], [ -48.2592, -25.4689 ], [ -48.253, -25.4738 ], [ -48.3158, -25.5349 ], [ -48.3282, -25.582 ], [ -48.390923931452932, -25.600916741231838 ], [ -48.405317777777775, -25.617537222222222 ], [ -48.424252547137328, -25.626940938396764 ], [ -48.457031666666666, -25.643220277777779 ], [ -48.511678920300845, -25.698639217172918 ], [ -48.512129880791875, -25.699096545775181 ], [ -48.51213, -25.699096666666666 ], [ -48.548461111111109, -25.773218055555557 ], [ -48.5662725, -25.842127222222221 ], [ -48.577305555555554, -25.853970555555556 ], [ -48.599605833333335, -25.857538333333334 ], [ -48.621481178707228, -25.854352621970492 ], [ -48.653683055555554, -25.849663055555556 ], [ -48.670093646753791, -25.852088867331695 ], [ -48.702011388888891, -25.856806944444443 ], [ -48.707616467131096, -25.859074000802011 ], [ -48.731676111111113, -25.868805277777778 ], [ -48.735441060465881, -25.873994933404528 ], [ -48.739021111111114, -25.878929722222221 ], [ -48.733315277777777, -25.890617777777777 ], [ -48.675731480734804, -25.903331039625016 ], [ -48.653042523988027, -25.908340272481738 ], [ -48.6530425, -25.908340277777778 ], [ -48.645654943207155, -25.903611371023182 ], [ -48.610510833333336, -25.881115 ], [ -48.605104639331287, -25.881873050733923 ], [ -48.59932004782457, -25.882684159960757 ], [ -48.59932, -25.882684166666667 ], [ -48.596070821978728, -25.900047397823645 ], [ -48.59337, -25.914480277777777 ], [ -48.608101754347821, -25.946803675281885 ], [ -48.624427222222224, -25.982623888888888 ], [ -48.62790833333333, -25.9902575 ], [ -48.627864166666669, -25.991753055555556 ], [ -48.624876668045026, -26.092499675740019 ], [ -48.624876666666665, -26.092499722222222 ], [ -48.605634166666668, -26.142607777777776 ], [ -48.605489201730251, -26.154904326626333 ], [ -48.6053575, -26.166075833333334 ], [ -48.605357529473899, -26.166075900326213 ], [ -48.625359722222221, -26.21154 ], [ -48.641696710662167, -26.213097249722445 ], [ -48.664531666666669, -26.215273888888888 ], [ -48.705240277777776, -26.2491925 ], [ -48.705240328628932, -26.249192497210803 ], [ -48.70840759499103, -26.249018771968313 ], [ -48.7314075, -26.247757222222223 ], [ -48.74178, -26.238629166666666 ], [ -48.747079573105189, -26.233964037499518 ], [ -48.752149444444441, -26.229501111111112 ], [ -48.767994407988958, -26.200344390635433 ], [ -48.771193888888888, -26.194456944444443 ], [ -48.773077946957308, -26.186606498075953 ], [ -48.784848333333336, -26.137561944444446 ], [ -48.816543027717593, -26.09314474827476 ], [ -48.826477492152605, -26.079222510997408 ], [ -48.8264775, -26.0792225 ], [ -48.828008614737094, -26.079005948822878 ], [ -48.837684166666669, -26.0776375 ], [ -48.835630236552838, -26.093030773114222 ], [ -48.833660833333333, -26.107790555555557 ], [ -48.814508407909429, -26.14745754612375 ], [ -48.79172916666667, -26.194636111111112 ], [ -48.790423888888888, -26.320391944444445 ], [ -48.767745833333336, -26.343665555555557 ], [ -48.766473867971676, -26.346671837346989 ], [ -48.761031666666668, -26.359534444444446 ], [ -48.754349574382644, -26.375321647422183 ], [ -48.754315036532915, -26.375403247020159 ], [ -48.754315, -26.375403333333335 ], [ -48.722845483824386, -26.388541760251162 ], [ -48.711101111111113, -26.393445 ], [ -48.71110107884536, -26.39344503999067 ], [ -48.633256388888888, -26.489926944444445 ], [ -48.640398888888889, -26.518500277777779 ], [ -48.68108570364268, -26.576012611249471 ], [ -48.6845975, -26.580976666666668 ], [ -48.699246769961889, -26.661375092872795 ], [ -48.705715, -26.696874166666667 ], [ -48.705474449308369, -26.717101752880652 ], [ -48.70527638888889, -26.733756388888889 ], [ -48.693415277777781, -26.783936944444445 ], [ -48.682075277777777, -26.790529166666666 ], [ -48.662369056814164, -26.788291942490751 ], [ -48.633348055555558, -26.784997222222223 ], [ -48.631037674921842, -26.78672503562483 ], [ -48.620085555555555, -26.794915555555555 ], [ -48.620085528703171, -26.794915657903346 ], [ -48.618417053655442, -26.801275046086616 ], [ -48.61613777777778, -26.8099625 ], [ -48.64928851684531, -26.854820772530701 ], [ -48.6585925, -26.867410555555555 ], [ -48.662559249362872, -26.879394593737768 ], [ -48.673071111111113, -26.911152222222221 ], [ -48.684196388888886, -26.923002777777779 ], [ -48.673129331708473, -26.937822486947461 ], [ -48.659348333333334, -26.956276388888888 ], [ -48.635838888888891, -27.029793055555555 ], [ -48.635511111111114, -27.054947222222221 ], [ -48.635180277777778, -27.080080833333334 ], [ -48.621341666666666, -27.130223611111113 ], [ -48.62134159942903, -27.130223675383302 ], [ -48.618400614524219, -27.133034951270819 ], [ -48.602270555555556, -27.148453611111112 ], [ -48.591813200906415, -27.148335825711825 ], [ -48.585327777777778, -27.148262777777777 ], [ -48.56664669292914, -27.131206029911343 ], [ -48.557441666666669, -27.122801388888888 ], [ -48.554624331430986, -27.122349901316056 ], [ -48.546173055555556, -27.120995555555556 ], [ -48.514887475418298, -27.139843515699688 ], [ -48.502500833760173, -27.147305833076185 ], [ -48.502500833333336, -27.147305833333334 ], [ -48.502682948444736, -27.147843091697293 ], [ -48.524178888888891, -27.211258333333333 ], [ -48.532847357815193, -27.220165120711858 ], [ -48.539031388888887, -27.226519166666666 ], [ -48.554078333333337, -27.228370555555557 ], [ -48.57324361111111, -27.2051225 ], [ -48.603446111111111, -27.200435277777778 ], [ -48.62775, -27.214116666666666 ], [ -48.631512065729403, -27.235152509839004 ], [ -48.638264444444445, -27.272908888888889 ], [ -48.634155555555559, -27.298011111111112 ], [ -48.629499807729658, -27.304059079932205 ], [ -48.622639771478759, -27.312970491569704 ], [ -48.622639722222225, -27.312970555555555 ], [ -48.605894639486799, -27.303611624050053 ], [ -48.588963333333332, -27.294148611111112 ], [ -48.584867454755134, -27.294707792553808 ], [ -48.577630323302863, -27.295695827118113 ], [ -48.577630277777779, -27.295695833333333 ], [ -48.568219153300575, -27.322350559376794 ], [ -48.554052503020365, -27.3624741581122 ], [ -48.5540525, -27.362474166666665 ], [ -48.561950509078493, -27.371119316632683 ], [ -48.581915833333333, -27.392973333333334 ], [ -48.58139194579168, -27.429846571843164 ], [ -48.581391944444448, -27.429846666666666 ], [ -48.649285277777778, -27.433973333333334 ], [ -48.664156944444443, -27.450903333333333 ], [ -48.669616928203915, -27.466052177162517 ], [ -48.669616944444442, -27.466052222222221 ], [ -48.667765411803501, -27.474871263992398 ], [ -48.661540277777775, -27.504522222222221 ], [ -48.61857361111111, -27.604620555555556 ], [ -48.621749614529108, -27.608754676082405 ], [ -48.631567777777775, -27.621534722222222 ], [ -48.654323888888889, -27.616765 ], [ -48.662171255038054, -27.630079377489995 ], [ -48.667255277777777, -27.638705277777778 ], [ -48.667255370298442, -27.638705297096894 ], [ -48.684227222222219, -27.642249166666666 ], [ -48.685944331932419, -27.645389243573462 ], [ -48.689761666666669, -27.65237 ], [ -48.670108055555552, -27.705797777777779 ], [ -48.676411480553874, -27.715372059749239 ], [ -48.686788055555553, -27.731133055555556 ], [ -48.687264724933634, -27.736505772684051 ], [ -48.688425833333334, -27.749593055555554 ], [ -48.663561388888887, -27.767752777777776 ], [ -48.659993125070287, -27.778923572770317 ], [ -48.649689166666668, -27.811181111111111 ], [ -48.640147777777777, -27.816098888888888 ], [ -48.63060568316493, -27.821016600900585 ], [ -48.630605555555555, -27.821016666666665 ], [ -48.624679722222226, -27.837711111111112 ], [ -48.622891767411367, -27.852107692421303 ], [ -48.618235277777778, -27.889601666666668 ], [ -48.62812129294889, -27.926608979559752 ], [ -48.634408333333333, -27.950143888888888 ], [ -48.63743662722085, -27.984533032821709 ], [ -48.640910555555557, -28.023982777777778 ], [ -48.66275, -28.087945555555557 ], [ -48.660308055555554, -28.124798055555555 ], [ -48.661291523237665, -28.125987613801207 ], [ -48.665907222222224, -28.131570555555555 ], [ -48.672353671797104, -28.13002697709053 ], [ -48.679251666666666, -28.128375277777778 ], [ -48.69298222222222, -28.098359166666668 ], [ -48.692982227511258, -28.0983591667278 ], [ -48.698206315081855, -28.098419546287772 ], [ -48.706272777777777, -28.098512777777778 ], [ -48.715576944444443, -28.112031666666667 ], [ -48.715576945563697, -28.11203168203545 ], [ -48.715757942921918, -28.114517001417092 ], [ -48.717165555555553, -28.133845277777777 ], [ -48.687723333333331, -28.198886666666667 ], [ -48.699862664243561, -28.217263117185418 ], [ -48.71004527777778, -28.2326775 ], [ -48.716607330842976, -28.291592452986084 ], [ -48.716776388888889, -28.293110277777778 ], [ -48.746614166666667, -28.33537 ], [ -48.748294596199145, -28.353637230829182 ], [ -48.751554722222224, -28.389076666666668 ], [ -48.771855833333333, -28.434577222222224 ], [ -48.774556860758437, -28.452848573588053 ], [ -48.780545277777776, -28.493357777777778 ], [ -48.788905336830041, -28.508540219903651 ], [ -48.79004611111111, -28.510611944444445 ], [ -48.793777062364867, -28.517384477380219 ], [ -48.804706944444447, -28.537224722222224 ], [ -48.829236388888887, -28.555943611111111 ], [ -48.829236410327177, -28.55594367586091 ], [ -48.832744928640089, -28.566540411074079 ], [ -48.842051944444442, -28.594650277777777 ], [ -48.85086001891051, -28.60258477821278 ], [ -48.855243611111113, -28.606533611111111 ], [ -48.872867363020148, -28.611257960150645 ], [ -48.90087583333333, -28.61876611111111 ], [ -48.92184902413242, -28.623607717155483 ], [ -48.946539722222219, -28.6293075 ], [ -48.993309021394943, -28.652648655934701 ], [ -49.035701111111109, -28.673805277777774 ], [ -49.111243741353626, -28.723044626057455 ], [ -49.111243888888886, -28.723044722222223 ], [ -49.153228611111111, -28.750377777777778 ], [ -49.171959899919223, -28.764839324959851 ], [ -49.249905555555557, -28.8250175 ], [ -49.286478837892759, -28.845367015436448 ], [ -49.320271111111111, -28.864169166666663 ], [ -49.379833832090604, -28.9216869492077 ], [ -49.43407638888889, -28.974067222222217 ], [ -49.474293540165156, -29.007976104513364 ], [ -49.544406388888888, -29.067091388888894 ], [ -49.569513748273629, -29.094619513360136 ], [ -49.609047777777775, -29.137965277777777 ], [ -49.667266302498497, -29.212310923829385 ], [ -49.715373611111112, -29.273744444444446 ], [ -49.738430555555553, -29.303137777777781 ], [ -50.072864166666669, -29.811394444444446 ], [ -50.099690277777775, -29.869387777777778 ], [ -50.126543333333331, -29.927378055555554 ], [ -50.249902777777777, -30.243270277777782 ], [ -50.313032150752633, -30.404133392230797 ], [ -50.342209722222222, -30.478482222222222 ], [ -50.351782564024809, -30.495538261866589 ], [ -50.37710361111111, -30.540653055555559 ], [ -50.451498664427184, -30.625805248976633 ], [ -50.526841944444442, -30.712042777777778 ], [ -50.579487777777778, -30.83630472222222 ], [ -50.579487861383647, -30.83630480307172 ], [ -50.67323, -30.92695638888889 ], [ -50.704202287561849, -30.982715690049094 ], [ -50.712389444444447, -30.997455 ], [ -50.716168343583078, -31.003736614464614 ], [ -50.7457075, -31.052839166666661 ], [ -50.90462, -31.21548111111111 ], [ -51.042285, -31.33772 ], [ -51.069442590576017, -31.368049179361698 ], [ -51.117254444444441, -31.421444722222223 ], [ -51.206526080041336, -31.485203165814134 ], [ -51.217813888888891, -31.493265 ], [ -51.30088, -31.571823333333334 ], [ -51.370002222222219, -31.611776666666671 ], [ -51.479002222222221, -31.70352722222222 ], [ -51.584122194096146, -31.747476920460112 ], [ -51.601587222222221, -31.754778888888886 ], [ -51.676879722222225, -31.794535555555559 ], [ -51.780078333333336, -31.854177222222226 ], [ -51.843539166666666, -31.882181666666671 ], [ -51.873550330730005, -31.903587438088927 ], [ -51.969076944444446, -31.971722777777774 ], [ -52.063211388888888, -32.05981083333333 ], [ -52.10988190910335, -32.154525483833204 ], [ -52.109881944444446, -32.154525555555558 ], [ -52.110108055555557, -32.154509166666664 ], [ -52.162023516057388, -32.150754382114449 ], [ -52.183261666666667, -32.14921833333333 ], [ -52.255853333333334, -32.229022777777779 ], [ -52.279213650740374, -32.259231588537041 ], [ -52.336948333333332, -32.333892222222225 ], [ -52.381888333333336, -32.405579166666669 ], [ -52.436100575838246, -32.532077702272787 ], [ -52.44419527777778, -32.550965833333336 ], [ -52.488850555555558, -32.699931944444444 ], [ -52.528951480513896, -32.805520994486436 ], [ -52.55615, -32.877136944444445 ], [ -52.622976322149427, -33.025466044119952 ], [ -52.623102498959327, -33.025746109210623 ], [ -52.624206464481041, -33.027762180547185 ], [ -52.660530833333333, -33.094098055555556 ], [ -52.726534955713852, -33.168570495862014 ], [ -52.76928, -33.21679972222222 ], [ -52.851220804191414, -33.297539322652831 ], [ -52.898491666666665, -33.344117222222224 ], [ -52.980389166666669, -33.411633055555555 ], [ -53.103062548285173, -33.519803867065797 ], [ -53.183974444444445, -33.591150277777778 ], [ -53.253779444444447, -33.641918333333336 ], [ -53.290876314905844, -33.66222401926931 ], [ -53.3035275, -33.669148888888891 ], [ -53.306079806132459, -33.670544723093187 ], [ -53.313070833333335, -33.674368055555554 ], [ -53.379042222222225, -33.726825833333336 ], [ -53.407342610235709, -33.743865764273899 ], [ -53.4247625, -33.754354444444445 ], [ -53.493106780926979, -33.704612100124741 ], [ -53.495065165885855, -33.70318674810386 ], [ -53.495065277777776, -33.703186666666667 ], [ -53.541241111111113, -33.634960555555558 ], [ -53.529410277777778, -33.52824972222222 ], [ -53.517198435232594, -33.417787455761122 ], [ -53.513215009558607, -33.381755364240163 ], [ -53.513215, -33.381755277777778 ], [ -53.503086666666668, -33.378611944444444 ], [ -53.511542222222225, -33.328003055555556 ], [ -53.50709945192159, -33.254593871906202 ], [ -53.503312777777779, -33.192025555555553 ], [ -53.499419862302076, -33.174153361700476 ], [ -53.491650833333331, -33.138486111111114 ], [ -53.480775631515769, -33.118173292690621 ], [ -53.46406833333333, -33.086967222222221 ], [ -53.431084166666665, -33.054046111111113 ], [ -53.370159909523274, -33.017553989490352 ], [ -53.34971, -33.005305 ], [ -53.317297850343223, -32.980337150654719 ], [ -53.247623055555557, -32.926665 ], [ -53.241451388888891, -32.92006277777778 ], [ -53.245453495732548, -32.899103955749155 ], [ -53.25015, -32.874508611111111 ], [ -53.191231111111108, -32.8353125 ], [ -53.178834086680567, -32.816510456682202 ], [ -53.170436666666667, -32.803774444444443 ], [ -53.077486111111114, -32.755086666666664 ], [ -53.070987222222222, -32.735036111111114 ], [ -53.072159600295848, -32.732209923244291 ], [ -53.076607777777781, -32.721486944444443 ], [ -53.126058123394365, -32.69274585778264 ], [ -53.139345555555558, -32.685023055555554 ], [ -53.2391825, -32.625183611111112 ], [ -53.248997088117939, -32.622902031086156 ], [ -53.25499111111111, -32.621508611111111 ], [ -53.261639818295187, -32.613381252584901 ], [ -53.270370277777779, -32.602709166666664 ], [ -53.270370302719101, -32.602709164752852 ], [ -53.289110013763562, -32.601271220524453 ], [ -53.32989527777778, -32.598141666666663 ], [ -53.36093269608704, -32.568948325262234 ], [ -53.362790203765606, -32.567201180725874 ], [ -53.362790277777776, -32.56720111111111 ], [ -53.433598055555557, -32.54217388888889 ], [ -53.504843611111113, -32.468336944444445 ], [ -53.554029444444446, -32.453798055555552 ], [ -53.57438969333645, -32.437520095989591 ], [ -53.59081472222222, -32.424388333333333 ], [ -53.614635, -32.393581111111111 ], [ -53.631705428129507, -32.371485012207934 ], [ -53.638438888888892, -32.362769166666666 ], [ -53.659153888888888, -32.268126944444447 ], [ -53.696676153650657, -32.208581479030947 ], [ -53.719382777777781, -32.1725475 ], [ -53.72826388888889, -32.142068333333334 ], [ -53.728618055099147, -32.093293673966272 ], [ -53.728618055555557, -32.093293611111108 ], [ -53.737938055555553, -32.076255833333335 ], [ -53.737938068076147, -32.076255829444889 ], [ -53.787834722222222, -32.060759722222222 ], [ -53.816587537777011, -32.051815369703831 ], [ -53.837713333333333, -32.045243611111111 ], [ -53.920986111111112, -31.940575833333334 ], [ -54.008048611111114, -31.944295833333332 ], [ -54.093064166666665, -31.947102777777779 ], [ -54.124250555555555, -31.9361775 ], [ -54.123117430406808, -31.932041840974943 ], [ -54.121963888888892, -31.92783166666667 ], [ -54.162237777777776, -31.896473333333329 ], [ -54.200211161116982, -31.852410456881678 ], [ -54.224582777777776, -31.824130555555559 ], [ -54.271274444444444, -31.807691944444446 ], [ -54.291091818125864, -31.774482226813497 ], [ -54.300875207643422, -31.758087339752539 ], [ -54.300875277777777, -31.758087222222223 ], [ -54.308164091993717, -31.758765700324457 ], [ -54.314721666666664, -31.759376111111109 ], [ -54.350553914830243, -31.728372049798299 ], [ -54.3870975, -31.6967525 ], [ -54.476001666666669, -31.655459166666667 ], [ -54.500730277777777, -31.634538888888894 ], [ -54.505863055555558, -31.615884722222223 ], [ -54.506899572263883, -31.613717337380763 ], [ -54.547483611111112, -31.528855 ], [ -54.583234444444443, -31.490764444444444 ], [ -54.60637361111111, -31.466413888888887 ], [ -54.609573766618105, -31.463044573178461 ], [ -54.609573888888889, -31.463044444444449 ], [ -54.635706463163572, -31.456753311050651 ], [ -54.673747777777777, -31.447595277777779 ], [ -54.713278611111114, -31.453078333333337 ], [ -54.79568, -31.450444722222223 ], [ -54.849553888888892, -31.425146388888884 ], [ -54.89125388888889, -31.3918175 ], [ -54.925929722222222, -31.377211666666668 ], [ -54.967349722222224, -31.33882 ], [ -54.971433126644349, -31.339118300998379 ], [ -54.983103333333332, -31.339970833333332 ], [ -54.994314166666669, -31.327817777777774 ], [ -55.001352392648613, -31.327579455995352 ], [ -55.006069722222222, -31.327419722222224 ], [ -55.034240734883682, -31.311194959384014 ], [ -55.05574277777778, -31.29881111111111 ], [ -55.058500942286734, -31.299495010053693 ], [ -55.097430555555555, -31.309147777777774 ], [ -55.139327110001119, -31.298874153796731 ], [ -55.16142, -31.293456666666668 ], [ -55.179484602181113, -31.281930333971768 ], [ -55.203280277777779, -31.266747222222222 ], [ -55.285933611111112, -31.1931375 ], [ -55.296763926285877, -31.178305114432245 ], [ -55.306119444444441, -31.1654925 ], [ -55.310668700531878, -31.168171396783467 ], [ -55.314191944444445, -31.170246111111112 ], [ -55.329656836984753, -31.118327606136994 ], [ -55.34104, -31.080112222222223 ], [ -55.367990259735812, -31.032022254416262 ], [ -55.367990277777778, -31.032022222222221 ], [ -55.366937561190447, -31.027736127821875 ], [ -55.365533611111111, -31.02202 ], [ -55.365533642848916, -31.02201998831881 ], [ -55.413869829414814, -31.004229714723458 ], [ -55.451945441883574, -30.990215875170634 ], [ -55.451945555555554, -30.99021583333333 ], [ -55.464945397375246, -30.967068337899956 ], [ -55.477037777777781, -30.945536666666669 ], [ -55.566923888888887, -30.869786111111114 ], [ -55.599448055555555, -30.856759444444442 ], [ -55.611395309223255, -30.856297770454731 ], [ -55.619913333333336, -30.855968611111116 ], [ -55.640379166666669, -30.855173611111113 ], [ -55.662174722222225, -30.861052222222227 ], [ -55.661266640128034, -30.88866162778449 ], [ -55.660678888888889, -30.906531666666666 ], [ -55.670696111111113, -30.911186666666666 ], [ -55.670696109889242, -30.911186747455808 ], [ -55.670263333333331, -30.939801666666671 ], [ -55.69335341794639, -30.967343221985253 ], [ -55.705763055555558, -30.982145277777779 ], [ -55.830625833333336, -31.047818333333332 ], [ -55.906515555555558, -31.075012777777783 ], [ -55.917454493106291, -31.078410446790212 ], [ -55.954339166666664, -31.089866944444445 ], [ -55.969961997896277, -31.090177187307528 ], [ -55.981783611111112, -31.090411944444444 ], [ -55.987710402996441, -31.087251008021035 ], [ -55.998889378561543, -31.081288924026218 ], [ -55.998889444444444, -31.081288888888889 ], [ -56.010153902367122, -31.080068473274082 ], [ -56.044824166666665, -31.076312222222224 ], [ -56.055563333333332, -31.047451111111112 ], [ -56.05556332830642, -31.047451062800899 ], [ -56.055092269143238, -31.042924036201562 ], [ -56.051205833333334, -31.005574166666666 ], [ -56.06118166666667, -30.974868888888892 ], [ -56.042407777777775, -30.920138333333334 ], [ -56.053369722222222, -30.872567222222223 ], [ -56.040754166666666, -30.822624444444443 ], [ -56.044412233827387, -30.814143161083734 ], [ -56.051101666666668, -30.798633611111107 ], [ -56.085408055555554, -30.750073333333329 ], [ -56.109093614150268, -30.735226654555301 ], [ -56.134366944444444, -30.719384722222227 ], [ -56.169289166666665, -30.682552777777779 ], [ -56.180751297485564, -30.645646609184869 ], [ -56.185708055555558, -30.629686666666668 ], [ -56.191381349565454, -30.621473117936176 ], [ -56.207271111111112, -30.598468611111112 ], [ -56.241365555555554, -30.581843333333328 ], [ -56.29114222222222, -30.534235555555551 ], [ -56.368751666666668, -30.497148333333332 ], [ -56.372288076242938, -30.49279240724816 ], [ -56.43395972222222, -30.416829166666666 ], [ -56.474833070374608, -30.388443058152689 ], [ -56.4806075, -30.384432777777775 ], [ -56.507007114732183, -30.34476324208152 ], [ -56.523332777777775, -30.320231388888889 ], [ -56.536301483518514, -30.312089388714742 ], [ -56.555135555555559, -30.300265 ], [ -56.609404805309964, -30.282611925798825 ], [ -56.627493055555554, -30.276728055555555 ], [ -56.658841388888888, -30.250027222222219 ], [ -56.665598284831013, -30.237147328976295 ], [ -56.679653611111114, -30.210355277777776 ], [ -56.689712355894805, -30.19997756303372 ], [ -56.706992777777778, -30.182149166666669 ], [ -56.775147777777775, -30.155364444444441 ], [ -56.828713414436876, -30.095469260925359 ], [ -56.83488333333333, -30.088570277777777 ], [ -56.8632275, -30.07710916666667 ], [ -56.909717777777779, -30.076538055555556 ], [ -56.957728888888887, -30.086132777777774 ], [ -56.965671570839262, -30.087717683697242 ], [ -56.9706125, -30.088703611111111 ], [ -57.095276944444443, -30.126264166666665 ], [ -57.121218562589867, -30.15289075450967 ], [ -57.132781388888887, -30.164758888888887 ], [ -57.160304891835189, -30.211957000910516 ], [ -57.183289131098668, -30.251371050118056 ], [ -57.183289166666668, -30.251371111111109 ], [ -57.239553333333333, -30.278784722222223 ], [ -57.343982497384609, -30.271714721525345 ], [ -57.349559289897023, -30.273200673026565 ], [ -57.391500833333339, -30.284376111111111 ], [ -57.407986144378192, -30.283511170743957 ], [ -57.422477777777779, -30.282750833333335 ], [ -57.4988425, -30.263571388888888 ], [ -57.521274207565384, -30.25231625059061 ], [ -57.536354444444449, -30.244749722222224 ], [ -57.560748511799552, -30.228691703906001 ], [ -57.580868055555555, -30.2154475 ], [ -57.610436951564992, -30.205505216425401 ], [ -57.62258, -30.201422222222224 ], [ -57.628021846751544, -30.200194774979014 ], [ -57.643782926337678, -30.196639669175934 ], [ -57.602805888584157, -30.16689595221504 ], [ -57.513559108250163, -30.112764929134649 ], [ -57.503416388888887, -30.10661305555556 ], [ -57.453923220350731, -30.053649028514752 ], [ -57.430018888888888, -30.028068333333334 ], [ -57.377131111111112, -29.992146111111111 ], [ -57.336316190923441, -29.947610642643298 ] ], [ [ -48.197709756874993, -25.325367107353131 ], [ -48.197588055555556, -25.32529361111111 ], [ -48.181648910245919, -25.307550976939464 ], [ -48.197709756874993, -25.325367107353131 ] ], [ [ -48.179360747134631, -25.302951275753973 ], [ -48.179587776282183, -25.28654260809472 ], [ -48.179587777777776, -25.2865425 ], [ -48.198025194591857, -25.286756457849023 ], [ -48.20737861111111, -25.286865 ], [ -48.234653474038957, -25.306060140125421 ], [ -48.260623055555556, -25.324336666666667 ], [ -48.29575897385859, -25.328875415367733 ], [ -48.303185277777779, -25.329834722222223 ], [ -48.304152212938092, -25.330325163529885 ], [ -48.323444166666668, -25.340110277777779 ], [ -48.329196083287449, -25.338445426292385 ], [ -48.334608333333335, -25.33687888888889 ], [ -48.339716137768349, -25.325704101119999 ], [ -48.342232222222222, -25.320199444444444 ], [ -48.344980833333331, -25.248158888888888 ], [ -48.355415672663305, -25.249318528262524 ], [ -48.361630242922274, -25.250009162793123 ], [ -48.361630277777778, -25.250009166666668 ], [ -48.36183888441483, -25.250471686261847 ], [ -48.3455, -25.2487 ], [ -48.3427, -25.3207 ], [ -48.3351, -25.3374 ], [ -48.3239, -25.3406 ], [ -48.3037, -25.3303 ], [ -48.2611, -25.3248 ], [ -48.2079, -25.2874 ], [ -48.1801, -25.287 ], [ -48.179800113644028, -25.305492991951688 ], [ -48.179332788923354, -25.304972790184454 ], [ -48.17933277777778, -25.304972777777778 ], [ -48.179360747134631, -25.302951275753973 ] ], [ [ -48.405585, -25.292365277777776 ], [ -48.424487777777777, -25.260707777777778 ], [ -48.448606944444442, -25.257594166666667 ], [ -48.455939444444446, -25.26437138888889 ], [ -48.455938311752725, -25.264469934235414 ], [ -48.4491, -25.2581 ], [ -48.425, -25.2612 ], [ -48.4061, -25.2929 ], [ -48.393, -25.2961 ], [ -48.3765, -25.2825 ], [ -48.376404215646211, -25.282287145880485 ], [ -48.392574444444442, -25.295584444444444 ], [ -48.405102866850065, -25.292484570682568 ], [ -48.405585, -25.292365277777776 ] ], [ [ -48.468159166666666, -25.329867222222223 ], [ -48.468266694579825, -25.330309568296851 ], [ -48.4428, -25.3234 ], [ -48.442922569625161, -25.323076526778713 ], [ -48.459381277743283, -25.327505256771111 ], [ -48.468159073199395, -25.32986719707193 ], [ -48.468159166666666, -25.329867222222223 ] ], [ [ -48.4357, -25.4474 ], [ -48.435364662231798, -25.446902520893325 ], [ -48.464863611111113, -25.453880555555557 ], [ -48.465295279231988, -25.454398883602156 ], [ -48.4357, -25.4474 ] ], [ [ -48.632559438903328, -25.463219542941893 ], [ -48.672646381268926, -25.457485556645505 ], [ -48.672646388888886, -25.457485555555557 ], [ -48.71012833333333, -25.419235555555556 ], [ -48.732417777777776, -25.416064444444444 ], [ -48.732512388326036, -25.416653883237181 ], [ -48.7106, -25.4197 ], [ -48.6731, -25.458 ], [ -48.5189, -25.48 ], [ -48.4836, -25.4763 ], [ -48.483234073770802, -25.47586208828309 ], [ -48.513351384325659, -25.47902296761643 ], [ -48.518383611111112, -25.47955111111111 ], [ -48.632559438903328, -25.463219542941893 ] ] ] ] } }
]
}
